"MARKETID","MARKETNAME","MARKETTYPE","ROADADDRESS","JIBUNADDRESS","OPENINGPERIOD","LATITUDE","LONGITUDE","PUBLICTOILET","PARKINGAVAILABILITY"
93,"고흥전통시장","상설장","전라남도 고흥군 고흥읍 시장길 20","전라남도 고흥군 고흥읍 남계리 628","상설",34.6079979212,127.2858601761,"Y","Y"
94,"곡성기차마을전통시장","5일장","전라남도 곡성군 곡성로 856","전라남도 곡성군 곡성읍 읍내리 208","3일+8일",35.27976851,127.2984376,"Y","Y"
95,"곡천공설시장","상설장+5일장","울산광역시 울주군 웅촌면 곡천동문길 20-22","울산광역시 울주군 웅촌면 곡천리320-2","매일+6일",35.4656179,129.2096999,"Y","Y"
96,"곤양종합시장","5일장","경상남도 사천시 곤양면 남산로 65","경상남도 사천시 곤양면 남문외리 48-4","5일+10일",35.05653289,127.9633464,"Y","Y"
97,"골드테마거리","상설장","부산광역시 부산진구 범일로 134 중앙빌딩","부산광역시 부산진구 법천1동 836-1","매일",35.14193851,129.0597745,"Y","Y"
98,"공단종합시장","상설장","경상북도 구미시 수출대로3길107","경상북도 구미시 공단동 107","매일",36.12063634,128.3715356,"Y","Y"
99,"공덕시장","상설장","서울특별시 마포구 만리재로 19 공덕동","서울특별시 마포구 공덕동 256-10","매일",37.54479479,126.9532582,"Y","N"
100,"공릉동도깨비시장","상설장","서울특별시 노원구 동일로180길 37","서울특별시 노원구 공릉1동 566-20외 65필지","매일",37.62269037,127.0762493,"N","Y"
101,"공산면5일 전통시장","상설장+5일장","x","전라남도 나주시 공산면 금곡리 862-14","매일+6일",34.94332977,126.6081347,"Y","N"
102,"공주산성시장","상설장+5일장","충청남도 공주시 용당길 22","충청남도 공주시 산성동 190-1","매일+6일",36.45881772,127.1226143,"Y","Y"
103,"공항시장","상설장","대구광역시 동구 해동로3길 6","대구광역시 동구 지저동 694-41","매일",35.89639261,128.6382422,"Y","Y"
104,"과역전통시장","5일장","전라남도 고흥군 과역면 시장안길 15","전라남도 고흥군 과역면 과역리 162","5일+10일",34.67945246,127.3622598,"Y","Y"
105,"과역전통시장","5일장","전라남도 고흥군 과역면 과역로 857","전라남도 고흥군 과역면 과역리 162-2","5,10",34.679021,127.3626871114,"Y","Y"
106,"과천서서울프라자","상설장","경기도 과천시 별양상가 2로 20","경기도 과천시 별양동 1-18","매일",37.42682749,126.9925561,"Y","Y"
107,"과천제일쇼핑","상설장","경기도 과천시 별양상가 2로 14","경기도 과천시 별양동 1-13","매일",37.42732794,126.9929982,"Y","Y"
108,"관고전통시장","5일장","경기도 이천시 중리천로 31번길 22","경기도 이천시 관고동 10-13","2일+7일",37.28081972,127.4403608,"Y","Y"
109,"관문상가시장","상설장","대구광역시 남구 월배로 494","대구광역시 남구 대명동 1135-4","매일",35.83654368,128.5572814,"Y","Y"
110,"관문시장","상설장","대구광역시 남구 관문시장2길 43","대구광역시 남구 대명동 1160","매일",35.83553597,128.5590637,"Y","Y"
111,"관아골상가","상설장","충청북도 충주시 관아4길 8","충청북도 충주시 성내동 429","매일",36.97012227,127.9351209,"Y","Y"
112,"관악신사시장","상설장","서울특별시 관악구 관천로19길 89","서울특별시 관악구 신림동 494-34","매일",37.48679165,126.9170725,"Y","Y"
113,"관악종합시장","상설장","서울특별시 관악구 신원로 23","서울특별시 관악구 신림동 1602-1","매일",37.4815767,126.928063,"Y","N"
114,"관촌시장","5일장","전라북도 임실군 관촌면 사선1길 70-3","전라북도 임실군 관촌면 관촌리 580-1 586","5일+10일",35.67878053,127.2676801,"Y","Y"
115,"광덕시장","상설장","대구광역시 남구 자유6길50","대구광역시 남구 대명동 460-1","매일",35.8371932,128.5824169,"Y","N"
116,"광명새마을시장","상설장","경기도 광명시 광명로 831번지 4의1","경기도 광명시 광명동 342-12","매일",37.47365412,126.8513997,"Y","Y"
117,"광명전통시장","상설장","경기도 광명시 광이로13번길 17-5","경기도 광명시 광명동 158-44","매일",37.47994816,126.8561647,"Y","Y"
118,"광성시장","상설장","서울특별시 광진구 능동로 47길 30","서울특별시 광진구 중곡동 229-15","매일",37.5635863,127.0811202,"Y","Y"
119,"광안시장","상설장","부산광역시 수영구 수영로603번길 18","부산광역시 수영구 광안동559-2","매일",35.16011763,129.1124667,"Y","Y"
120,"광안어패류시장","상설장","부산광역시 수영구 민락수변로7번길 19","부산광역시 수영구 민락동181-72","매일",35.15559064,129.1245342,"Y","Y"
121,"광안종합시장","상설장","부산광역시 수영구 무학로49번길 71","부산광역시 수영구 광안동 94-1","매일",35.16442161,129.1181777,"Y","N"
122,"광양 5일시장","상설장+5일장","전라남도 광양시 광양읍 백운로 3","전라남도 광양시 광양읍 목성리 696-3","매일+6일",34.9711607,127.5904533,"Y","Y"
123,"광영상설시장","상설장","전라남도 광양시 광영동 광영시장길 19","전라남도 광양시 광영동 682 A동 682-1 B동","매일",34.96144588,127.7203697,"Y","Y"
124,"광장시장","상설장","서울특별시 종로구 창경궁로 88","서울특별시 종로구 예지동 2-1","매일",37.57011251,126.9997072,"Y","Y"
125,"광천문화시장","5일장","충청남도 홍성군 광천읍 광천로323번길 15-1 일원","충청남도 홍성군 광천읍 광천리 185-27","4일+9일",36.50232535,126.6250108,"Y","N"
126,"광천전통시장","5일장","충청남도 홍성군 광천읍 광천로 285","충청남도 홍성군 광천읍 광천리 230-32","4일+9일",36.49983774,126.6252464,"Y","Y"
127,"광탄시장","상설장","경기도 파주시 광탄면 혜음로 1120번길 22","경기도 파주시 광탄면 신산리 221-8","매일",37.782166,126.848473,"Y","Y"
128,"광탄시장","5일장","경기도 파주시 광탄면 해음로 1120번길","경기도 파주시 광탄면 신산리 222-7","3일+8일",37.78146068,126.8484764,"Y","Y"
129,"광희패션몰","상설장","서울특별시 중구 마장로1길 21","서울특별시 중구 신당동 777 광희시장","매일",37.56867293,127.0119155,"Y","Y"
130,"괴목시장","5일장","전라남도 순천시 황전면 괴목길 17","전라남도 순천시 황전면 괴목리 45-1","4일+9일",35.10255463,127.4282253,"Y","Y"
131,"괴산시장","5일장","충청북도 괴산군 괴산읍 읍내로 15길8-8","충청북도 괴산군 괴산읍 동부리 560-1","3일+8일",36.81121857,127.7950238,"Y","Y"
132,"괴정골목시장","상설장","부산광역시 사하구 사하로 198","x","매일",35.0993329,128.9937058,"Y","Y"
133,"교동시장","상설장","대구광역시 중구 교동2길11","대구광역시 중구 교동 51-1","매일",35.87370057,128.598366,"Y","Y"
134,"교동시장","상설장","전라남도 여수시 교동시장1길 17","전라남도 여수시 교동 605-44","매일",34.73908203,127.7299176,"Y","Y"
135,"구담공설시장","5일장","경상북도 안동시 풍천면 섬마길 7-9","경상북도 안동시 풍천면 구담리 494-1","4일+9일",36.54171572,128.4646132,"Y","Y"
136,"구덕대림상가","상설장","부산광역시 사상구 학감대로49번길 62","부산광역시 사상구 학장동 167-3","매일",35.13532021,128.9922406,"Y","Y"
137,"구례5일시장","5일장","전라남도 구례군 구례읍 5일시장작은길 20","전라남도 구례군 구례읍 봉동리 190-1","3일+8일",35.21015153,127.4700805,"Y","Y"
138,"구례상설시장","상설장","전라남도 구례군 구례읍 구례1길 45-6","전라남도 구례군 구례읍 봉동리 378-1","매일",35.20962446,127.4657567,"Y","Y"
139,"구로시장","상설장","서울특별시 구로구 구로동로22길 17-4","서울특별시 구로구 구로동734-17 2층","매일",37.48963005,126.8856198,"Y","N"
140,"구룡포시장","5일장","경상북도 포항시 남구 구룡포읍 구룡포길 72-1","경상북도 포항시 남구 구룡포읍 구룡포리 963-2","3일+8일",35.99031517,129.5540012,"Y","Y"
141,"구리전통시장","상설장","경기도 구리시 검배로 6번길 31","경기도 구리시 수택동 417","매일",37.5995428,127.1399042,"Y","Y"
142,"구리전통시장","상설장","경기도 구리시 검배로6번길 31","경기도 구리시 수택동 417","매일",37.599546,127.139929,"Y","Y"
143,"구림5일시장","5일장","전라남도 영암군 군서면 도갑사로 31-13","전라남도 영암군 군서면 동구림리 34-7","2일+7일",34.76237653,126.6353421,"Y","Y"
144,"구매탄시장","상설장","경기도 수원시 영통구 매여울로53번길 50-1 매탄동","경기도 수원시 영통구 매탄동 172-72","매일",37.27260269,127.0419222,"Y","Y"
145,"구미 장천시장","5일장","경상북도 구미시 장천면 상장5길 4","경상북도 구미시 장천면 상장리 918","5일+10일",36.12569981,128.4934095,"Y","Y"
146,"구미산업유통단지","상설장","경상북도 구미시 3공단1로 302-7","경상북도 구미시 임수동 92-9","매일",36.10987823,128.4026464,"Y","Y"
147,"구미제일시장상가","상설장","경상북도 구미시 1공단로 192","경상북도 구미시 공단동 264-18","매일",36.10172214,128.3841075,"Y","Y"
148,"구미종합상가","상설장","경상북도 구미시 구미중앙로9길 14-6","경상북도 구미시 원평동 119-15","매일",36.13051139,128.3304388,"Y","Y"
149,"구미파크시장","상설장","경상북도 구미시 송동로 154","경상북도 구미시 도량동 77","매일",36.14936026,128.3254714,"Y","Y"
150,"구서오시게시장","상설장","부산광역시 금정구 구서로12","부산광역시 금정구 구서동 87-9","매일",35.24735756,129.0897741,"Y","Y"
151,"구암현대시장","상설장","경상남도 창원시 마산회원구 구암서5길 15","경상남도 창원시 마산회원구 구암1동 18-2","매일",35.24823512,128.5907276,"Y","N"
152,"구역전시장","상설장","울산광역시 중구 구역전길 24-2 학성동","울산광역시 중구 학성동 432-438","매일",35.55730008,129.3284132,"Y","Y"
153,"구역전시장","상설장","울산광역시 중구 구역전길 20(학성동)","울산광역시 중구 학성동 434-7","매일",35.5570211,129.3284786,"Y","Y"
154,"구역전전통시장","상설장","울산광역시 중구 구역전길 8(학성동)","울산광역시 중구 학산동 61-9","매일",35.5559093,129.3279529,"N","Y"
155,"구역전전통시장","상설장","울산광역시 중구 구역전길 8 학산동","울산광역시 중구 학산동 61-9","매일",35.55590681,129.3279591,"Y","N"
156,"구월도매전통시장","상설장","인천광역시 남동구 인하로521번길 10-15","인천광역시 남동구 구월동 1176-14","매일",37.44365361,126.7056285,"N","Y"
157,"구월시장","상설장","인천광역시 남동구 호구포로 790번길 21-13","인천광역시 남동구 구월동 1267-4","매일",37.45336936,126.7202675,"Y","Y"
158,"구지시장","상설장","대구광역시 달성군 구지면 창리로11길 15-7","대구광역시 달성군 구지면 창리 424-2","정기",35.657765,128.412578,"Y","Y"
159,"구천동공구시장","상설장","경기도 수원시 팔달구 수원천로199번길 5 구천동","경기도 수원시 팔달구 구천동 86-1","매일",37.27212246,127.0173593,"N","Y"
160,"구포축산물도매시장","상설장","부산광역시 북구 사상로583번길 25","부산광역시 북구 구포2동 1188-3번지","매일",35.19619458,128.9892003,"Y","Y"
161,"국민시장","상설장","부산광역시 동래구 사직북로 33번길31","부산광역시 동래구 사직동 44-1","매일",35.19840108,129.0582333,"Y","Y"
162,"국제상가","상설장","부산광역시 부산진구 백양관문로 104-1","부산광역시 부산진구 당감동 791","매일",35.1684408,129.028207,"Y","Y"
163,"국제시장","상설장","부산광역시 중구 중구로 국제시장 2길 25호 2공구 서동 3층","부산광역시 중구 신창동 4가","매일",35.1015558,129.028269,"Y","Y"
164,"군복 공설시장","5일장","경상남도 함안군 군북면 중암8길 27","경상남도 함안군 군북면 중암리83-16","4일+9일",35.26104842,128.3469461,"Y","Y"
165,"군산공설시장","상설장","전라북도 군산시 신금길 18","전라북도 군산시 신영동 18-1","매일",35.98317106,126.7203245,"Y","Y"
166,"군산명산시장","상설장","전라북도 군산시 오룡로51-18","전라북도 군산시 명산동 14-27","매일",35.98251878,126.7095265,"Y","Y"
167,"군산수산물 종합센터","상설장","전라북도 군산시 내항2길 216","전라북도 군산시 해망동 1011-21","매일",35.99398528,126.7047418,"Y","Y"
168,"군산신영시장","상설장","전라북도 군산시 동신영길 56","전라북도 군산시 신영동 19-5","매일",35.98561509,126.7201199598,"Y","Y"
169,"군산역전종합시장","상설장","전라북도 군산시 구암3 1로 13-1","전라북도 군산시 대명동 138-151","매일",35.98098947,126.7203708,"Y","Y"
170,"군산주공시장","상설장","전라북도 군산시 하나운안1길 39","전라북도 군산시 나운동 836-11","매일",35.9657729,126.6954398,"Y","Y"
171,"군위전통시장","5일장","대구광역시 군위군 군위읍 중앙6길 4-1","대구광역시 군위군 군위읍 서부리 18-1","3일+8일",36.23975176,128.5679294,"Y","Y"
172,"군포역전시장","상설장","경기도 군포시 군포로538번길 18","경기도 군포시 당동 749","매일",37.35490153,126.9469987,"Y","Y"
173,"굴비골영광시장","상설장","전라남도 영광군 영광읍 중앙로3길 5-22","전라남도 영광군 영광읍 도동리 186","매일",35.27512831,126.5123229,"Y","Y"
174,"궁평항수산물 직판장","상설장","경기도 화성시 서신면 궁평항로 1049-24","경기도 화성시 서신면 궁평리689","매일",37.11602908,126.6812748,"Y","Y"
175,"권선종합시장","상설장","경기도 수원시 권선구 세권로 185 권선동","경기도 수원시 권선동 1051","매일",37.25609894,127.0245796,"Y","Y"
176,"그린종합시장","상설장","경상북도 포항시 북구 용두산길 39","경상북도 포항시 북구 장성동 1352-1","매일",36.06729427,129.3809605,"Y","Y"
177,"금곡시장","상설장+5일장","경상남도 진주시 금곡면 구암두문로 1021-9","경상남도 진주시 금곡면 두문리 639-1","매일+6일",35.09075047,128.1862309,"Y","Y"
178,"금광시장","상설장","경기도 성남시 산성대로426번길 5","경기도 성남시 중원구 금광동 4622","매일",37.45003252,127.1599062,"Y","Y"
179,"금남시장","상설장","서울특별시 성동구 금호산2길 32 2층","서울특별시 성동구 금호동3가 308","매일",37.54862752,127.0230443,"Y","Y"
180,"금만시장","상설장","전라북도 김제시 동서7길23","전라북도 김제시 요촌동 194-7","매일",35.80014317,126.8864204,"Y","Y"
181,"금사제일상가시장","상설장","부산광역시 금정구 개좌로81","부산광역시 금정구 금사동 68-14","매일",35.22045124,129.1125715,"Y","N"
182,"금산 인삼전통시장","5일장","충청남도 금산군 금산읍 건삼전1길 20-8","충청남도 금산군 금산읍 중도리 531-1","2일+7일",36.10045936,127.4921845,"Y","Y"
183,"금산국제인삼시장조합","상설장","충청남도 금산군 금산읍 인삼약초로 45","충청남도 금산군 금산읍 중도리 8-1","매일",36.10191794,127.4983403,"Y","Y"
184,"금산금빛시장","5일장","충청남도 금산군 금산읍 금산천길 98","충청남도 금산군 금산읍 하옥리 335-12","2일",36.09951247,127.490976,"Y","Y"
185,"금산수삼센터","5일장","충청남도 금산군 금산읍 인삼약초로 24","충청남도 금산군 금산읍 중도리 24","2일+7일",36.10010156,127.4964497,"Y","Y"
186,"금산약초시장","상설장","충청남도 금산군 비단로 144","충청남도 금산군 중도리 31","매일",36.10038092,127.4954728,"Y","Y"
187,"금산인삼쇼핑센터","상설장","충청남도 금산군 금산읍 인삼광장로 47","충청남도 금산군 금산읍 중도리 9-1","매일",36.10150703,127.4989588,"Y","Y"
188,"금산중부프라자(중부시장)","상설장","충청남도 금산군 금산읍 비범로 19","충청남도 금산군 금산읍 상리 89-4","매일",36.10453426,127.4910211,"Y","Y"
189,"금성","5일장","경상북도 의성군 금성면 탑리1길 39","경상북도 의성군 금성면 산운리 644-2","1일+6일",36.25298306,128.6845492,"Y","Y"
190,"금성상가시장","상설장","부산광역시 동래구 우장춘로4번길 23-8","부산광역시 동래구 온천동1407-2","매일",35.20817586,129.0719427,"Y","Y"
191,"금성시장","상설장+5일장","경상북도 의성군 금성면 탑리길56-1","경상북도 의성군 금성면 대리리 66-7","매일+6일",36.25617742,128.6814155,"Y","Y"
192,"금오시장 상인회","상설장","경상북도 구미시 금오시장로13","경상북도 구미시 원평동 1028-2","매일",36.12611188,128.3406025,"Y","Y"
193,"금촌명동로시장","상설장","경기도 파주시 명동길 56(금촌동)","경기도 파주시 금촌동 321-19","매일",37.7630739,126.7735887,"N","Y"
194,"금촌명동로시장","상설장","경기도 파주시 명동길 53","경기도 파주시 금촌동 323-1","매일",37.76330716,126.7733425,"Y","Y"
195,"금촌문화로시장","상설장","경기도 파주시 문화로 94(금촌동)","경기도 파주시 금촌동 55-4","매일",37.7625985,126.775133,"N","Y"
196,"금촌문화로시장","상설장","경기도 파주시 문화로 89-1","경기도 파주시 금촌동 66-4","매일",37.76224813,126.7748779,"Y","Y"
197,"금촌전통시장","상설장+5일장","경기도 파주시 금정 24길 18-6","경기도 파주시 금촌동 64-19","매일+6일",37.76261525,126.7738771,"Y","Y"
198,"금촌전통시장","상설장","경기도 파주시 금정24길 18-6(금촌동)","경기도 파주시 금촌동 64-19","매일",37.762599,126.773886,"Y","Y"
199,"금호행복시장","상설장","경기도 성남시 분당구 내정로 165번길 38","경기도 성남시 분당구 수내동 32","매일",37.37666085,127.1162393,"Y","Y"
200,"기계시장","5일장","경상북도 포항시 북구 기계면 새마을발상지길 7","경상북도 포항시 북구 기계면 현내리 403","2일+7일",36.06996099,129.2045022,"Y","N"
201,"기린전통시장","5일장","강원특별자치도 인제군 기린면 기린로 17","강원특별자치도 인제군 기린면 현리 639-9번지","3일+8일",37.95398472,128.3168559,"N","N"
202,"기산프라자","상설장","경상남도 창원시 오동동14길 29","경상남도 창원시 오동동 18-61","매일",35.20526975,128.5808143,"Y","Y"
203,"기장시장","상설장","부산광역시 기장군 기장읍 원내로 104번길 16","부산광역시 기장군 기장읍 대라리 68-5","매일",35.24406017,129.215363,"Y","Y"
204,"길동복조리시장","상설장","서울특별시 강동구 천호대로193길 37","x","매일",37.53757106,127.1437617,"N","Y"
205,"길음시장","상설장","서울특별시 성북구 동소문로 227 길음동","서울특별시 성북구 길음동 535-8 길음시장","매일",37.60278063,127.021592,"Y","Y"
206,"김제역전시장","상설장","전라북도 김제시 중앙로 288","전라북도 김제시 신풍동 40-2","매일",35.79317041,126.9015965,"Y","Y"
207,"김제전통시장","5일장","전라북도 김제시 사정거리1길20","전라북도 김제시 요촌동 415","2일+7일",35.80162083,126.8837192,"Y","Y"
208,"김포중앙시장","상설장","경기도 김포시 북변중로 55","경기도 김포시 북변동 382-11","매일",37.6261050478,126.710509,"N","N"
209,"까치산시장","상설장","서울특별시 강서구 강서로 12길 14","서울특별시 강서구 화곡동 342-16","매일",37.53153099,126.8478603,"Y","Y"
210,"나산 전통 5일시장","5일장","전라남도 함평군 나산면 나산길 15-10","전라남도 함평군 나산면 삼축리 344-3","4일+9일",35.11183644,126.6098468,"Y","Y"
211,"나주목사고을시장","5일장","전라남도 나주시 청동길 14","전라남도 나주시 삼도동 1388-2","4일+9일",35.03624619,126.7237675,"Y","Y"
212,"나주시 남평5일시장","상설장+5일장","전라남도 나주시 지석로 21","전라남도 나주시 남평읍 남평리 69-1","매일+6일",35.04582181,126.8415403,"Y","Y"
213,"남광시장","상설장","부산광역시 남구 홍곡로 359","부산광역시 남구 대연4동1170-7","매일",35.12392263,129.0887175,"Y","N"
214,"남광주 해뜨는시장","상설장","광주광역시 동구 제봉로17번길 13-6","광주광역시 동구 학동 55-57","매일",35.13896306,126.9212522,"Y","Y"
215,"남광주시장","상설장","광주광역시 동구 제봉로17번길 18-6","광주광역시 동구 학동 84-23","매일",35.13929961,126.9208104,"Y","Y"
216,"남구로시장","상설장","서울특별시 구로구 구로동로26길 41","서울특별시 구로구 구로2동 730-52","매일",37.49020847,126.8864324,"Y","Y"
217,"남동산업용품상가","상설장","인천광역시 남동구 은청로4-7 4-19","인천광역시 남동구 고잔동 630","매일",37.40694648,126.693402,"Y","Y"
218,"남리5일시장","5일장","전라남도 해남군 황산면 시등로 111-11","전라남도 해남군 황산면 남리리 7번지","3일+8일",34.57532366,126.4324836,"Y","Y"
219,"남면공설시장","5일장","경상남도 남해군 남면 남서대로 785-4","경상남도 남해군 남면 당항리 1381-5","4일+9일",34.77094715,127.8853542,"Y","Y"
220,"남목마성시장","상설장","울산광역시 동구 남목17길 9 동부동","울산광역시 동구 동부동 310-2","매일",35.54272388,129.4273867,"Y","Y"
221,"남목시장","상설장","울산광역시 동구 남목17길 9(동부동)","울산광역시 동구 동부동 310-2","매일",35.5427156,129.4273869,"Y","Y"
222,"남목시티시장","상설장","울산광역시 동구 남목18길 8(동부동)","울산광역시 동구 동부동 303-3","매일",35.5427086,129.4285507,"Y","Y"
223,"남문로데오시장","상설장","경기도 수원시 팔달구 행궁로 88 교동","경기도 수원시 팔달구 교동 3-6","매일",37.27463697,127.0155247,"Y","Y"
224,"남문시장","상설장","서울특별시 금천구 시흥대로 144길 17","서울특별시 금천구 독산동 984-10","매일",37.4737667,126.900424,"Y","Y"
225,"남문패션1번가시장","상설장","경기도 수원시 팔달구 정조로758번길 24 영동","경기도 수원시 팔달구 영동 43-5","매일",37.27562604,127.0181079,"N","N"
226,"남부골목시장","상설장","서울특별시 강서구 곰달래로 55길4 화곡동","서울특별시 강서구 화곡동 797-7","매일",37.5322382,126.8607298,"Y","Y"
227,"남부시장","상설장","대구광역시 남구 현충로 19길43","대구광역시 남구 대명동 797-1","매일",35.84140252,128.5769294,"Y","N"
228,"남부시장","상설장","경상북도 포항시 남구 상공로43","경상북도 포항시 남구 상도동 629","매일",36.01262688,129.3561426,"Y","Y"
229,"남부종합시장","상설장","서울특별시 서초구 방배중앙로 27길 17","서울특별시 서초구 방배동 767-1 남부종합시장","매일",37.49499219,126.9848056,"Y","Y"
230,"남성사계시장","상설장","서울특별시 동작구 동작대로29길 8 사당동","서울특별시 동작구 사당동 88-3","매일",37.48816011,126.9815648,"Y","Y"
231,"남성역골목시장","상설장","서울특별시 동작구 사당로 16가길 19","서울특별시 동작구 사당동 267-4","매일",37.48298787,126.9723253,"N","Y"
232,"남양시장","상설장+5일장","경기도 화성시 남양읍 남양시장로 61일원","경기도 화성시 남양리 1165-25","매일+6일",37.2090298,126.8159971,"Y","Y"
1,"(사)김해동상시장","상설장","경상남도 김해시 호계로 517번길 5-13","경상남도 김해시 동상동 877-2","매일",35.23623779,128.8838588,"Y","Y"
2,"(사)속초종합중앙시장","상설장","강원특별자치도 속초시 중앙로147번길 16","강원특별자치도 속초시 중앙동 471-4","매일",38.20452186,128.5901906,"Y","Y"
3,"(사)홍성상설시장","상설장","충청남도 홍성군 홍성읍 아문길 60","충청남도 홍성군 홍성읍 오관리 397-6","매일",36.59973844,126.6637088,"Y","Y"
4,"(주)대전도매시장","상설장","대전광역시 동구 대전로 785번길","대전광역시 동구 중동 76-1","매일",36.3302023,127.4329191,"Y","Y"
5,"(주)신정시장","상설장","울산광역시 남구 월평로47번길 7","울산광역시 남구 신정동 630-1","매일",35.54233752,129.3102795,"Y","N"
6,"(주)야음시장","상설장","x","울산광역시 남구 야음동 815-22","매일",35.52405748,129.3313731,"Y","Y"
7,"(주)여수수산물 특화시장","상설장","전라남도 여수시 남산로 60-31","전라남도 여수시 남산동 4","매일",34.7368326,127.7328889,"Y","Y"
8,"(주)중앙상사(송현자유시장)","상설장","인천광역시 동구 중앙로 82","인천광역시 동구 송현동 100-179","매일",37.47577727,126.632816,"Y","N"
9,"(주)중앙시장","상설장","전라남도 여수시 중앙로 43","전라남도 여수시 교동 400-1","매일",34.74059589,127.7325649,"Y","Y"
10,"1913송정역 시장","상설장","광주광역시 광산구 송정로 8번길 33","광주광역시 광산구 송정동 971-1","매일",35.13556354,126.7915343,"Y","Y"
11,"Team204","상설장","서울특별시 중구 마장로 30","서울특별시 중구 신당동 204-48 외 3필지","매일",37.56771279,127.0131966,"Y","Y"
12,"㈜서시장","상설장","전라남도 여수시 좌수영로 16-6","전라남도 여수시 서교동 280","매일",34.74179248,127.728651,"Y","Y"
13,"㈜신정시장","상설장","울산광역시 남구 월평로47번길 7","울산광역시 남구 신정동 630-1","매일",35.5423359,129.3102844,"Y","N"
14,"㈜야음시장","상설장","울산광역시 남구 수암로 234","울산광역시 남구 야음동 815-22","매일",35.52405894,129.3313722,"Y","Y"
15,"㈜여수수산물특화시장","상설장","전라남도 여수시 남산로 60-31","전라남도 여수시 남산동 4","매일",34.736825,127.732856,"Y","Y"
16,"㈜여수수산시장","상설장","전라남도 여수시 여객선터미널길 24","전라남도 여수시 교동 680","매일",34.73814206,127.7317636,"Y","Y"
17,"㈜중앙시장","상설장","전라남도 여수시 중앙로 43","전라남도 여수시 교동 400-1","매일",34.74059589,127.732581,"Y","Y"
18,"가경터미널시장","상설장","충청북도 청주시 흥덕구 풍년로160번길 42-1","충청북도 청주시 흥덕구 가경동 1342","매일",36.62736075,127.4350249,"Y","Y"
19,"가락타운상가시장","상설장","부산광역시 사하구 하신번영로 233 가락타운2 3단지","부산광역시 사하구 사하구 하단1동 1175","매일",35.10107782,128.9579657,"Y","Y"
20,"가리봉시장","상설장","서울특별시 구로구 우마3길 15","서울특별시 구로구 가리봉동 123-62","매일",37.48167727,126.8890779,"Y","N"
21,"가야벽산상가","상설장","부산광역시 부산진구 엄광로 68 벽산아파트","부산광역시 부산진구 가야2동 669-9","매일",35.14661344,129.0269894,"Y","Y"
22,"가야상설시장","5일장","경상남도 함안군 가야읍 가야8길8","경상남도 함안군 가야읍 말산리 470-1","5일+10일",35.27726096,128.4064637,"Y","Y"
23,"가야시장","5일장","경상남도 합천군 가야면 가야시장로 63-15","경상남도 합천군 가야면 황산리 17-1","5일+10일",35.76024552,128.1383663,"Y","Y"
24,"가양시장(주)","상설장","대전광역시 동구 매봉로 18","대전광역시 동구 가양동 434","매일",36.34626329,127.4431993,"Y","Y"
25,"가은아자개시장","5일장","경상북도 문경시 가은읍 가은5길 7","경상북도 문경시 가은읍 왕능리 275-26","4일+9일",36.64660927,128.0609889,"Y","Y"
26,"가음시장대상가","상설장","경상남도 창원시 성산구 원이대로 883번지 15-24","x","매일",35.2080513,128.6969918,"Y","Y"
27,"가음정시장","상설장","경상남도 창원시 성산구 원이대로863번길24","경상남도 창원시 성산구 가음동 21-20","매일",35.20828431,128.6977985,"Y","Y"
28,"가평잣고을시장","5일장","경기도 가평군 가평읍 장터2길12 204호","경기도 가평군 읍내리 405","5일+10일",37.82976594,127.5148873,"Y","Y"
29,"간석자유시장","상설장","인천광역시 남동구 백범로 312-1","인천광역시 남동구 간석동 41-1","매일",37.46388365,126.7153431,"Y","N"
30,"간성전통시장","5일장","강원특별자치도 고성군 간성시장3길 7-2","강원특별자치도 고성군 간성읍 신안리 311-10","2일+7일",38.37999652,128.4694501,"Y","Y"
31,"갈산전통시장","5일장","충청남도 홍성군 갈산면 상촌로 29","충청남도 홍성군 갈산면 상촌리 240-16","3일+8일",36.60369791,126.5505543,"Y","Y"
32,"감안시장","상설장","부산광역시 남구 홍곡로 17","부산광역시 남구 감만1동 171-9","매일",35.11634433,129.0821611,"Y","N"
33,"감전시장","상설장","부산광역시 사상구 새벽로168번길 21-6","부산광역시 사상구 감전동121-12","매일",35.1561407,128.984607,"Y","Y"
34,"감전제일상가시장","상설장","부산광역시 사상구 새벽로168번길 21-11","부산광역시 사상구 감전동 121-12","매일",35.15632532,128.9845484,"Y","N"
35,"감천2동시장","상설장","부산광역시 사하구 옥천로75번길 17","부산광역시 사하구 감천 2동 13-13","매일",35.09387881,129.0088484,"Y","N"
36,"감포시장","5일장","경상북도 경주시 감포로115","경상북도 경주시 감포리 436-1","3일+8일",35.80411024,129.5020144,"Y","Y"
37,"강경 젓갈시장","상설장","충청남도 논산시 강경읍 금백로 45","충청남도 논산시 강경읍 황산리 198","매일",36.15755625,127.0098063,"Y","N"
38,"강경대흥시장","5일장","충청남도 논산시 강경읍 대흥로 23- 1","충청남도 논산시 강경읍 대흥리 17-8","4일+9일",36.15597866,127.013675,"Y","Y"
39,"강곡전통시장","5일장","충청북도 음성군 감곡면 장감로 132번길 22","충청북도 음성군 감곡면 왕장리 525-8","3일+8일",37.11822939,127.6391738,"Y","Y"
40,"강구시장","5일장","경상북도 영덕군 강구면 강구시장1길","경상북도 영덕군 강구면 오포리 535","3일+8일",36.35802377,129.3805615,"Y","Y"
41,"강남시장","상설장","서울특별시 동작구 상도로 357 아파트 시장","서울특별시 동작구 상도동 488 강남상가아파트","매일",37.49693976,126.9535408,"Y","Y"
42,"강남시장","상설장","경기도 부천시 옥산로154번길 21","경기도 부천시 도당동 276-4","매일",37.50749709,126.7814664,"Y","Y"
43,"강남시장","상설장","서울특별시 강남구 압구정로 2길 46","서울특별시 강남구 신사동 510-11","매일",37.51876726,127.0206916,"Y","Y"
44,"강릉동부시장","상설장","강원특별자치도 강릉시 옥천로 48","강원특별자치도 강릉시 옥천동 223","매일",37.76006572,128.9006624,"Y","Y"
45,"강릉서부시장","상설장","강원특별자치도 강릉시 임영로 155번길 6","강원특별자치도 강릉시 용강동 29","매일",37.75509423,128.8907988,"Y","Y"
46,"강릉성남시장","상설장","강원특별자치도 강릉시 중앙시장1길 16","강원특별자치도 강릉시 성남동 54-10","매일",37.75345075,128.8992157,"Y","Y"
47,"강릉중앙시장","상설장","강원특별자치도 강릉시 금성로21","강원특별자치도 강릉시 성남동 50","매일",37.75402359,128.8986233,"Y","Y"
48,"강북북부시장(주)","상설장","서울특별시 강북구 한천로 123길 26","서울특별시 강북구 번동 413-3","매일",37.63623599,127.0303422,"Y","Y"
49,"강진시장","5일장","전라북도 임실군 강진면 호국로 14-12","전라북도 임실군 강진면 갈담리 515-4","2일+7일",35.52906902,127.161038,"Y","Y"
50,"강진읍시장","5일장","전라남도 강진군 강진읍 동성리 시장길 19","전라남도 강진군 강진읍 동성리 187-5","4일+9일",34.6403433,126.7741164,"Y","Y"
51,"강천시장","상설장","부산광역시 사하구 옥천로 8","부산광역시 사하구 감천 1동 471","매일",35.08826986,129.0055233,"Y","N"
52,"강화중앙시장","상설장","인천광역시 강화군 강화읍 강화대로 429 A동 430 B동","인천광역시 강화군 강화읍 신문리 205-5 A동 관청리 523-3 B동","매일",37.74685524,126.4838615,"Y","Y"
53,"강화터미널상가","상설장","인천광역시 강화군 남산리 중앙로 43","인천광역시 강화군 남산리 222번지","매일",37.73977668,126.4904067,"Y","Y"
54,"강화풍물시장","5일장","인천광역시 강화군 강화읍 중앙로 17-9","인천광역시 강화군 강화읍 갑곳리 849","2일+7일",37.74142155,126.4928692,"Y","Y"
55,"개금골목시장","상설장","부산광역시 부산진구 가야공원로 14번길 85","부산광역시 부산진구 개금동 173-2","매일",35.1518328,129.0247937,"Y","N"
56,"개금큰시장","상설장","부산광역시 부산진구 엄광로 15","부산광역시 부산진구 개금동 615-20","매일",35.14853427,129.0178858,"Y","N"
57,"개봉중앙시장","상설장","서울특별시 구로구 개봉로 17길 34","서울특별시 구로구 개봉동 324-1","매일",37.49178393,126.8540716,"Y","N"
58,"개봉프라자","상설장","서울특별시 구로구 고척로40길 19","서울특별시 구로구 고척동 269의1","매일",37.50195711,126.8511199,"Y","Y"
59,"거제고현시장","상설장","경상남도 거제시 중앙로 1883-2","경상남도 거제시 고현동 98-27","매일",34.88625809,128.6236545,"Y","Y"
60,"거제시장","상설장","부산광역시 연제구 거제시장로14번길28","부산광역시 연제구 거제동 486-1","매일",35.18193157,129.0727929,"Y","Y"
61,"거제읍내시장","5일장","경상남도 거제시 거제읍내로2길 28","경상남도 거제시 거제면 서상리 325-2번지","4일+9일",34.85055855,128.590311,"Y","N"
62,"거진전통시장","상설장+5일장","강원특별자치도 고성군 거진시장길 15","강원특별자치도 고성군 거진리 272","매일+6일",38.44783915,128.4539615,"Y","Y"
63,"거창시장","상설장+5일장","경상남도 거창군 거창읍 중앙로 140","경상남도 거창군 중앙리 154-12","매일+6일",35.68683071,127.9140377,"Y","Y"
64,"건천시장","5일장","경상북도 경주시 건천읍 내서로 1131-1","경상북도 경주시 건천읍 건천리 339-4","5일+10일",35.84830099,129.1048106,"Y","Y"
65,"결초보은시장","상설장+5일장","충청북도 보은군 보은읍 삼산로3길 12-1","충청북도 보은군 보은읍 삼산리 31-15","매일+6일",36.48292036,127.7193209,"Y","Y"
66,"경동광성상가","상설장","서울특별시 동대문구 고산자로 464","서울특별시 동대문구 제기동 917","매일",37.58099105,127.0388095,"Y","N"
67,"경동시장","상설장","서울특별시 동대문구 고산자로36길 3","서울특별시 동대문구 제기동 1036","매일",37.57903777,127.0391429,"Y","Y"
68,"경민인터빌상가","상설장","경상남도 창원시 마산회원구 양덕북12길 113","경상남도 창원시 마산 회원구 양덕북 12가-113","매일",35.23190306,128.5838191,"Y","Y"
69,"경산공설시장","5일장","경상북도 경산시 경안로31길 19","경상북도 경산시 서상동 10","5일+10일",35.82051858,128.7357579,"Y","Y"
70,"경안시장","5일장","경기도 광주시 경안로25번길 14-1","경기도 광주시 경안동 33-16","3일+8일",37.40885891,127.2570300252,"Y","Y"
71,"경주성동공설시장","상설장","경상북도 경주시 원화로 281번길 11-11","경상북도 경주시 성동동 51-1번지 일원","매일",35.84554647,129.2162805,"Y","Y"
72,"경주중심상가시장","상설장","경상북도 경주시 태종로 791번길16","경상북도 경주시 황오동 234-1","매일",35.84225824,129.2146805,"Y","Y"
73,"경주중앙시장","5일장","경상북도 경주시 금성로 295","경상북도 경주시 성건동 339-2","2일+7일",35.84396049,129.2067453,"Y","Y"
74,"경창상가","상설장","경상남도 창원시 성산구 상남로 67","경상남도 창원시 성산구 상남동 73-5","매일",35.22016512,128.6793262,"Y","Y"
75,"경창시장","상설장","서울특별시 양천구 오목로9길 31","서울특별시 양천구 신월동 447-8","매일",37.52493416,126.8421214,"Y","Y"
76,"경화시장","5일장","경상남도 창원시 진해구 경화로 38번길","경상남도 창원시 진해구 경화동 906","3일+8일",35.15705817,128.6903949,"Y","Y"
77,"계산시장","상설장","인천광역시 계양구 계산 시장길 10-18","인천광역시 계양구 계산 계산동 960-27","매일",37.5392795,126.7248527,"Y","Y"
78,"계양산전통시장","상설장","인천광역시 계양구 병방시장로69 2층","인천광역시 계양구 병방동 383","매일",37.54845862,126.7392428,"Y","Y"
79,"계천공설시장","5일장","경상남도 하동군 금남면 섬진강대로 977-17","경상남도 하동군 금남면 계천리 355-3","5일+10일",34.99598807,127.8094994,"Y","Y"
80,"고덕시장","5일장","충청남도 예산군 고덕면 용고길 342","충청남도 예산군 고덕면 대천리 783-3","3일+8일",36.7439262,126.7052143,"Y","Y"
81,"고려쇼핑센터","상설장","부산광역시 사상구 사상로 207","부산광역시 사상구 괘법동 535-11","매일",35.16361948,128.9841829,"Y","Y"
82,"고리울동굴시장","상설장","경기도 부천시 고리울로64번길 27","경기도 부천시 오정구 고강동 407","매일",37.52584383,126.8226996,"N","Y"
83,"고분다리전통시장","상설장","서울특별시 강동구 구천면로34길 13","서울특별시 강동구 천호동 393-32","매일",37.54248956,127.1319288,"Y","Y"
84,"고산미소시장","5일장","전라북도 완주군 고산면 남봉로 134","전라북도 완주군 고산면 읍내리 884-4","4일+9일",35.97407542,127.2054123,"Y","Y"
85,"고성공룡시장","상설장","경상남도 고성군 고성읍 성내로112번길 75-8","경상남도 고성군 고성읍 성내리 212-3","매일",34.97266192,128.3233799865,"Y","Y"
86,"고성시장","상설장+5일장","경상남도 고성군 고성읍 중앙로25번길57","경상남도 고성군 고성읍 서외리 1-6","매일+6일",34.97730013,128.3230484,"Y","Y"
87,"고성오일시장","5일장","제주특별자치도 서귀포시 성산읍 고성오조로 93","제주특별자치도 서귀포시 성산읍 고성리 1180-34","4일+9일",33.45186232,126.9128147,"Y","Y"
88,"고창 전통시장","5일장","전라북도 고창군 고창읍 동리로 62-11","전라북도 고창군 고창읍 읍내리 367","3일+8일",35.43266573,126.6987711,"Y","Y"
89,"고창전통시장","상설장+5일장","전라북도 고창군 고창읍 동리로 62-11","전라북도 고창군 고창읍 읍내리 367","매일,+3일,+8일",35.43266509,126.6987705,"Y","Y"
90,"고척골목시장","상설장","서울특별시 구로구 중앙로8길 10 고척동","서울특별시 구로구 고척동 51-10","매일",37.5033751,126.8627093,"N","N"
91,"고척근린시장","상설장","서울특별시 구로구 고척로 40길 19","서울특별시 구로구 고척동 269-1","매일",37.50195711,126.8511199,"Y","Y"
92,"고한구공탄시장","상설장+5일장","강원특별자치도 정선군 고한읍 고한 4길 38-6","강원특별자치도 정선군 고한읍 고한리 62-14","매일+6일",37.20132181,128.8540542,"Y","Y"
417,"르네시떼","상설장","부산광역시 사상구 광장로7","부산광역시 사상구 괘법동 529-1","매일",35.16433608,128.9777161,"Y","Y"
418,"마량 5일시장","5일장","전라남도 강진군 마량면 마량5길 11","전라남도 강진군 마량면 마량리 987-11","3일+8일",34.45095581,126.8165815,"Y","Y"
419,"마로관기시장(관기재래시장)","상설장+5일장","충청북도 보은군 마로면 관기3길 6-7","충청북도 보은군 마로면 관기리 377-1","매일+6일",36.43524313,127.8175961,"Y","Y"
420,"마산구암시장","상설장","경상남도 창원시 마산 회원구 구암남 14길 8","경상남도 창원시 마산 회원구 구암동 87","매일",35.24953898,128.5996435,"Y","Y"
421,"마산부림시장","상설장","경상남도 창원시 마산함포구 3 15대로 352","경상남도 창원시 마산합포구 부림동 32","매일",35.20578871,128.5734587,"Y","Y"
422,"마산수산시장","상설장","경상남도 창원시 마산합포구 수산2길 194","경상남도 창원시 마산합포구 남성동 229-1","매일",35.20181664,128.5789097,"Y","Y"
423,"마산어시장","상설장","경상남도 창원시 마산합포구 복요리로 7","경상남도 창원시 마산합포구 동성동 314","매일",35.20376172,128.578956,"Y","Y"
424,"마산역번개시장","상설장","경상남도 창원시 마산회원구 석전동 16길","경상남도 창원시 마산회원구 석전1동 43","매일",35.2359464,128.5783283,"Y","Y"
425,"마장축산물","상설장","서울특별시 성동구 마장로35길 68 4층","서울특별시 성동구 마장동 439-1 4층","매일",37.57068248,127.0412753,"Y","Y"
426,"마전시장","5일장","충청남도 금산군 추부면 마전1길 38","충청남도 금산군 추부면 마전리 547-1","4일+9일",36.19060645,127.4669757,"Y","N"
427,"마천시장","상설장","서울특별시 송파구 마천로45길 23 113호","서울특별시 송파구 마천동 140-2번지","매일",37.49808049,127.1506963,"Y","N"
428,"마천시장","5일장","경상남도 창원시 진해구 웅동로 57","경상남도 창원시 진해구 마천동 131-22","5일+10일",35.12538771,128.7828095,"Y","Y"
429,"마천전통시장","5일장","경상남도 함양군 마천면 천왕봉로 1144-2","경상남도 함양군 마천면 가흥리 609-2","5일+10일",35.3956493,127.6626812,"Y","Y"
430,"마천중앙시장","상설장","서울특별시 송파구 마천로45길 2층","서울특별시 송파구 마천동 146-7","매일",37.4984143,127.1513355,"Y","Y"
431,"마포농수산물시장","상설장","서울특별시 마포구 월드컵로 235 성산동","서울특별시 마포구 성산동 533-1","매일",37.56519935,126.8984828,"Y","Y"
432,"마포시장","상설장","서울특별시 마포구 마포대로6길 16 만리재로 23 공덕동","서울특별시 마포구 공덕동 256-5 256-30","매일",37.54539208,126.9533186,"Y","N"
433,"만덕2동 제일상가시장","상설장","부산광역시 북구 함박봉로140번길 109","부산광역시 북구 만덕2동 945-2","매일",35.20223944,129.0361289,"Y","N"
434,"만덕시장","상설장","부산광역시 북구 만덕1로24번길 8","부산광역시 북구 만덕1동 829","매일",35.21449706,129.0353711,"Y","N"
435,"만리시장","상설장","서울특별시 용산구 효창원로 270 서계동","서울특별시 용산구 서계동 260-1 만리시장","매일",37.5513334,126.963696,"Y","N"
436,"만물의거리시장","상설장","부산광역시 중구 국제시장 2길24-1","부산광역시 중구 신창동4가 10-5","매일",35.10148479,129.0285506,"Y","Y"
437,"만수시장","상설장","인천광역시 남동구 만수로27번길 10-11","인천광역시 남동구 만수동 868-26","매일",37.46004849,126.7317844,"Y","Y"
438,"말바우시장","상설장+5일장","광주광역시 북구 동문대로97번길 55","광주광역시 북구 우산동 190-1","2일+4일+7일+9일",35.17297793,126.9213607,"Y","Y"
439,"망미삼성상가시장","상설장","부산광역시 수영구 망미로30번길 23","부산광역시 수영구 망미동777","매일",35.16860867,129.1008259,"Y","Y"
440,"망미새상가시장","상설장","부산광역시 수영구 연수로275번길 9","부산광역시 수영구 망미동831","매일",35.17361624,129.1007557,"Y","N"
441,"망미종합시장","상설장","부산광역시 수영구 연수로310번길 16","부산광역시 수영구 망미동804","매일",35.17180242,129.1035626,"Y","N"
442,"망미중앙시장","상설장","부산광역시 수영구 과정로6번길7","부산광역시 수영구 망미동 420-25","매일",35.17236834,129.1093334,"Y","Y"
443,"망원동 월드컵시장","상설장","서울특별시 마포구 망원로7길 3 31 망원동","서울특별시 마포구 망원동 424-7","매일",37.55873145,126.9050809,"Y","N"
444,"망원시장","상설장","서울특별시 마포구 망원로8길 3 70 망원동","서울특별시 마포구 망원동 486-37","매일",37.55715742,126.9059941,"Y","Y"
445,"매산시장","상설장","경기도 수원시 팔달구 권선로 477 매산로2가","경기도 수원시 팔달구 매산로2가 90","매일",37.26457142,127.0033544,"N","N"
446,"매일시장","상설장","전라북도 익산시 중앙로 3길 13","전라북도 익산시 창인동1가 88-5","매일",35.94039785,126.949674,"Y","Y"
447,"매포전통시장","5일장","충청북도 단양군 매포읍 평동24길 8","충청북도 단양군 매포읍 평동리 1139","4일+9일",37.03422045,128.2990703,"Y","Y"
448,"면목골목시장","상설장","서울특별시 중랑구 사가정로50길 84","서울특별시 중랑구 면목동 666-15","매일",37.57748534,127.0844361,"Y","Y"
449,"면목시장","상설장","서울특별시 중랑구 면목로39길 11","서울특별시 중랑구 면목동 650 카멜리아쇼핑센타","매일",37.57955168,127.0862991,"Y","Y"
450,"명곡종합상가","상설장","경상남도 창원시 의창구 명서로116번길 20","경상남도 창원시 의창구 명서동 75-16","매일",35.2484874,128.6462193,"Y","Y"
451,"명덕시장","상설장","대구광역시 남구 대명로 57길 10-46","대구광역시 남구 대명동 141-1","매일",35.84479575,128.5882688,"Y","N"
452,"명서시장","상설장","경상남도 창원시 의창구 원이대로 189번길 20","경상남도 창원시 명서동 45-10","매일",35.24860588,128.6447641,"Y","Y"
453,"명일전통시장","상설장","서울특별시 강동구 양재대로138길 20","서울특별시 강동구 명일동 333-2 일대","매일",37.54953208,127.1449535,"Y","Y"
454,"명장시장","상설장","부산광역시 동래구 명장로64번길 12","부산광역시 동래구 명장1동145-9","매일",35.20401286,129.1074835,"Y","N"
455,"명지시장","상설장","부산광역시 강서구 신포길 17번길 27","부산광역시 강서구 명지동 1-377","매일",35.11254126,128.931598,"Y","Y"
456,"모라전통시장","상설장","부산광역시 사상구 사상로 483","부산광역시 사상구 모라동 1089-3","매일",35.18763087,128.9874369,"Y","Y"
457,"모란시장","상설장","경기도 성남시 중원구 성남대로 1127","경기도 성남시 중원구 성남동 4182","매일",37.43033963,127.1288869,"N","Y"
458,"모란전통기름시장","상설장","경기도 성남시 중원구 둔촌대로 83번길 7","경기도 성남시 중원구 성남동 4222","매일",37.43090769,127.1280077,"Y","Y"
459,"모란종합시장","5일장","경기도 성남시 중원구 성남대로 1127","경기도 성남시 중원구 성남동 4182","4일+9일",37.43033963,127.1288869,"Y","Y"
460,"모슬포중앙시장","상설장","제주특별자치도 서귀포시 대정읍 상모로 327","제주특별자치도 서귀포시 대정읍 하모리 824-2","매일",33.22206691,126.2545138,"Y","Y"
461,"목2동시장","상설장","서울특별시 양천구 목동중앙북로 16길3","서울특별시 양천구 목동 526","매일",37.5460499,126.8738866,"Y","N"
462,"목도시장","5일장","충청북도 괴산군 불정면 목도로4길 11","충청북도 괴산군 불정면 목도리 308-9","4일+9일",36.87204723,127.8530539,"Y","Y"
463,"목동깨미시장","상설장","서울특별시 양천구 목동중앙북로6길 5 목동","서울특별시 양천구 목동 617-13 목3동시장 고객지원센터","매일",37.54818453,126.8652286,"Y","Y"
464,"목사랑시장","상설장","서울특별시 양천구 목동중앙남로7길 8 목동","서울특별시 양천구 목동 726-18 목4동시장고객지원센터","매일",37.53761613,126.866218,"Y","Y"
465,"목포 항동시장","상설장","전라남도 목포시 수강로12번길 2","전라남도 목포시 수강동1가 1","매일",34.78600886,126.3856122,"Y","Y"
466,"목포동부시장","상설장","전라남도 목포시 영산로257번길 15","전라남도 목포시 용당동 1053","매일",34.80460739,126.3934553,"Y","Y"
467,"목포자유시장","상설장","전라남도 목포시 자유로 122","전라남도 목포시 산정동 1383","매일",34.79296436,126.4030678,"Y","Y"
468,"목포종합수산시장","상설장","전라남도 목포시 해안로 265-4","전라남도 목포시 광동1가 4-13","매일",34.78777034,126.3898732,"Y","Y"
469,"목행시장","5일장","충청북도 충주시 행정9길 35","충청북도 충주시 목행동 600-15","2일+7일",37.01395118,127.9173276,"Y","Y"
470,"못골골목시장","상설장","부산광역시 남구 못골로 66-1","부산광역시 남구 대연5동 1416-23","매일",35.13586148,129.0896366,"Y","Y"
471,"못골종합시장","상설장","경기도 수원시 팔달구 수원천로258번길 10-12 지동","경기도 수원시 팔달구 지동 387-1","매일",37.27602819,127.0207728,"Y","Y"
472,"무능시장","상설장","광주광역시 남구 군분로27","광주광역시 남구 주월동 974-107","매일",35.13592608,126.8945422,"Y","Y"
473,"무안시장","상설장+5일장","경상남도 밀양시 무안면 사명로510-1","경상남도 밀양시 무안면 무안리 814-2","매일+6일",35.4703238,128.6520984,"Y","Y"
474,"무안전통시장","5일장","전라남도 무안군 무안읍 승달로 11","전라남도 무안군 무안읍 성내리 21-6","4일+9일",34.99348701,126.4724275,"Y","Y"
475,"무장전통시장","5일장","전라북도 고창군 무장면 왕제산로 725","전라북도 고창군 무장면 무장리 85-1","5일,+10일",35.41442786,126.5606051,"Y","Y"
476,"무장전통시장","5일장","전라북도 고창군 무장면 왕제산로 725","전라북도 고창군 무장면 무장리 85-1","5일+10일",35.41442839,126.560604,"Y","Y"
477,"무주시장","상설장+5일장","전라북도 무주군 무주읍 장터로 2","전라북도 무주군 무주읍 읍내리 1152","매일+6일",36.00465521,127.6534743,"Y","Y"
478,"무풍시장(대덕산장터)","5일장","전라북도 무주군 무풍면 현내로 213","전라북도 무주군 무풍면 현내리 259-5","3일+8일",35.96945323,127.8487939,"Y","Y"
479,"무학시장","상설장","충청북도 충주시 무학1길 19","충청북도 충주시 봉방동 8-6","매일",36.97459835,127.9272631,"Y","Y"
480,"묵호시장","상설장","강원특별자치도 동해시 일출로 59-1","강원특별자치도 동해시묵호동 15-61","매일",37.55235883,129.114195,"Y","Y"
481,"묵호항 자연산 수산물 판매장","상설장","강원특별자치도 동해시 일출로 15-128","강원특별자치도 동해시 묵호진동 15-128번지 외 4필지","매일",37.5520617,129.1162072,"Y","N"
482,"문경전통시장","5일장","경상북도 문경시 문경읍 문희로 41-15","경상북도 문경시 문경읍 하리 88-2","2일+7일",36.7355833,128.1074789,"Y","Y"
483,"문경중앙시장","상설장","경상북도 문경시 중앙시장길32-10","경상북도 문경시 흥덕동 794-1","매일",36.60138925,128.2041632,"Y","Y"
484,"문막전통시장","5일장","강원특별자치도 원주시 문막읍 문막시장1길 52-10","강원특별자치도 원주시 문막읍 문막리 240-1","3일+8일",37.30603623,127.8153591,"Y","Y"
485,"문산시장","5일장","경상남도 진주시 문산읍 소문길 68","경상남도 진주시 문산읍 소문리 112-6","4일+9일",35.17046506,128.1691574,"Y","Y"
486,"문산자유시장","상설장","경기도 파주시 문산읍 문향로 57","경기도 파주시 문산읍 문산리 10-23","매일",37.8569889,126.7841888,"Y","Y"
487,"문산자유시장","상설장","경기도 파주시 문산읍 문향로 57","경기도 파주시 문산읍 문산리 10-23","매일",37.85672748,126.7839421,"Y","Y"
488,"미금현대벤처빌","상설장","경기도 성남시 분당구 돌마로90번길 8","경기도 성남시 분당구 구미동 26-1","매일",37.3492844,127.1117738,"Y","Y"
489,"미나리광시장","상설장","경기도 수원시 팔달구 수원천로 266-4 지동","경기도 수원시 팔달구 지동 400-12","매일",37.27727659,127.0196391,"Y","Y"
490,"미래그린시장","상설장","경기도 성남시 분당구 불정로386번길 10 서현동 효자촌미래타운아파트","경기도 성남시 분당구 서현동 307","매일",37.37341644,127.1380364,"Y","Y"
491,"미래타운 제2종합시장","상설장","경기도 성남시 분당구 불정로376번길 31","경기도 성남시 분당구 서현동 311","매일",37.37225503,127.1388711,"Y","Y"
492,"민락골목시장","상설장","부산광역시 수영구 광안해변로 277번길39","부산광역시 수영구 민락동 231-40","매일",35.15760964,129.1236523,"Y","Y"
493,"민락씨랜드시장","상설장","부산광역시 수영구 광안해변로 299","부산광역시 수영구 민락동 181-228","매일",35.15697403,129.1263963,"Y","Y"
494,"민락어패류시장","상설장","부산광역시 수영구 광안해변로 278","부산광역시 수영구 민락동 181-8","매일",35.1556955,129.1243511,"Y","Y"
495,"민락회타운시장","상설장","부산광역시 수영구 광남로 158","부산광역시 수영구 민락동 184-84","매일",35.15516031,129.1186411,"Y","Y"
496,"밀양아리랑시장","5일장","경상남도 밀양시 상설시장1길11","경상남도 밀양시 내일동 583-1","2일+7일",35.49305872,128.7525543,"Y","Y"
497,"박달재전통시장","상설장+5일장","충청북도 제천시 백운면 평동로 4-8","충청북도 제천시 백운면지번주소 평동리 220-2","매일+6일",37.13820858,128.0225682,"Y","Y"
498,"반구시장","상설장","울산광역시 중구 반구정14길 13 반구동","울산광역시 중구 반구동 453-39","매일",35.55806103,129.3442422,"Y","Y"
499,"반구시장","상설장","울산광역시 중구 반구정14길 13(반구동)","울산광역시 중구 반구동 448-9","매일",35.55838627,129.3434196,"Y","Y"
500,"반송골목시장","상설장","부산광역시 해운대구 아랫반송로 39번길 18-1","부산광역시 해운대구 반송동 250-371","매일",35.22428809,129.1503333,"Y","Y"
501,"반송시장","상설장","경상남도 창원시 성산구 윈이대로 473번길 20-11","경상남도 창원시 성산구 반림동 17-13","매일",35.23513386,128.6710497,"Y","Y"
502,"반송시장","상설장","부산광역시 해운대구 아랫반송로21번길 41","부산광역시 해운대구 반송1동 709-12","매일",35.22647416,129.1480499574,"Y","Y"
503,"반송큰시장(반송2동)","상설장","부산광역시 해운대구 윗반송로51번길 86","부산광역시 해운대구 반송2동 40-762","매일",35.23111739,129.1562096,"Y","Y"
504,"반야월목련시장","상설장","대구광역시 동구 반야월로30길 61-1","대구광역시 동구 신기동 271-2","매일",35.86998236,128.7046611,"Y","N"
505,"반야월종합시장","상설장+5일장","대구광역시 동구 율하동로 143","대구광역시 동구 신기동 174-1","매일+6일",35.87240606,128.7024484,"Y","Y"
506,"반여2동상가시장","상설장","부산광역시 해운대구 해운대로61번길 95-83","부산광역시 해운대구 반여2동 1291-1425","매일",35.1960262,129.1290477,"Y","N"
507,"반여3동골목시장","상설장","부산광역시 해운대구 재반로256번길 8","부산광역시 해운대구 반여3동 1607-2","매일",35.19993941,129.1320531,"Y","N"
508,"반여시장","상설장","부산광역시 해운대구 재반로226번길 48","부산광역시 해운대구 반여2동 1291 918","매일",35.1977028,129.1334271,"Y","N"
509,"발안만세시장","상설장","화성시 향남읍 평2길 7 일원","화성시 향남읍 평리 81-51 일원","상설 및 0,5일장",37.13141607,126.9094648,"N","Y"
510,"발안만세시장","5일장","경기도 화성시 향남읍 평2길 7","경기도 화성시 향남읍 평리 81-51","5일+10일",37.13146319,126.9094607,"Y","Y"
511,"밤고개자연시장","5일장","충청북도 청주시 청원구 공항로 58번길 14","충청북도 청주시 청원구 내덕동 396-7","2일+7일",36.66241517,127.4886458,"Y","Y"
512,"방산종합시장","상설장","서울특별시 중구 동호로37길 20 주교동","서울특별시 중구 주교동 19-1 방산종합시장","매일",37.56872417,127.0008056,"Y","Y"
513,"방신전통시장","상설장","서울특별시 강서구 방화동로16길32","서울특별시 강서구 방화동 579-1","매일",37.57150834,126.812647,"Y","Y"
514,"방이시장","상설장","서울특별시 송파구 가락로 243","서울특별시 송파구 방이동 137-8","매일",37.50995241,127.1178662,"Y","Y"
515,"방천시장","상설장","대구광역시 중구 달구벌대로450길16-3","대구광역시 중구 대봉동 4-9","매일",35.861143,128.6072105,"Y","Y"
516,"방촌시장","상설장","대구광역시 동구 동촌로46길 2","대구광역시 동구 방촌동 1067-2","매일",35.88130152,128.6644272,"Y","Y"
517,"방학동도깨비시장","상설장","서울특별시 도봉구 도당로13가길 17","서울특별시 도봉구 방학동 633-15","매일",37.665941905,127.0362056222,"N","Y"
518,"방학동도깨비시장","상설장","서울특별시 도봉구 도당로 13가길 17 2층","서울특별시 도봉구 방학동 633-15","매일",37.66594127,127.0362062,"Y","Y"
519,"배둔시장","5일장","경상남도 고성군 희화면 배둔로31번길 5","경상남도 고성군 회화면 배둔리 826-2","4일+9일",35.05742987,128.3688699,"Y","Y"
520,"백련시장","상설장","서울특별시 서대문구 가재울로6길 53-87 남가좌동 백련시장아파트","서울특별시 서대문구 남가좌동 345-4","매일",37.57700143,126.923101,"Y","Y"
521,"백운시장","상설장","서울특별시 도봉구 삼양로154길 42","서울특별시 도봉구 쌍문동 495-9","매일",37.655638,127.0156252877,"N","N"
522,"백운시장","상설장","서울특별시 도봉구 삼양로154길 30","서울특별시 도봉구 쌍문동 495-80","매일",37.65549577,127.0148849,"N","N"
523,"번개시장","상설장","대구광역시 중구 태평로 177-3","대구광역시 중구 태평로1가 1-152","매일",35.87508929,128.5981311,"Y","Y"
524,"벌교 5일시장","5일장","전라남도 보성군 벌교읍 시장1길 10","전라남도 보성군 벌교읍 회정리 663-23","4일+9일",34.84493765,127.3450787,"Y","Y"
525,"벌교매일시장","상설장","전라남도 보성군 벌교읍 시장2길 10-41","전라남도 보성군 벌교읍 벌교리 887-22","매일",34.84301489,127.3459933,"Y","Y"
526,"범일골목시장","상설장","부산광역시 동구 범곡북로28","부산광역시 동구 범일동 1486","매일",35.14182512,129.0530191,"Y","N"
527,"범한프라자시장","상설장","경기도 성남시 분당구 불정로376번길 37 서현동","경기도 성남시 분당구 서현동 312-3","매일",37.3716295,127.1394444,"Y","Y"
528,"법동시장","상설장","대전광역시 대덕구 계족로 608번길 23 법동","대전광역시 대덕구 법동 200-7","매일",36.36622464,127.4315733,"Y","Y"
529,"벨포스트(에리어식스)","상설장","서울특별시 중구 마장로 19 신당동","서울특별시 중구 신당동 776","매일",37.56814161,127.011974,"Y","Y"
530,"벽진시장","5일장","경상북도 성주군 벽진면 수촌1길 8","경상북도 성주군 벽진면 수촌리 810-1","3일,+8일",35.94876617,128.216546,"Y","N"
531,"병영5일시장","5일장","전라남도 강진군 병영면 남삼인길 6","전라남도 강진군 병영면 삼인리 318","3일+8일",34.7138022,126.815555,"Y","Y"
532,"병영시장","상설장","울산광역시 중구 병영로14","울산광역시 중구 남외동 257-1 병영시장","매일",35.57055945,129.3462928,"Y","Y"
533,"병영시장","상설장","울산광역시 중구 병영로 14(남외동)","울산광역시 중구 남외동 257-1","매일",35.5705654,129.3462928,"Y","N"
534,"병천시장","상설장+5일장","충청남도 천안시 동남구 병천면 아우내장터1길 46","충청남도 천안시 동남구 병천면 병천리 163-2","매일+6일",36.76242249,127.298161,"Y","Y"
535,"보광시장","상설장","서울특별시 용산구 보광로 30","서울특별시 용산구 보광동 260-8 보광시장상가 주","매일",37.52719632,127.0002892,"Y","Y"
536,"보령동부시장","상설장","충청남도 보령시 구상가길 14-5","충청남도 보령시 대천동 618-64","매일",36.34936363,126.5970000393,"Y","Y"
537,"보령웅천전통시장","5일장","충청남도 보령시 웅천읍 장터4길 24","충청남도 보령시 웅천읍 대창리 432-1","2일+7일",36.23299004,126.6012675,"Y","Y"
538,"보령중앙시장","5일장","충청남도 보령시 대천동 중앙시장1길 2","충청남도 보령시 대천동 331-7","3일+8일",36.35108759,126.5932002,"Y","Y"
539,"보령한내시장","5일장","충청남도 보령시 정화로길 13","충청남도 보령시 대천동 197-1","3일+8일",36.34962615,126.5958262,"Y","Y"
540,"보성매일시장","상설장","전라남도 보성군 보성읍 신흥길 9","전라남도 보성군 보성읍 보성리 895-14","매일",34.76817999,127.0806187,"Y","Y"
541,"보성시장","상설장","제주특별자치도 제주시 동광로 1길 32","제주특별자치도 제주시 이도1동 1289-52","매일",33.50330767,126.5279393,"Y","Y"
542,"보성은하상가","상설장","대구광역시 달서구 월곡로 320","대구광역시 달서구 상인1동42","매일",35.82358281,128.5342978,"Y","Y"
543,"보성화성상가","상설장","대구광역시 달서구 이곡동 계대동문로 99","대구광역시 달서구 이곡동 1191번지 보성화성상가","매일",35.85566367,128.5041213,"Y","Y"
544,"보수종합시장","상설장","부산광역시 중구 보수대로 94","부산광역시 중구 보수동3가 46-1","매일",35.10421143,129.0218075,"Y","Y"
545,"보은전통시장","상설장+5일장","충청북도 보은군 삼산로 17- 1","충청북도 보은군 삼산리 139-20","매일+6일",36.48430017,127.7201148,"Y","Y"
546,"복내5일시장","5일장","전라남도 보성군 송재로 1838-12","전라남도 보성군 복내면 복내리 152-14","4일+9일",34.89370035,127.1331411,"Y","Y"
547,"복대가경시장","상설장","충청북도 청주시 흥덕구 복대로 146번길 42","충청북도 청주시 흥덕구 복대동 1116","매일",36.62951788,127.4432633,"Y","Y"
548,"복이있는 덕포시장","상설장","부산광역시 사상구 사상로293번길12","부산광역시 사상구 덕포동 421-13","매일",35.17128103,128.9822553,"Y","N"
549,"복흥시장","5일장","전라북도 순창군 복흥면 정산2길 6","전라북도 순창군 복흥면 정산리 282-1","3일+8일",35.43184326,126.9327555,"Y","Y"
550,"봉계공설시장","5일장","울산광역시 울주군 두동면 계명3길 9","울산광역시 울주군 두동면 봉계리 525","4일+9일",35.71338182,129.1991738,"Y","Y"
551,"봉계시장","상설장+5일장","울산광역시 울주군 두동면 계명3길 9","울산광역시 울주군 두동면 봉계리 525","매일+5일",35.7133828,129.1991746,"Y","Y"
552,"봉곡시장","상설장","경상남도 창원시 의창구 봉곡로111번길 16","경상남도 창원시 의창구 봉곡동145-1","매일",35.24696954,128.6719711,"Y","Y"
553,"봉곡프라자상가","상설장","경상남도 창원시 의창구 창이대로205번길 5","경상남도 창원시 의창구 봉곡동61-10","매일",35.24543957,128.6595184,"Y","Y"
554,"봉덕시장","상설장","대구광역시 남구 대봉로 17길5-3","대구광역시 남구 봉덕동 961-39","매일",35.84571081,128.6036912,"Y","Y"
555,"봉덕신시장","상설장","대구광역시 남구 봉덕로 115","대구광역시 남구 대구 남구 봉덕동 955-8","매일",35.84513894,128.6033943,"Y","Y"
556,"봉동시장","5일장","전라북도 완주군 봉동읍 봉동동서로 134-5","전라북도 완주군 봉동읍 장기리 217-13","5일+10일",35.93872172,127.1670715,"Y","Y"
557,"봉산시장","상설장","전라남도 여수시 봉산1로 12","전라남도 여수시 봉산동 274-4","매일",34.73215573,127.7224122,"Y","Y"
558,"봉선시장","상설장","광주광역시 남구 봉선중앙로91번길 7 봉선동","광주광역시 남구 봉선동 997-1","매일",35.12905105,126.9100024,"Y","Y"
559,"봉양","5일장","경상북도 의성군 봉양면 도리원 6길 4","경상북도 의성군 봉양면 화전리 95-4","4일+9일",36.29956469,128.5814145,"Y","N"
560,"봉양시장","5일장","경상북도 의성군 봉양면 도리원6길 9-1","경상북도 의성군 봉양면 화전리 94-5","4일+9일",36.2992611,128.5815925,"Y","Y"
561,"봉일시장","상설장","서울특별시 관악구 은천로 28","서울특별시 관악구 봉천동 951-25","매일",37.48592467,126.9383804,"Y","Y"
562,"봉일천 전통시장","5일장","경기도 파주시 조리읍 봉천로 33-1","경기도 파주시 조리읍 봉일천리 168-4","2일+7일",37.74353082,126.8078476,"Y","Y"
563,"봉일천시장","상설장","경기도 파주시 조리읍 봉천로 37-13","경기도 파주시 봉일천리 166-19","매일",37.7432033,126.8072915,"N","Y"
564,"봉천제일종합시장","상설장","서울특별시 관악구 청룡2길 29","서울특별시 관악구 청룡동 921-1","매일",37.48124954,126.9444156,"Y","Y"
565,"봉천중앙시장","상설장","서울특별시 관악구 관악로 211","서울특별시 관악구 봉천동 32-2","매일",37.48419585,126.9543274,"Y","Y"
566,"봉천현대시장","상설장","서울특별시 관악구 양녕로 49","서울특별시 관악구 봉천동 503-2","매일",37.48643059,126.946515,"Y","Y"
567,"봉평전통시장","5일장","강원특별자치도 평창군 봉평면 허생원장터길15","강원특별자치도 평창군 봉평면 창동리 397-34","2일+7일",37.61559178,128.3772803,"Y","Y"
568,"봉화상설시장","5일장","경상북도 봉화군 봉화읍 신시장1길 4","경상북도 봉화군 봉화읍 내성리 394-1","2일+7일",36.89013645,128.7355094,"Y","Y"
569,"봉화춘양시장","5일장","경상북도 봉화군 춘양면 의양로 60","경상북도 봉화군 춘양면 의양리 357-29","4일+9일",36.93636899,128.913044,"Y","Y"
570,"봉황중심상가시장","상설장","경상북도 경주시 원효로 89","경상북도 경주시 노동동 230","매일",35.84221759,129.2106605,"Y","Y"
571,"부강전통시장","5일장","세종특별자치시 부강면 부강5길 18","세종특별자치시 부강면 부강리 475-1","5일+10일",36.52850118,127.3688825,"Y","Y"
572,"부곡도깨비시장","상설장","경기도 의왕시 부곡시장길 18","경기도 의왕시삼동 192-554","매일",37.31946613,126.9507058,"Y","Y"
573,"부곡상가시장","상설장","부산광역시 금정구 부곡로107","부산광역시 금정구 부곡동 304-1","매일",35.22548538,129.0915165,"Y","N"
574,"부곡시장","상설장","경상북도 김천시 부곡시장2길 16","경상북도 김천시 부곡동 409-1번지 일원","매일",36.12583274,128.1042234,"Y","Y"
575,"부남시장","5일장","경상북도 청송군 부남면 대전로142","경상북도 청송군 부남면 대전리 64-16","3일+8일",36.34650613,129.0644424,"Y","Y"
576,"부림상시장","상설장","경상남도 창원시 마산합포구 동서서4길 2-15","경상남도 창원시 마산합포구 부림동 83-24","매일",35.2057733,128.5724461,"Y","Y"
577,"부사전통시장","상설장","대전광역시 중구 대종로316번길 16","대전광역시 중구 부사동 148-6","매일",36.31414143,127.4353735,"Y","Y"
578,"부산 남문시장","상설장","부산광역시 동구 범일로65번길 8","부산광역시 동구 범일동 290-3","매일",35.13592461,129.058687,"Y","Y"
579,"부산 산업용품상협동조합","상설장","부산광역시 사상구 괘감로 37","부산광역시 사상구 괘법동 578","매일",35.15975522,128.9804344,"Y","Y"
580,"부산 새벽시장","상설장","부산광역시 사상구 새벽로 141","부산광역시 사상구 감전동 143-16","매일",35.15414273,128.9824317,"Y","Y"
581,"부산 자갈밭시장","상설장","부산광역시 중구 남포동 자갈치해안로 52","부산광역시 중구 남포동4가 37-1","매일",35.09661378,129.0305837,"Y","Y"
582,"부산광역시 건축자재판매협동조합","상설장","부산광역시 사상구 강변대로 570","부산광역시 사상구 엄궁동 642","매일",35.13287325,128.9653822,"N","Y"
583,"부산광역시 철강판매 협동조합","상설장","부산광역시 사상구 강변대로 532 17-26","부산광역시 사상구 엄궁동 643-4","매일",35.13320427,128.9666033,"N","N"
584,"부산데파트","상설장","부산광역시 중구 중앙대로 1","부산광역시 중구 중앙동7가 20-1","매일",35.09830526,129.0367023,"Y","Y"
585,"부산산업용재유통상가","상설장","부산광역시 사상구 새벽로 131","부산광역시 사상구 감전동 152-2","매일",35.15327872,128.9810797,"Y","Y"
586,"부산자유시장","상설장","부산광역시 동구 조방로 48","부산광역시 동구 범일동 830-24","매일",35.14097365,129.0610402,"Y","Y"
587,"부산전자 종합시장","상설장","부산광역시 부산진구 부전로 196","부산광역시 부산진구 부전동 27-1","매일",35.16375165,129.0624353,"Y","Y"
588,"부산진시장","상설장","부산광역시 동구 진시장로 24","부산광역시 동구 범일동 290- 1","매일",35.13642339,129.0588362,"Y","Y"
589,"부산평화시장","상설장","부산광역시 부산진구 자유평화로 7","부산광역시 부산진구 범천1동 839-52","매일",35.14169728,129.0606748,"Y","Y"
590,"부안상선시장","상설장","전라북도 부안군 부안읍 부풍로 47","전라북도 부안군 부안읍 21","매일",35.72711546,126.7329623,"Y","Y"
591,"부안줄포시장","상설장+5일장","전라북도 부안군 줄포면 부안로 865","전라북도 부안군 줄포면 줄포리 728-3","매일+6일",35.58760094,126.676855,"Y","Y"
592,"부여새시장","5일장","충청남도 부여군 부여읍 부여로 12","충청남도 부여군 부여읍 구아리 395-7","5일+10일",36.28099071,126.9096484,"N","N"
593,"부여시장","5일장","충청남도 부여군 부여읍 성왕로173번길 12","충청남도 부여군 부여읍 구아리 432","5일+10일",36.28149441,126.9075581,"Y","Y"
594,"부여중앙시장","상설장","충청남도 부여군 부여읍 중앙로13번길 14-3","충청남도 부여군 부여읍 구아리 164-1","매일",36.28191921,126.9121888,"Y","Y"
595,"부전 인삼시장","상설장","부산광역시 부산진구 중앙대로573-26","부산광역시 부산진구 부전동 573-26","매일",35.16323429,129.0609058,"Y","Y"
596,"부전가상골목시장","상설장","부산광역시 부산진구 중앙대로 775-21번길","부산광역시 부산진구 부전동 341-70","매일",35.16220022,129.0612385,"Y","N"
597,"부전농수산물 새벽시장","상설장","부산광역시 부산진구 부전로 156","부산광역시 부산진구 부전동 347-1","매일",35.16225251,129.0583022,"Y","N"
598,"부전상가","상설장","부산광역시 부산진구 중앙대로 755번길 21","부산광역시 부산진구 부전동 265-25","매일",35.16034559,129.0595513,"Y","Y"
233,"남양시장","상설장","화성시 남양시장로 61 일원","화성시 남양읍 남양리 1165-25 일원","상설 및 1,6일장",37.20953077,126.8172094,"Y","Y"
234,"남양주 장현전통시장","5일장","경기도 남양주시 진접읍 장현로 77의100","경기도 남양주시 장현리 380-15","2일+7일",37.71761594,127.1808911,"Y","N"
235,"남원공설시장","5일장","전라북도 남원시 의총로 51","전라북도 남원시 금동 262-1","4일+9일",35.40461666,127.3758683,"Y","Y"
236,"남원용남시장","상설장","전라북도 남원시 동헌길10","전라북도 남원시 하정동 138","매일",35.40710501,127.3767656,"Y","Y"
237,"남원인월시장","5일장","전라북도 남원시 인월면 인월로 65-3","전라북도 남원시 인월면 인월리 252-1","3일+8일",35.46153231,127.6020919,"Y","Y"
238,"남정시장","5일장","경상북도 영덕군 남정면 진불1길 31-3","경상북도 영덕군 남정면 장사리365","2일+7일",36.28554802,129.3728808,"Y","Y"
239,"남지시장","5일장","경상남도 창녕군 남지읍 본동길4","경상남도 창녕군 남지읍 남지리 531","2일+7일",35.38911636,128.4824933,"Y","Y"
240,"남창옹기종기시장","5일장","울산광역시 울주군 온양읍 남창장터길 24","울산광역시 울주군 온양읍 남창리 146 남창옹기종기시장","3일+8일",35.41668686,129.2827813,"Y","Y"
241,"남창옹기종기시장","상설장+5일장","울산광역시 울주군 온양읍 남창장터길 24","울산광역시 울주군 온양읍 남창리 146","매일+5일",35.41669017,129.2827773,"Y","Y"
242,"남천해변시장","상설장","부산광역시 수영구 광안해변로15번길 77","부산광역시 수영구 남천동556","매일",35.13915613,129.1090408,"Y","Y"
243,"남평화시장","상설장","서울특별시 중구 장충단로 282-10 신당동","서울특별시 중구 신당동 772 남평화시장","매일",37.5691712,127.010836,"Y","Y"
244,"남포건어물도매시장","상설장","부산광역시 중구 용미길10번길1","부산광역시 중구 남포동1가 62-1","매일",35.09683833,129.0347275,"Y","Y"
245,"남한시장(주)수유중앙시장","상설장","서울특별시 강북로 노해로 17길 21","서울특별시 강북로 수유동 32-2","매일",37.64033675,127.0211763,"Y","Y"
246,"남항시장","상설장","부산광역시 영도구 절영로 49번길 73-5","부산광역시 영도구 영선동2가 64-6","매일",35.08890761,129.0422626,"Y","Y"
247,"남해전통시장","5일장","경상남도 남해군 남해읍 화전로110","경상남도 남해군 남해읍 북변리 246-1","2일+7일",34.84014684,127.8944844,"Y","Y"
248,"내성시장","5일장","경상북도 봉화군 봉화읍 내성로5길13군민행복센터3층","경상북도 봉화군 봉화읍 내성리 192-1","2일+7일",36.88898151,128.7394689,"Y","Y"
249,"내수전통시장","5일장","충청북도 청주시 청원구 내수읍 내수로 726","충청북도 청주시 청원구 내수읍 마산리 169-6","5일+10일",36.72626729,127.5360081,"Y","Y"
250,"내일전통시장","5일장","경상남도 밀양시 상설시장3길 18-6","경상남도 밀양시 내일동 174-9","2일+7일",35.4933363,128.753309,"Y","Y"
251,"내토전통시장","상설장","충청북도 제천시 용두천로 11길 5","충청북도 제천시 중앙로1가 34-1","매일",37.13735446,128.2124103,"Y","Y"
252,"노룬산 시장","상설장","서울특별시 광진구 뚝섬로 491 노룬산시장","서울특별시 광진구 자양동 44-2","매일",37.5364854,127.0648775,"Y","Y"
253,"노룬산골목시장","상설장","서울특별시 광진구 뚝섬로25길 6","서울특별시 광진구 자양동 553-60","매일",37.53636441,127.0653406,"Y","Y"
254,"노화전통시장","5일장","전라남도 완도군 노화읍 이목길 62","전라남도 완도군 노화읍 이포리 678-13","2일+7일",34.17756009,126.5732134,"Y","Y"
255,"녹동전통시장","상설장","전라남도 고흥군 도양읍 녹동시장길 39","전라남도 고흥군 도양읍 봉암리 2699-45","상설",34.5279549171,127.1374082329,"Y","Y"
256,"녹동전통시장","5일장","전라남도 고흥군 도양읍 녹동남촌1길 24","전라남도 고흥군 도양읍 봉암리 2699-70","3일+8일",34.52787725,127.1383371,"Y","Y"
257,"녹차골보성향토시장","5일장","전라남도 보성군 보성읍 현충로 42-1","전라남도 보성군 보성읍 원봉리 2-1","2일+7일",34.76564893,127.0772318,"Y","Y"
258,"논공시장","상설장","대구광역시 달성군 논공읍 금포시장길 4","대구광역시 달성군 논공읍 금포리 1805-1","정기",35.774035,128.4216852,"Y","Y"
259,"논공중앙시장","상설장","대구광역시 달성군 논공읍 용호로2길 12","대구광역시 달성군 논공읍 북리 824-33","매일",35.72838744,128.446519,"Y","N"
260,"논동인정시장","상설장","서울특별시 동작구 매봉로 177","서울특별시 동작구 본동 187-1","매일",37.51223042,126.9518967,"N","N"
261,"논산화지중앙시장","상설장","충청남도 논산시 대화로 78","충청남도 논산시 대교동 70-6","매일",36.20858808,127.085011,"Y","Y"
262,"농공중앙시장","상설장","대구광역시 달성군 논공읍 용호로2길 12","대구광역시 달성군 논공읍 북리 824-26","매일",35.72838683,128.4465912,"Y","Y"
263,"능곡전통시장","5일장","경기도 고양시 덕양구 능곡로 12의 9","경기도 고양시 덕양구 토당동 347","2일+7일",37.62135086,126.8207792,"Y","Y"
264,"능동로 골목시장","상설장","서울특별시 광진구 뚝섬로 30길 23","서울특별시 광진구 자양동 553-219","매일",37.53514507,127.0666557,"Y","N"
265,"다대씨파크","상설장","부산광역시 사하구 다대동로 20","부산광역시 사하구 다대동 680-2","매일",35.05514907,128.9719733,"Y","Y"
266,"다시5일시장","5일장","전라남도 나주시 다시로 168-72","전라남도 나주시 다시면 동곡리 39-46","3일+8일",35.01574488,126.6356572,"Y","Y"
267,"다인","5일장","경상북도 의성군 다인면 다인장길 21-4","경상북도 의성군 다인면 서릉리 167-1","2일+7일",36.45035579,128.3557412,"Y","N"
268,"단계시장","5일장","경상남도 신등면 신차로 500-3","경상남도 산청군 신동면 단계리 784","4일+9일",35.37711924,128.011143,"Y","Y"
269,"단대전통시장","상설장","경기도 성남시 중원구 광명로289","경기도 성남시 중원구 금광동 10","매일",37.44434033,127.1583278,"Y","Y"
270,"단성시장","5일장","경상남도 산청군 단성면 목화로 968번길 17","경상남도 산천군 단성면 성내리 178","5일+10일",35.29792258,127.9580609,"Y","Y"
271,"단양구경시장","상설장+5일장","충청북도 단양군 단양읍 도전5길 31","충청북도 단양군 단양읍 도전리 615","매일+6일",36.98249125,128.3699808,"Y","Y"
272,"단촌","5일장","경상북도 의성군 단촌면 장터길 15","경상북도 의성군 단촌면 하화리 1097-9","5일+10일",36.422545,128.673903,"Y","N"
273,"달서송림시장","상설장","대구광역시 달서구 구마로 176","대구광역시 달서구 본동 225-1","매일",35.83686121,128.5470721,"Y","Y"
274,"달서시장 상인회","상설장","대구광역시 달서구 당산로 27 35","대구광역시 달서구 본리동 145-2 -5번지","매일",35.83984838,128.5442676,"Y","Y"
275,"답십리 시장","상설장","서울특별시 동대문구 답신리로51길 4-1","서울특별시 동대문구 답십리2동 66-17","매일",37.57316302,127.0586903,"Y","N"
276,"답십리건축자재시장","상설장","서울특별시 동대문구 고미술로 49","서울특별시 동대문구 답십리동 483번지 일대","매일",37.56745985,127.0534875,"N","N"
277,"답십리현대시장","상설장","서울특별시 동대문구 전농로 4길 38","서울특별시 동대문구 답십리동 967-5","매일",37.5667821,127.0586488,"Y","Y"
278,"당감 골목시장","상설장","부산광역시 부산진구 당감로 16번길 22","부산광역시 부산진구 당감동 262-61","매일",35.16328299,129.0408703,"Y","N"
279,"당감새시장","상설장","부산광역시 부산진구 백양대로 60번길 64","부산광역시 부산진구 당감동 292-118","매일",35.16506067,129.0421399,"Y","N"
280,"당리시장","상설장","부산광역시 사하구 제석로62번길 16","부산광역시 사하구 당리동 143-1","매일",35.10546653,128.9753522,"Y","Y"
281,"당진전통시장","5일장","충청남도 당진시 당진시장길 100","충청남도 당진시 읍내동 145-13","5일+10일",36.88993079,126.6296071,"Y","Y"
282,"대곡시장","상설장+5일장","경상남도 진주시 대곡면 진의로 1079번길 6","경상남도 진주시 대곡면 광석리 321","매일+6일",35.26370062,128.1685559,"Y","N"
283,"대곡시장","상설장","대구광역시 달서구 도원로24","대구광역시 달서구 도원동 1432","매일",35.80758305,128.5354588,"Y","Y"
284,"대구 상원시장","상설장","대구광역시 달서구 상인로9","대구광역시 달서구 상인동 1582-4","매일",35.80902715,128.5512851,"Y","Y"
285,"대구 신매시장","상설장","대구광역시 수성구 신매로16길 24-4 신매동","대구광역시 수성구 신매동576-2","매일",35.83727992,128.7097215,"Y","N"
286,"대구 전자관","상설장","대구광역시 북구 유통단지로 45 전자관","대구광역시 북구 산격동 1621","매일",35.90720316,128.6070187,"Y","Y"
287,"대구능금시장","상설장","대구광역시 북구 칠성남로 197-15","대구광역시 북구 칠성동1가 234-9","매일",35.87714991,128.6019681,"Y","Y"
288,"대구약령시장","상설장","대구광역시 중구 남성로 52-2","x","매일",35.8671439,128.5923518,"Y","N"
289,"대구예전우시장","상설장","대구광역시 달서구 야외음악당로47길 111","대구광역시 달서구 두류동 136-6","매일",35.85853624,128.5620318,"Y","N"
290,"대구종합유통단지섬유제품관","상설장","대구광역시 북구 유통단지로 60","대구광역시 북구 산격동 1667","매일",35.90627923,128.6096611,"Y","Y"
291,"대구청과시장","상설장","대구광역시 북구 칠성시장로 34","대구광역시 북구 칠성동1가 276-102","매일",35.87702959,128.6039134,"Y","Y"
292,"대덕읍전통시장","5일장","전라남도 장흥군 대덕읍 거정2길 10","전라남도 장흥군 대덕읍 신월리 111","5일+10일",34.4994381,126.8871266,"Y","Y"
293,"대동그린코아상가","상설장","경상남도 창원시 창원천로 292","경상남도 창원시 반지동 23","매일",35.24497351,128.6698901,"Y","Y"
294,"대동시장","상설장","대구광역시 달서구 상원로 22-24","대구광역시 달서구 상인2동 1472-1","매일",35.81167078,128.5377864,"Y","Y"
295,"대동씨코아상가시장","상설장","경상남도 창원시 마산합포구 월영동로8","경상남도 창원시 마산합포구 해운동 37-4","매일",35.1797591,128.5624756,"Y","Y"
296,"대동중앙시장","상설장","경상남도 창원시 의창구 반계로 93","경상남도 창원시 의창구 팔용동124-4","매일",35.25360735,128.6158353,"Y","Y"
297,"대동훼미리코아상가","상설장","경상남도 창원시 성산구 대정로 138","경상남도 창원시 성산구 대방동 358","매일",35.21174899,128.7076298,"Y","Y"
298,"대림골목시장","상설장","서울특별시 은평구 응암로 12길 8","서울특별시 은평구 응암동 602-1","매일",37.58791373,126.9175082,"Y","N"
299,"대림상가","상설장","서울특별시 중구 을지로 157","서울특별시 중구 산림동 207-2","매일",37.5671459,126.9954512,"Y","Y"
300,"대림시장","5일장","서울특별시 은평구 응암로4길 22","서울특별시 은평구 응암동 754-1","5일+10일",37.58679729,126.9177421,"Y","Y"
301,"대림중앙시장","상설장","서울특별시 영등포구 디지털로 372번지","서울특별시 영등포구 대림동 1028-4","매일",37.49038353,126.9012678,"Y","N"
302,"대명시장","상설장","대구광역시 남구 명덕로 60","대구광역시 남구 대명동 1395-56","매일",35.85840896,128.5771651,"Y","Y"
303,"대명시장 대명신시장","상설장","x","대구광역시 남구 봉덕동 2282-2","매일",35.8584952,128.5775141,"Y","Y"
304,"대명여울빛거리시장","상설장","서울특별시 금천구 시흥대로 212 시흥동","서울특별시 금천구 시흥동 889-13","매일",37.45277308,126.9016494,"Y","Y"
305,"대명중앙시장","상설장","대구광역시 남구 대명로20길 56","대구광역시 남구 대명6동 1040-4","매일",35.83680695,128.5677075,"Y","Y"
306,"대방덕산1차상가","상설장","경상남도 창원시 성산구 대정로 131","경상남도 창원시 성산구 대방동 356","매일",35.21361897,128.7068915,"Y","Y"
307,"대산 전통시장","5일장","전라북도 고창군 대산면 공음대산로 935","전라북도 고창군 대산면 매산리 200-13","2일+7일",35.34010712,126.5989791,"Y","Y"
308,"대산공설시장","상설장+5일장","경상남도 함안군 대산면 대산중앙로 219","경상남도 함안군 대산면 구혜리221-3","매일+6일",35.35283686,128.428129,"Y","Y"
309,"대산전통시장","5일장","전라북도 고창군 대산면 공음대산로 935","전라북도 고창군 대산면 매산리 200-13","2일,+7일",35.34010874,126.5989796,"Y","Y"
310,"대산종합시장","상설장","충청남도 서산시 대산읍 충의로 1942","충청남도 서산시 대산읍 대산리 119","매일",36.93800454,126.4339429,"Y","Y"
311,"대소시장","5일장","충청북도 음성군 대소면 오산로 36","충청북도 음성군 대소면 오산리 186-6","3일+8일",36.9665446,127.4850192,"Y","Y"
312,"대송농수산물시장","상설장","울산광역시 동구 대송1길 49 화정동","울산광역시 동구 화정동 167-15","매일",35.4994779,129.4212282,"Y","Y"
313,"대송농수산물시장","상설장","울산광역시 동구 대송8길 6(화정동)","울산광역시 동구 화정동 171-4","매일",35.49920742,129.420604,"Y","Y"
314,"대신시장","상설장","서울특별시 영등포구 도신로 60길 7","서울특별시 영등포구 신길동 116-15","매일",37.51107124,126.9175858,"Y","N"
315,"대신시장","상설장","부산광역시 서구 대영로 78 동대신동1가","부산광역시 서구 동대신동1가 113-1","매일",35.1103293,129.0197017,"Y","N"
316,"대야전통시장","상설장+5일장","전라북도 군산시 대야면 대야시장로 7-1","전라북도 군산시 대야면 산월리 401-1","매일+6일",35.9448551,126.8160847,"Y","Y"
317,"대연시장","상설장","부산광역시 남구 못골로 56","부산광역시 남구 대연5동 1760-1","매일",35.13567985,129.0884212,"Y","Y"
318,"대원종합시장","상설장","서울특별시 강서구 화곡로21길 78","서울특별시 강서구 화곡3동 1023","매일",37.54448674,126.8364753,"Y","Y"
319,"대인시장","상설장","광주광역시 동구 제봉로194번길 10","광주광역시 동구 대인동 309-3","매일",35.15407802,126.917243,"Y","Y"
320,"대전문창전통시장","상설장","대전광역시 중구 보문로 20번길 22","대전광역시 중구 문창동 116-8","매일",36.31551061,127.4381799,"Y","Y"
321,"대전상가시장","상설장","대전광역시 동구 충무로 185","대전광역시 동구 인동 52-1","매일",36.32178813,127.4366521,"Y","N"
322,"대전중리전통시장","상설장","대전광역시 대덕구 중리북로31번길 26","대전광역시 대덕구 중리동 372-6","매일",36.36558954,127.4263885,"Y","Y"
323,"대정오일장","상설장+5일장","제주특별자치도 서귀포시 대정읍 신영로36번길 65","제주특별자치도 서귀포시 대정읍 하모리 1089-15","매일+6일",33.22060697,126.2482128,"Y","Y"
324,"대조시장","상설장","서울특별시 은평구 불광로 13","서울특별시 은평구 대조동 12-3","매일",37.60986578,126.9277375,"Y","Y"
325,"대천항종합수산물시장","상설장","충청남도 보령시 대천항로 370","충청남도 보령시 신흑동 2240-7","매일",36.32660911,126.5061075,"Y","Y"
326,"대평리시장","상설장","대구광역시 서구 문화로49길 25","대구광역시 서구 평리동676-7","매일",35.87801117,128.5589346,"Y","Y"
327,"대해불빛시장","상설장","경상북도 포항시 남구 중앙로67번길 7","경상북도 포항시 남구 해도동 79-1","매일",36.01879903,129.3685606,"Y","Y"
328,"덕계종합상설시장","상설장","경상남도 양산시 덕계2길 7","경상남도 양산시 덕계동 754-1","매일",35.36975076,129.147156,"Y","Y"
329,"덕산그린피아","상설장","경상남도 창원시 성산구 용지로 64","경상남도 창원시 성산구 중앙동 98-6","매일",35.22168087,128.6760246,"Y","Y"
330,"덕산면전통시장","5일장","충청북도 제천시 덕산면 약초로 3길 24","충청북도 제천시 덕산면 도전리 431-2","4일+9일",36.90858452,128.1679799,"Y","Y"
331,"덕산시장","5일장","경상남도 산청군 시천면 남명로 188-5 덕산시장","경상남도 산청군 시천면 사리 931-3","4일+9일",35.27703295,127.8377441,"Y","Y"
332,"덕산시장","5일장","충청남도 예산군 덕산면 읍내서길 2-1","충청남도 예산군 덕산면 읍내리 356-4","4일+9일",36.7049773,126.6681573,"Y","Y"
333,"덕신1차시장","5일장","x","울산광역시 울주군 온산읍 덕신리 1280-21 덕신종합상설시장","5일+10일",35.43524439,129.3093518,"Y","N"
334,"덕신1차시장","상설장","울산광역시 울주군 온산읍 온덕1길 25","울산광역시 울주군 온산읍 덕신리1280-21","매일+5일",35.43524242,129.309349,"N","Y"
335,"덕신2차시장","5일장","울산광역시 울주군 온산읍 신온7길 69","울산광역시 울주군 덕신리429","5일+10일",35.42934852,129.3100225,"Y","Y"
336,"덕신2차시장","상설장","울산광역시 울주군 온산읍 신온7길 69","울산광역시 울주군 온산읍 덕신리 429","매일+5일",35.42934943,129.3100244,"Y","Y"
337,"덕양시장","상설장","전라남도 여수시 소라면 하세동길 12-2","전라남도 여수시 소라면 덕양리 1270-1","매일",34.79796244,127.6320109,"Y","Y"
338,"덕양시장","상설장","전라남도 여수시 소라면 하세동길 15","전라남도 여수시 소라면 덕양리 1268-7","매일",34.79852953,127.6321283,"Y","Y"
339,"덕이동패션1번지","상설장","경기도 고양시 일산서구 덕이동 탄중로101번길 13","경기도 고양시 일산서구 덕이동 384-1","매일",37.69302055,126.755787,"Y","Y"
340,"덕천시장","상설장","x","부산광역시 북구 덕천동 411-5","매일",35.21121581,129.0134028,"Y","Y"
341,"덕풍전통시장","5일장","경기도 하남시 수리북로 22","경기도 하남시 덕풍동 328-12","4일+9일",37.54153872,127.202919,"Y","Y"
342,"덕하공설시장","5일장","울산광역시 울주군 청량읍 덕하장터길 9 덕하시장","울산광역시 울주군 청량읍 상남리 578 덕하시장","2일+7일",35.49170116,129.3059223,"Y","Y"
343,"덕하시장","상설장+5일장","x","울산광역시 울주군 청량읍 상남리 578","매일+5일",35.49144017,129.3059962,"Y","Y"
344,"도계전두시장","상설장","강원특별자치도 삼척시 도계읍 전두시장길 6-1","강원특별자치도 삼척시 도계읍 전두리 81-20","매일",37.22913387,129.0428102,"Y","Y"
345,"도계중앙시장","상설장","강원특별자치도 삼척시 도계읍 도계로4길 20","강원특별자치도 삼척시 도계읍 도계리 390-1","매일",37.23515044,129.0451079,"Y","Y"
346,"도깨비시장","상설장","전라남도 여수시 학동서5길 18","전라남도 여수시 학동 58-7","매일",34.7633188,127.656583,"Y","N"
347,"도마큰시장","상설장","대전광역시 서구 도마4길 71","대전광역시 서구 도마동 132-13","매일",36.31580602,127.3813666,"Y","Y"
348,"도원시장","상설장","대구광역시 달서구 도원동길 8","대구광역시 달서구 도원동 1437-1","매일",35.8075801,128.5367189,"Y","Y"
349,"도일시장","5일장","경기도 시흥시 도일로 100의 4","경기도 시흥시 거모동 1669-22","3일+8일",37.339515,126.7840757,"Y","N"
350,"도평시장","5일장","경상북도 청송군 현동면 도평2길 21","경상북도 청송군 현동면 도평리 839-103","5일+10일",36.2901095,129.0170801,"Y","Y"
351,"도화전통시장","5일장","전라남도 고흥군 도화면 동신길 16-6","전라남도 고흥군 도화면 당오리 568-1","3일+8일",34.50979227,127.3218805,"Y","Y"
352,"도화전통시장","5일장","전라남도 고흥군 도화면 동신길 16-8","전라남도 고흥군 도화면 당오리 568-1","3,8",34.5099332303,127.3221311972,"Y","Y"
353,"돈암시장","상설장","서울특별시 성북구 동소문로 18길 12-3","서울특별시 성북구 동소문동5가 59-1","매일",37.5916663,127.0157124,"Y","N"
354,"돌고래시장","상설장","경기도 성남시 분당구 내정로174번길 42 파크타운서안아파트","경기도 성남시 분당구 수내동 53","매일",37.37153075,127.1221683,"Y","Y"
355,"돌곶이시장(구석관황금시장)","상설장","서울특별시 성북구 한천로 73길 33","서울특별시 성북구 석관동 279-16","매일",37.60950239,127.0616578,"Y","N"
356,"동강전통시장","5일장","전라남도 고흥군 동강면 원유둔4길 14","전라남도 고흥군 동강면 유둔리 7","1,6",34.7805684749,127.334821,"Y","Y"
357,"동강전통시장","상설장+5일장","전라남도 고흥군 원유둔4길 13-1","전라남도 고흥군 동강면 유둔리 7-2","매일+6일",34.78056847,127.3348419,"Y","Y"
358,"동계시장","5일장","전라북도 순창군 동계면 동계로 22","전라북도 순창군 동계면 현포리 623","2일+7일",35.43954157,127.2398056,"Y","Y"
359,"동곡공설시장","상설장+5일장","경상북도 청도군 금천면 금천로 41-2","경상북도 청도군 금천면 동곡리 776","매일+6일",35.69206183,128.8910766,"Y","Y"
360,"동구시장","상설장","대구광역시 동구 효목로 8동 구시장 A동","대구광역시 동구 효목동 533","매일",35.87405461,128.6395728,"Y","N"
361,"동남상가","상설장","서울특별시 영등포구 영등포로 37길4","서울특별시 영등포구 영등포동5가 24 동남상가아파트","매일",37.52059746,126.9056598,"Y","N"
362,"동대구 신시장","상설장","대구광역시 북구 대현로 100","대구광역시 북구 대현동 270-8","매일",35.88219144,128.6097908,"Y","Y"
363,"동대구시장","상설장","대구광역시 북구 대현로20길 30","대구광역시 북구 대현동 390","매일",35.88107854,128.6090909,"Y","Y"
364,"동대구역전시장","상설장","대구광역시 동구 동부로 16길 18","대구광역시 동구 신천동 278","매일",35.87430058,128.6205677,"Y","N"
365,"동대문 종합시장 D상가","상설장","서울특별시 종로구 종로266종합시장디동","서울특별시 종로구 종로6가 262-1 동대문종합시장디동","매일",37.57070649,127.0073287,"Y","N"
366,"동대문종합시장","상설장","서울특별시 종로구 종로 266 동대문종합시장","서울특별시 종로구 종로6가 289-3 동대","매일",37.57070649,127.0073287,"Y","Y"
367,"동대문종합시장신관","상설장","서울특별시 종로구 종로 272 종로6가","서울특별시 종로구 종로 266 동대문종합시장 신관지하1층81호","매일",37.57081871,127.0080914,"Y","Y"
368,"동대신1동골목시장","상설장","부산광역시 서구 대영로 74번길 4 동대신동1가","부산광역시 서구 동대신동1가129-6","매일",35.11030807,129.0191909,"Y","N"
369,"동두천시 중앙시장","상설장","경기도 동두천시 중앙로285번길 9","경기도 동두천시 생연동 607-27","매일",37.90690224,127.0537404,"Y","Y"
370,"동두천제일시장","상설장","경기도 동두천시 정장로 11-12","경기도 동두천시 생연동 823","매일",37.90517392,127.0522232,"Y","Y"
371,"동두천큰시장","5일장","경기도 동두천시 큰시장로 52","경기도 동두천시 생연동 698-1","5일+10일",37.90049061,127.0520741,"Y","Y"
372,"동래시장","상설장","부산광역시 동래구 동래시장길14","부산광역시 동래구 복천동 229-42","매일",35.20380872,129.0859386,"Y","Y"
373,"동마산시장","상설장","경상남도 창원시 마산 회원구 합성남8길 76","경상남도 창원시 마산 회원구 합성동 326-1","매일",35.24003661,128.5875449,"Y","Y"
374,"동문시장","상설장","서울특별시 종로구 종로44길 14","서울특별시 종로구 창신동 436-41 동문상가","매일",37.57051095,127.011128,"Y","N"
375,"동문시장(주)","상설장","제주특별자치도 제주시 동문로 16","제주특별자치도 제주시 일도1동 1148-2","매일",33.51279665,126.5283197,"Y","N"
376,"동문재래시장","상설장","제주특별자치도 제주시 관덕로14길 20","제주특별자치도 제주시 이도1동 1436-7","매일",33.51159028,126.5260182,"Y","Y"
377,"동문전통시장","상설장","충청북도 제천시 용두천로 125","충청북도 제천시 중앙로2가 117-1","매일",37.13851202,128.213525,"N","Y"
378,"동방시장","상설장","부산광역시 수영구 감포로8번길 10","부산광역시 수영구 민락동161-7","매일",35.15912351,129.1212751,"Y","N"
379,"동부시장","상설장","서울특별시 동대문구 천호대로 281","서울특별시 동대문구 답십리동 495-1","매일",37.56757575,127.0522092,"Y","Y"
380,"동부시장","상설장","인천광역시 동구 샛골로 164-5","인천광역시 동구 송림동 50-95","매일",37.47699808,126.6452481,"Y","Y"
381,"동부시장","상설장","광주광역시 북구 중문로9번길 39","광주광역시 북구 중흥동 272-6","매일",35.17388593,126.916337,"Y","Y"
382,"동부시장","상설장","울산광역시 동구 남목17길 16(동부동)","울산광역시 동구 동부동 310-15","매일",35.5426465,129.4280925,"Y","Y"
383,"동부종합상가","상설장","경상남도 진주시 대신로299번길 7","경상남도 진주시 상대동193-1","매일",35.18704474,128.1162092,"Y","N"
384,"동북시장","상설장","서울특별시 강북구 솔샘로 233","서울특별시 강북구 미아동 701-3","매일",37.62042225,127.0190955,"Y","Y"
385,"동산상가","상설장","대구광역시 중구 큰장로26길 65","대구광역시 중구 대신동 115-30","매일",35.86895466,128.5817199,"Y","Y"
386,"동서시장","상설장","서울특별시 동대문구 왕산로33길 13","서울특별시 동대문구 제기동 650","매일",37.57972596,127.0412215,"Y","Y"
387,"동서시장","상설장","대구광역시 동구 아양로 37길51-1","대구광역시 동구 신암동 94-14","매일",35.88820415,128.6333701,"Y","N"
388,"동성시장","상설장","x","대구광역시 수성구 수성2가 39-1","매일",35.85896489,128.6134256,"Y","N"
389,"동성올림픽타운","상설장","경상남도 창원시 성산구 중앙대로 77","경상남도 창원시 성산구 중앙동 97-2","매일",35.22223335,128.6777326,"Y","Y"
390,"동성타워프라자","상설장","서울특별시 중랑구 봉화산로 221","서울특별시 중랑구 신내동 786 동성타워프라자","매일",37.6080276,127.0972055,"Y","Y"
391,"동성하이타운시장","상설장","부산광역시 남구 천제등로11","부산광역시 남구 대연1동 1756-9","매일",35.13357079,129.087532,"Y","Y"
392,"동송시장","5일장","강원특별자치도 철원군 동송읍 이평로 47번길 16","강원특별자치도 철원군 동송읍 이평리 680-1","5일+10일",38.20880978,127.218876,"Y","Y"
393,"동송전통시장","5일장","강원도 철원군 동송읍 이평로47번길 16","강원도 철원군 동송읍 이평리 680-1","5일10일",38.20880978,127.218876,"Y","Y"
394,"동송전통시장","5일장","강원도 철원군 동송읍 이평로47번길 17","강원도 철원군 동송읍 이평리 678-48","5일10일",38.2089859,127.2192647,"Y","Y"
395,"동송전통시장","5일장","강원특별자치도 철원군 동송읍 이평로 47번길 19","강원특별자치도 철원군 동송읍 이평리 678-49","5일+10일",38.2089011,127.2192783,"Y","Y"
396,"동신종합시장","상설장","경기도 성남시 분당구 수내동 돌마로 361","경기도 성남시 분당구 수내동 돌마로 361","매일",37.37062313,127.1229661,"Y","Y"
397,"동울산종합시장","상설장","울산광역시 동구 진성14길 77 전하동","울산광역시 동구 전하동 661-1","매일",35.50883074,129.4254286,"Y","Y"
398,"동울산종합시장","상설장","울산광역시 동구 진성14길 77(전하동)","울산광역시 동구 전하동 661-1","매일",35.5088339,129.425456,"Y","Y"
399,"동원시장","상설장","서울특별시 중랑구 면목로74길 45 면목동","서울특별시 중랑구 면목동 101-1 동원시장","매일",37.58983834,127.0898932,"Y","N"
400,"동원전통종합시장","상설장","서울특별시 중랑구 상봉로11길 27-3 면목동","서울특별시 중랑구 면목동 74-58","매일",37.5898242,127.092107,"Y","Y"
401,"동진시장","상설장","서울특별시 마포구 성미산로 198 연남동","서울특별시 마포구 연남동 227-15","매일",37.56237655,126.9267634,"Y","N"
402,"동쪽바다 중앙시장","상설장","강원특별자치도 동해시 중앙시장길 12","강원특별자치도 동해시 발한동 7-1","매일",37.55104798,129.1085724,"Y","Y"
403,"동평새시장","상설장","부산광역시 부산진구 백양순환로164번길 13-2","부산광역시 부산진구 당감동 315-4","매일",35.16666694,129.0408872,"N","N"
404,"동평화시장","상설장","서울특별시 중구 청계천로 318 동평화시장 7층","서울특별시 중구 신당동 217-92 동평화의류상가","매일",37.56935658,127.0137915,"Y","Y"
405,"동해남부재래시장","상설장","강원특별자치도 동해시 청운1길 29","강원특별자치도 동해시 동회동 442","매일",37.48761131,129.1035481,"Y","Y"
406,"동화상가(주)","상설장","서울특별시 중구 장충단로13길 34 동화상가","서울특별시 중구 을지로6가 17-415","매일",37.56860486,127.006912,"Y","Y"
407,"두류 신시장","상설장","대구광역시 달서구 당산동길 27","대구광역시 달서구 성당동 706-21","매일",35.84527483,128.5462249,"N","N"
408,"두류종합시장","상설장","대구광역시 달서구 당산동길 9","대구광역시 달서구 성당동 704-5","매일",35.84549251,128.5451423,"Y","Y"
409,"두암시장","상설장","광주광역시 북구 금녕길 23","광주광역시 북구 두암동 856-5","매일",35.1715782,126.9293897,"Y","Y"
410,"두회시장","상설장","경상북도 포항시 북구 창흥로 11","경상북도 포항시 북구 창포동630","매일",36.06174372,129.369360042,"Y","Y"
411,"둔촌역전통시장","상설장","서울특별시 강동구 양재대로91길20","서울특별시 강동구 성내동 416-12","매일",37.52805886,127.1349692,"Y","Y"
412,"둔포시장","5일장","충청남도 아산시 둔포면 둔포면로 25번길 15","충청남도 아산시 둔포면 둔포리 450-8","2일+7일",36.92947905,127.0360401,"Y","Y"
413,"등마루시장","상설장","서울특별시 강서구 화곡로68길 120","서울특별시 강서구 등촌동 637-10","매일",37.55666003,126.8602651,"Y","Y"
414,"땅끝산정시장","5일장","전라남도 해남군 송지면 산정1길 96","전라남도 해남군 송지면 산정리 772-3","2일+7일",34.36964664,126.5191822,"Y","Y"
415,"뚝도시장","상설장","서울특별시 성동구 성수이로 32-15","서울특별시 성동구 성수동2가 335-16","매일",37.53780064,127.054827,"Y","Y"
416,"롯데종합상가","상설장","경상남도 창원시 의창구 용지로225","경상남도 창원시 의창구 용호동 63","매일",35.2340375,128.685432,"Y","Y"
599,"부전시장","상설장","부산광역시 부산진구 중앙대로 783번길 23","부산광역시 부산진구 부전동 573","매일",35.16323429,129.0609058,"Y","Y"
600,"부천상동시장","상설장","경기도 부천시 석천로60번길 51","경기도 부천시 상동 236-5","매일",37.49235707,126.7642708,"Y","Y"
601,"부천자유시장","상설장","경기도 부천시 소사구 자유로 33","경기도 부천시 소사구 심곡본동 543","매일",37.4841112,126.7799422,"Y","N"
602,"부천제일시장","상설장","경기도 부천시 원종로85번길 84","경기도 부천시 원종동 296","매일",37.52795189,126.8097229,"N","Y"
603,"부평깡시장","상설장","인천광역시 부평구 주부토로32번길 25","인천광역시 부평구 시장로 부평동 252-3","매일",37.49788794,126.726541,"Y","Y"
604,"부평깡통시장","상설장","부산광역시 중구 부평1길","부산광역시 중구 부평동2가 16","매일",35.1015592,129.0260206,"Y","Y"
605,"부평문화의 거리","상설장","인천광역시 부평구 부평문화로 78-2","인천광역시 부평구 부평동 201의141","매일",37.49408196,126.7250051,"Y","Y"
606,"부평종합시장","상설장","인천광역시 부평구 부흥로316번길 38-3","인천광역시 부평구 부평동 360-1","매일",37.49649796,126.7266188,"Y","Y"
607,"북동공설시장","상설장","경상남도 창원시 의창구 의안로 49번길 30","경상남도 창원시 의창우 북동 249-1","매일",35.26618055,128.6206956,"Y","Y"
608,"북마산가구시장","상설장","경상남도 창원시 마산합포구 북성로 33-1","경상남도 창원시 마산합포구 추산동 1-57","매일",35.210354,128.5722813,"Y","Y"
609,"북마산중앙시장","상설장","경상남도 창원시 마산합포구 상남시장로3","경상남도 창원시 마산합포구 상남동 40-1","매일",35.21603536,128.5711735,"Y","Y"
610,"북부상가시장","5일장","경상북도 경주시 금성로 396번길 7","경상북도 경주시 성건동 629-10","2일+7일",35.85349307,129.2075801,"Y","Y"
611,"북부시장","5일장","전라북도 익산시 인북로 219","전라북도 익산시 남중동 72-7","4일+9일",35.94822171,126.9565914,"Y","Y"
612,"북부시장","상설장","충청북도 청주시 청원구 향군로 31번길 19","충청북도 청주시 청원구 우암동 344-10","매일",36.64797285,127.4862205,"Y","Y"
613,"북수원시장","상설장","경기도 수원시 장안구 파장로82번길 9 파장동","경기도 수원시 장안구 파장동 572-35","매일",37.30710826,126.9921315,"N","Y"
614,"북신전통시장","상설장","경상남도 통영시 북신시장1길 66","경상남도 통영시 북신동 665-16","매일",34.85415526,128.4275309,"Y","Y"
615,"북원상가시장","상설장","강원특별자치도 원주시 북원상가길 13","강원특별자치도 원주시 태장2동 1379-23","매일",37.38437866,127.9488481,"Y","Y"
616,"북정로 중심상가시장","상설장","경상북도 경주시 북정로 15","경상북도 경주시 황오동 242-4","매일",35.84229221,129.2151793,"Y","Y"
617,"북천공설시장","5일장","경상남도 하동군 경서대로 2427-14","경상남도 하동군 북천면 직전리 597-1","4일+9일",35.11402683,127.8919534,"Y","Y"
618,"북평면남창5일시장","5일장","전라남도 해남군 북평면 달량진길 48-11","전라남도 해남군 북평면 남창리 1279-1","2일+7일",34.40453577,126.6267154,"Y","Y"
619,"북평민속시장","5일장","강원특별자치도 동해시 오일장길 32","강원특별자치도 동해시 북평동 15-5","3일+8일",37.48247246,129.1260277,"Y","Y"
620,"분당종합시장","상설장","경기도 성남시 분당구 돌마로 366번길 42","경기도 성남시 분당구 수내동 83","매일",37.36718028,127.1267485,"Y","Y"
621,"분당현대시장","상설장","경기도 성남시 중앙공원로40번길 8","경기도 성남시 서현동 94번지","매일",37.37973404,127.1301894,"Y","Y"
622,"불국사상가시장","상설장","경상북도 경주시 진현로1길 59-5","경상북도 경주시 진현동 66-5","매일",35.78599622,129.3278528,"Y","Y"
623,"불국시장","5일장","경상북도 경주시 불국로 장터길 24","경상북도 경주시 구정동 429-7","4일+9일",35.77599964,129.3008003,"Y","Y"
624,"불로전통시장","5일장","대구광역시 동구 반야월로1길 7","대구광역시 동구 불로동 449-1","5일+10일",35.87461007,128.6889732,"Y","Y"
625,"비단길현대시장","상설장","서울특별시 금천구 독산로 27길 52","서울특별시 금천구 시흥동 828-45","매일",37.45772651,126.9048774,"Y","Y"
626,"비아5일시장","상설장+5일장","광주광역시 광산구 중앙로 26-1","광주광역시 광산구 비아동 83-5","매일+6일",35.22135768,126.8252661,"Y","Y"
627,"사가정시장","상설장","서울특별시 중랑구 면목로44길 16","서울특별시 중랑구 면목동 472-45","매일",37.58108117,127.0893792,"N","N"
628,"사강시장","5일장","경기도 화성시 송산면 사강로 183-1","경기도 화성시 송산면 사강리 663-1","2일+7일",37.21330187,126.7360036,"Y","Y"
629,"사강시장","상설장","화성시 송산면 송산포도로 109-2 일원","화성시 송산면 사강리 631-21 일원","상설 및 2,7일장",37.21339383,126.7369184,"N","Y"
630,"사거리전통시장","상설장+5일장","전라남도 장성군 북이면 사남북길 22","전라남도 장성군 북이면 사거리 717-3","매일+6일",35.42767874,126.8072629,"Y","Y"
631,"사기막골 도자기시장","상설장","경기도 이천시 경충대로2993번길 24 사음동","경기도 이천시 사음동 509","매일",37.2936788,127.411746,"Y","Y"
632,"사당시장","상설장","서울특별시 동작구 사당로244","서울특별시 동작구 사당동 318-8 사당시장","매일",37.48288276,126.9753375,"Y","Y"
633,"사러가쇼핑","상설장","서울특별시 서대문구 연희맛로 23 연희동","서울특별시 서대문구 연희동 131의 1","매일",37.56715459,126.9296612,"Y","Y"
634,"사상시장","상설장","부산광역시 사상구 사상로250번길58 괘법동","부산광역시 사상구 괘법동 379-1","매일",35.16665715,128.9855085,"N","N"
635,"사직시장","상설장","부산광역시 동래구 사직북로34번길 48","부산광역시 동래구 사직동49-1","매일",35.20005591,129.0623187,"Y","Y"
636,"사직전통시장","상설장","충청북도 청주시 서원구 사직대로 265번길 7","충청북도 청주시 서원구 사직동 267-12","매일",36.63614325,127.4768684,"Y","Y"
637,"사창시장","5일장","전라남도 장성군 삼계면 사창로 81-2","전라남도 장성군 삼계면 사창리 482-44","2일+7일",35.26039872,126.6630711,"Y","Y"
638,"사창시장","상설장","충청북도 청주시 사직대로164번길 36","충청북도 청주시 사창동 286-22","매일",36.63360862,127.4652976,"Y","Y"
639,"사천읍시장","상설장","경상남도 사천시 사천읍 시장1길 16","경상남도 사천시 정의리 392-2","매일",35.08405911,128.0890111,"Y","Y"
640,"사파동성종합상가","상설장","경상남도 창원시 성산구 창이대로 733","경상남도 창원시 성산구 사파동 93","매일",35.21947669,128.7021885,"Y","Y"
641,"사하시장","상설장","부산광역시 사하구 장평로 451","부산광역시 사하구 괴정동 550-38","매일",35.0983507,128.986461,"Y","Y"
642,"산격종합시장","상설장","대구광역시 북구 대동로1길 34","대구광역시 북구 산격동 1258","매일",35.89863699,128.6103517,"Y","N"
643,"산본시장","상설장","경기도 군포시 산본천로183번길 6 산본동","경기도 군포시 산본동 221-5","매일",37.36967532,126.9381221,"Y","Y"
644,"산서시장","5일장","전라북도 장수군 산서면 보산로 1864-11","전라북도 장수군 산서면 동화리 839-73","2일+7일",35.58449451,127.3958895,"Y","Y"
645,"산성전통시장(산성뿌리전통시장)","상설장","대전광역시 중구 대둔산로 420","대전광역시 중구 산성동 285-1","매일",36.30655779,127.3871263,"Y","Y"
646,"산수시장","상설장","광주광역시 동구 필문대로192번길 17-1","광주광역시 동구 산수동 558-58","매일",35.15348678,126.9297328,"Y","N"
647,"산업용재관(대구기계공구상협동조합)","상설장","대구광역시 북구 유통단지로 16","대구광역시 북구 산격동 1629","매일",35.90496577,128.6063956,"Y","Y"
648,"산정시장활성화구역","상설장","충청남도 공주시 국고개길 11","충청남도 공주시 중동 63","매일",36.45488212,127.125678,"Y","Y"
649,"산청시장","상설장+5일장","경상남도 산청군 산청읍 중앙로 16-1","경상남도 산청군 산청읍 산청리 252-2","매일+6일",35.41530189,127.8762282,"Y","Y"
650,"산호시장","상설장","경상남도 창원시 마산합포구 산호시장길 18","경상남도 창원시 마산합포구 산호동 28-8","매일",35.21837357,128.581716,"Y","Y"
651,"삼가시장","5일장","경상남도 합천군 삼가면 일부5길 1","경상남도 합천군 삼가면 일부리 921-1","2일+7일",35.41281461,128.122283,"Y","Y"
652,"삼국시장","상설장","서울특별시 영등포구 영등포로 219 영등포동5가","서울특별시 영등포구 영등포동5가 20-62","매일",37.52014415,126.9057495,"Y","N"
653,"삼방시장","상설장","경상남도 김해시 삼안로 255번길 안길 6-12","경상남도 김해시 삼안로 삼방동 665-8","매일",35.25078422,128.9096895,"Y","Y"
654,"삼성시장","상설장","대구광역시 북구 칠성시장로 42","대구광역시 북구 칠성동1가 276-108","매일",35.8778191,128.6034802,"Y","N"
655,"삼성시장","상설장+5일장","충청북도 음성군 삼성면 대성로 608-2","충청북도 음성군 삼성면 덕정리 534-17","매일+6일",37.01800907,127.4991977,"Y","Y"
656,"삼익비치A상가시장","상설장","부산광역시 수영구 광안해변로 100","부산광역시 수영구 남천동 148-9","매일",35.14375309,129.1153663,"Y","Y"
657,"삼익비치B상가시장","상설장","부산광역시 수영구 광안해변로 122","부산광역시 수영구 남천동 148-5","매일",35.14579319,129.1149654,"Y","Y"
658,"삼익패션타운","상설장","서울특별시 중구 남대문시장 8길 7 삼익패션타운","부산광역시 부산진구 범천1동 839-52","매일",37.56043529,126.9789566,"Y","Y"
659,"삼척번개시장","상설장","강원특별자치도 삼척시 중앙로 14-27","강원특별자치도 삼척시 사직동 50-11","매일",37.43090508,129.1785784,"Y","Y"
660,"삼척중앙시장","5일장","강원특별자치도 삼척시 진주로 12-21","강원특별자치도 삼척시 남양동 55-4","2일+7일",37.44210346,129.1646216,"Y","Y"
661,"삼천포용궁수산시장","상설장","경상남도 사천시 어시장길 64","경상남도 사천시 동동 485-2","매일",34.92743494,128.0717635,"Y","Y"
662,"삼천포전통시장","상설장","경상남도 사천시 어시장길 46","경상남도 사천시 서동 311-112","매일",34.927174,128.069893,"Y","Y"
663,"삼천포종합시장","5일장","경상남도 사천시 동금2길 15","경상남도 사천시 동금동88-4","4일+9일",34.93234419,128.0785447,"Y","Y"
664,"삼천포중앙시장","5일장","경상남도 사천시 중앙시장2길 37","경상남도 사천시 선구동17-4","4일+9일",34.92892254,128.0767148,"Y","Y"
665,"상계중앙시장","상설장","서울특별시 노원구 상계로 27길 32","서울특별시 노원구 상계동 389번지 일원 49필지","매일",37.65996021,127.0698633,"Y","Y"
666,"상남시장","5일장","경상남도 창원시 성산구 마디미로28","경상남도 창원시 성산구 상남동 16","4일+9일",35.22221487,128.6833799906,"Y","Y"
667,"상대원시장","상설장","경기도 성남시 중원구 희망로344번길 6","경기도 성남시 중원구 상대원동 2985-1","매일",37.4359794,127.1587721,"Y","Y"
668,"상대종합시장","상설장","경상북도 포항시 남구 양학천로 76번길13","경상북도 포항시 남구 상도동 1-12","매일",36.01993076,129.3611077,"Y","N"
669,"상도전통시장","상설장","서울특별시 동작구 상도로 37길 62","서울특별시 동작구 상도동 367-2","매일",37.49874471,126.9521015,"Y","Y"
670,"상례시장","5일장","전라북도 완주군 삼례읍 삼봉로 6","전라북도 완주군 삼례읍 삼례리 923-8","3일+8일",35.91061251,127.0735858,"Y","Y"
671,"상승원남시장","5일장","충청북도 보은군 삼승면 삼승탄부로 12","충청북도 보은군 삼승면 원남리 191","3일+8일",36.39692129,127.7331449,"Y","Y"
672,"상인영남상가 영남화성상가시장","상설장","대구광역시 달서구 상인서로 76","대구광역시 달서구 상인1동1517","매일",35.8165179,128.5425774,"Y","Y"
673,"상주시 남성시장","5일장","경상북도 상주시 남성4길 43","경상북도 상주시 남성4길 43 일원","2일+7일",36.41441058,128.1621071,"N","N"
674,"상주중앙시장","5일장","경상북도 상주시 남성로35","경상북도 상주시 남성동 85-10","2일+7일",36.41319406,128.1608304,"Y","Y"
675,"상하전통시장","상설장+5일장","전라북도 고창군 상하면 상하1길 8-3","전라북도 고창군 상하면 하장리 939-3","매일+6일",35.44408963,126.4917533,"Y","Y"
676,"상하전통시장","5일장","전라북도 고창군 상하면 명동1길 3","전라북도 고창군 상하면 하장리936-4","1일,+6일",35.44422672,126.4912177,"Y","Y"
677,"새감만종합시장","상설장","부산광역시 남구 홍곡로 3","부산광역시 남구 감만1동 163-2","매일",35.1163335,129.0817109,"Y","Y"
678,"새마을 중앙시장","상설장+5일장","경상북도 구미시 구미중앙로9길 11","경상북도 구미시 원평동 117-20 외","매일+6일",36.13084551,128.3297837,"Y","Y"
679,"새마을시장","상설장","서울특별시 송파구 백제고분로15길 42 잠실동 지하1층","서울특별시 송파구 잠실동 207-4 지하1층","매일",37.50908943,127.0849001,"Y","Y"
680,"새영주시장","상설장","부산광역시 중구 초량중로6번길 일원","부산광역시 중구 영주동 20-16","매일",35.11270202,129.0363017,"Y","Y"
681,"새일시장","상설장","대구광역시 서구 달서로 17-7","대구광역시 서구 내당2 3동 968-7","매일",35.86372514,128.5713791,"Y","N"
682,"생초시장","5일장","경상남도 산청군 생초로 35-30","경상남도 산청군 생초면 어서리 259-14","3일+8일",35.49242579,127.8360227,"Y","Y"
683,"서교시장","상설장","서울특별시 마포구 홍익로3길 20 서교동","서울특별시 마포구 서교동 375-1","매일",37.55466985,126.9188623,"Y","Y"
684,"서구시장","상설장","대구광역시 서구 국채보상로45길 33","대구광역시 서구 평리3동 1085-1","매일",35.87393762,128.5556896,"Y","N"
685,"서귀포시올레매일시장","상설장","제주특별자치도 서귀포시 중앙로 62번길 18","제주특별자치도 서귀포시 서귀동 277-1","매일",33.25014898,126.5632305,"Y","Y"
686,"서귀포향토오일시장","5일장","제주특별자치도 서귀포시 토평서로11번길 142","제주특별자치도 서귀포시 동홍동 779-1","4일+9일",33.26778949,126.5737419,"Y","Y"
687,"서남시장","상설장","대구광역시 달서구 달구벌대로 329길 17","대구광역시 달서구 감삼동 55-5","매일",35.85436693,128.5451734,"Y","Y"
688,"서남신시장","상설장","대구광역시 달서구 달구벌대로329길 10","대구광역시 달서구 감삼동 62-4","매일",35.85401333,128.5459007,"Y","Y"
689,"서대구시장","상설장","대구광역시 달석구 명덕로2길 30","대구광역시 달석구 두류1동 1216-1","매일",35.86059821,128.5706868,"Y","Y"
782,"송정매일시장","상설장","광주광역시 광산구 송정로 29번길 64","광주광역시 광산구 송정동 813-1","매일",35.13744947,126.7968447,"Y","Y"
783,"송지시장","5일장","경상남도 밀양시 삼랑진읍 외송3길 8-1","경상남도 밀양시 삼랑진읍 송지리359의15","4일+9일",35.39686785,128.8371957,"Y","Y"
784,"송촌시장","상설장","대전광역시 대덕구 동춘당로 83","대전광역시 대덕구 송촌동 476-1","매일",36.36463844,127.439864,"Y","Y"
785,"송탄시장","5일장","경기도 평택시 탄현로346번길 38","경기도 평택시 지산동 754-28","4일+9일",37.08145628,127.0567324,"Y","Y"
786,"송현시장","상설장","인천광역시 동구 화도진로44번길 18","인천광역시 동구 송현동 88-19","매일",37.47616144,126.6346428,"Y","Y"
787,"송현주공시장(월촌역시장)","상설장","대구광역시 달서구 송현로12안길 38","대구광역시 달서구 송현동 1948-3","매일",35.82274056,128.5481771,"Y","Y"
788,"수산시장","상설장","대구광역시 수성구 들안로 285-56 수성동2가","대구광역시 수성구 수성2가 39-3","매일",35.85565487,128.6170064,"Y","Y"
789,"수산시장","5일장","경상남도 밀양시 하남읍 시서상가길 5","경상남도 밀양시 하남읍 수산리815-18","3일+8일",35.37422567,128.7087807,"Y","Y"
790,"수안인정시장","상설장","부산광역시 동래구 충렬대로245번길 8","부산광역시 동래구 수안동275-2","매일",35.20149621,129.0865801,"Y","Y"
791,"수암상가시장","상설장","울산광역시 남구 수암로 128번길 12","울산광역시 남구 야음동 697-9","매일",35.52697636,129.3207645,"Y","Y"
792,"수암상가시장","상설장","울산광역시 남구 수암로 128번길 12","울산광역시 남구 야음동 697-9","매일",35.5269662,129.3207713,"Y","N"
793,"수암종합시장","상설장","울산광역시 남구 수암로 120-2","울산광역시 남구 야음동 698-16","매일",35.5278581,129.320239,"Y","N"
794,"수암종합시장","상설장","울산광역시 남구 수암로 128-2 야음동","울산광역시 남구 야음동 698-1","매일",35.52786077,129.3206699772,"Y","N"
795,"수영팔도시장","상설장","부산광역시 수영구 수영로725번길 36","부산광역시 수영구 수영동 305-3","매일",35.16878215,129.1168966,"Y","Y"
796,"수원역전시장","상설장","경기도 수원시 팔달구 매산로 2-10 매산로1가","경기도 수원시 팔달구 매산로1가 57-3","매일",37.26630163,127.0023389,"Y","Y"
797,"수원영동시장","상설장","경기도 수원시 팔달구 수원천로255번길 6 영동","경기도 수원시 팔달구 영동 8","매일",37.27681569,127.0186603,"Y","Y"
798,"수유북부시장","상설장","서울특별시 강북구 삼양로 91길 11의 12","서울특별시 강북구 수유동 413-2","매일",37.63675807,127.016487,"Y","Y"
799,"수유시장","상설장","서울특별시 강북구 도봉로67길 18","서울특별시 강북구 수유1동 54-5","매일",37.63072891,127.0226681,"Y","Y"
800,"수유재래시장","상설장","서울특별시 강북구 도봉로71길 26","서울특별시 강북구 수유1동 50-77","매일",37.63153004,127.0223303,"Y","Y"
801,"수유전통시장","상설장","서울특별시 강북구 도봉로67길 18","서울특별시 강북구 수유동 54-5","매일",37.63072891,127.0226681,"Y","Y"
802,"수유프라자","상설장","서울특별시 강북구 도봉로 261","서울특별시 강북구 수유동 63","매일",37.63169253,127.0234675,"Y","Y"
803,"수정시장","상설장","부산광역시 동구 고관로 106","부산광역시 동구 수정2동 170- 1","매일",35.12825843,129.0463919,"Y","Y"
804,"수정전통시장","상설장","부산광역시 동구 중앙대로371번길 50","부산광역시 동구 수정동 248-3","매일",35.13011972,129.0463697,"N","N"
805,"순창시장","상설장+5일장","전라북도 순창군 순창읍 남계로 58","전라북도 순창군 순창읍 남계리 800","매일+6일",35.37186989,127.1450594,"Y","Y"
806,"순천시 아랫장","5일장","전라남도 순천시 장평로 60","전라남도 순천시 풍덕동 1264","2일+7일",34.94514679,127.4960900485,"Y","Y"
807,"숭례문수입상가","상설장","서울특별시 중구 소월로 3","서울특별시 중구 남창동 51-1 롯데손해보험빌딩","매일",37.55937231,126.9762026,"Y","Y"
808,"숭인시장","상설장","서울특별시 강북구 도봉로 45","서울특별시 강북구 미아동 60-5","매일",37.61314356,127.0294532,"Y","Y"
809,"숯골신흥시장","상설장","경기도 성남시 수정구 수정로214번길 6","경기도 성남시 수정구 신흥동 3436-10","매일",37.44397935,127.1433869,"Y","Y"
810,"스타프라자 전통시장","상설장","경기도 안산시 상록구 화랑로 513","경기도 안산시 상록구 성포동 583","매일",37.32081608,126.8447219,"Y","Y"
811,"승주시장","상설장+5일장","전라남도 승주읍 승주장길 14","전라남도 순천시 승주읍 서평리 43","매일+6일",35.01325059,127.3910514,"Y","Y"
812,"시민시장","상설장","경기도 수원시 팔달구 팔달문로4번길 19 영동","경기도 수원시 팔달구 영동 10-18","매일",37.27668388,127.0179847,"Y","N"
813,"시종5일시장","5일장","전라남도 영암군 시종면 내동중앙로 26","전라남도 영암군 시종면 만수리 933-40","2일+7일",34.8674024,126.608099,"Y","Y"
814,"시화공구상가","상설장","경기도 시흥시 공단1대로 204","x","매일",37.33771107,126.7247096,"Y","Y"
815,"시흥삼미시장상인회","상설장","경기도 시흥시 삼미시장2길 35","경기도 시흥시 신천동 738-4","매일",37.44040747,126.7838201,"Y","Y"
816,"신거북시장","상설장","인천광역시 서구 거북로99","인천광역시 서구 석남동 541-15","매일",37.50328579,126.6729889,"Y","Y"
817,"신곡종합시장","상설장","서울특별시 양천구 남부순환로79길 37","서울특별시 양천구 신월동 575-17","매일",37.518369,126.8431967,"Y","N"
818,"신기시장","상설장","인천광역시 미추홀구 미추홀대로547","인천광역시 미추홀구 주안동 1311-17","매일",37.44621554,126.6786452,"Y","Y"
819,"신내당시장","상설장","대구광역시 달서구 야외음악당로39길 62","대구광역시 달서구 두류3동 486-1","매일",35.854621,128.5538543,"Y","Y"
820,"신녕공설시장","5일장","경상북도 영천시 신녕면 본관시장길3","경상북도 영천시 신녕면 화성리 866-1","3일+8일",36.04209096,128.7874685,"Y","Y"
821,"신도꼼지락 시장","상설장","대전광역시 동구 흥룡로37번길 12","대전광역시 동구 가양동 38-5","매일",36.3495206,127.447114,"Y","Y"
822,"신도봉시장","상설장","서울특별시 도봉구 도당로 27길 60","서울특별시 도봉구 도봉동 611","매일",37.67001525,127.0411237,"Y","Y"
823,"신도봉시장","상설장","서울특별시 도봉구 도당로27길 60","서울특별시 도봉구 도봉동 611","매일",37.6700601,127.0411223321,"N","N"
824,"신동아수산물시장","상설장","부산광역시 중구 자갈치로 42","부산광역시 중구 남포동5가 92","매일",35.09672134,129.0286701,"Y","Y"
825,"신림종합시장","상설장","서울특별시 관악구 남부순환로 157길 63","서울특별시 관악구 신림동 505-1","매일",37.4846461,126.9170932,"Y","N"
826,"신림중앙시장","상설장","서울특별시 관악구 조원로16길 27","서울특별시 관악구 조원동 541","매일",37.48314523,126.9114212,"Y","Y"
827,"신림현대종합상가","상설장","서울특별시 관악구 신림로 29길 3-20","서울특별시 관악구 신림동 1694","매일",37.47462652,126.9338049,"Y","Y"
828,"신마산반월시장","상설장","경상남도 창원시 마산합포구 반월남1길 18-16","경상남도 창원시 마산합포구 반월동 84-13","매일",35.18965944,128.5611826,"Y","N"
829,"신마산시장","상설장","경상남도 창원시 마산합포구 문화동15길 13","경상남도 창원시 마산합포구 해운동 64","매일",35.18109688,128.5617023,"Y","Y"
830,"신반시장","5일장","경상남도 의령군 부림면 신번로9길 11","경상남도 의령군 부림면 신반리519-3","4일+9일",35.46811354,128.3250368,"Y","Y"
831,"신부시장","상설장","경상남도 거제시 장승포로 49","경상남도 거제시 장승포동 283-99","매일",34.86775934,128.7295182,"Y","Y"
832,"신사 상가","상설장","서울특별시 강남구 압구정로29길 72-1","서울특별시 강남구 압구정동 454","매일",37.53228798,127.028402,"Y","N"
833,"신산시장","상설장","제주특별자치도 제주시 고마로17길 11","제주특별자치도 제주시 일도2동 377-11","매일",33.50603629,126.5419799758,"Y","Y"
834,"신설 종합시장","상설장","서울특별시 종로구 난계로27길 51","서울특별시 종로구 숭인동 206-9 신설종합시장","매일",37.57266959,127.0203448,"Y","N"
835,"신성시장","상설장","서울특별시 광진구 용마산로 50","서울특별시 광진구 중곡동 79-7","매일",37.55808075,127.0880508,"Y","N"
836,"신아타운","상설장","서울특별시 중랑구 봉화산로 194 신내동","서울특별시 중랑구 신내동 666 신아타운","매일",37.60645263,127.094707,"Y","Y"
837,"신안코아전통시장","상설장","경기도 안산시 상록구 석호로 315","경기도 안산시 상록구 본오동 871","매일",37.29374921,126.8659882,"Y","Y"
838,"신안프라자","상설장","경기도 안산시 상록구 반석로 54","x","매일",37.29647466,126.8658209,"Y","Y"
839,"신영시장","상설장","서울특별시 양천구 월정로 161-5 2층","서울특별시 양천구 신월동 114-18 신영시장고객지원센터","매일",37.53301405,126.8360249,"Y","Y"
840,"신영주번개시장","상설장","경상북도 영주시 선비로79번길","경상북도 영주시 휴천동 330","매일",36.81224687,128.623387,"Y","Y"
841,"신울산종합시장","상설장","울산광역시 중구 서원6길 11 반구동","울산광역시 중구 반구동 100-1","매일",35.56123791,129.3373619,"Y","Y"
842,"신울산종합시장","상설장","울산광역시 중구 서원6길 11(반구동)","울산광역시 중구 반구동 100-1","매일",35.5612392,129.3373679,"Y","Y"
843,"신원시장","상설장","서울특별시 관악구 신원로3길 20-3","서울특별시 관악구 신원동 1599-3","매일",37.48206598,126.9273791,"Y","Y"
844,"신월중앙시장","상설장","서울특별시 강서구 강서로 5나길 109","서울특별시 강서구 화곡동 929-1","매일",37.52796881,126.8419059,"Y","Y"
845,"신응암시장","상설장","서울특별시 은평구 응암로22길3-1","서울특별시 은평구 응암동 427-130","매일",37.5939075,126.9186943,"Y","Y"
846,"신장전통시장","상설장","경기도 하남시 신장1로3번길 42","경기도 하남시 신장동 신장전통시장","매일",37.53788732,127.2070276,"Y","Y"
847,"신정상가시장","상설장","울산광역시 남구 월평로47번길 15","울산광역시 남구 신정동 616-1","매일",35.54300662,129.3101169,"Y","N"
848,"신정상가시장","상설장","울산광역시 남구 중앙로 241번길 14-1","울산광역시 남구 신정동 634-10","매일",35.5419608,129.3090764,"Y","N"
849,"신정제일시장","상설장","서울특별시 양천구 중앙로34길 30","서울특별시 양천구 신정1동 1030-6","매일",37.52084193,126.8536838,"Y","N"
850,"신정평화시장","상설장","울산광역시 남구 봉월로67번길 17","울산광역시 남구 신정동 1600-3","매일",35.538337,129.3035526,"Y","Y"
851,"신정평화시장","상설장","울산광역시 남구 봉월로 67번길 17","울산광역시 남구 신정동 1600-3 신정평화시장","매일",35.53834025,129.3035365,"Y","Y"
852,"신중부시장","상설장","서울특별시 중구 을지로30길 29 오장동 일대","서울특별시 중구 오장동 44-8 중부빌딩 일대","매일",37.56553374,126.9994062,"Y","Y"
853,"신중앙시장","상설장","대전광역시 동구 중앙로200번길 85","대전광역시 동구 원동 40- 1","매일",36.3272971,127.4336349,"Y","Y"
854,"신중앙시장","상설장","서울특별시 중구 퇴계로85길 36 황학동 일대","서울특별시 중구 황학동 442 일대","매일",37.56738265,127.0197632,"Y","N"
855,"신중앙시장","상설장","전라남도 목포시 원산중앙로 51","전라남도 목포시 산정동 1732","매일",34.81025503,126.3775244,"Y","Y"
856,"신창상가","상설장","부산광역시 중구 중구로34번길 21-1","부산광역시 중구 신창동1가 19-2","매일",35.10117897,129.0302005,"Y","Y"
857,"신천지 시장","상설장","부산광역시 중구 자갈치로 33","부산광역시 중구 남포동6가 3","매일",35.09705479,129.0278397,"Y","Y"
858,"신철원전통시장","5일장","강원도 철원군 갈말읍 삼부연로18번길 16-2","강원도 철원군 갈말읍 신철원리 697","3일8일",38.144755,127.3100254,"Y","Y"
859,"신철원전통시장","5일장","강원특별자치도 철원군 갈말읍 삼부연로18번길 16-2","강원특별자치도 철원군 갈말읍 신철원리 697","3일+8일",38.14472692,127.3100254,"Y","Y"
860,"신탄진시장","5일장","대전광역시 대덕구 석봉로43번길 37","대전광역시 대덕구 석봉동 417-43","3일+8일",36.44915342,127.4265065,"Y","Y"
861,"신태인시장","5일장","전라북도 정읍시 신태인읍 신태인2길 14","전라북도 정읍시 신태인읍 신태인리 85-10","3일+8일",35.68729048,126.8865678,"Y","Y"
862,"신평","5일장","경상북도 의성군 신평면 봉호로 2400-7","경상북도 의성군 신평면 교안리 312-6","5일+10일",36.47035825,128.5061583,"Y","N"
863,"신평골목시장","상설장","부산광역시 사하구 다대로134번길 27","부산광역시 사하구 신평1동 111-282","매일",35.09108269,128.9771269,"Y","Y"
864,"신평리시장","상설장","대구광역시 서구 국채보상로 52길 33","대구광역시 서구 평리동 1205","매일",35.86809861,128.5606859,"Y","Y"
865,"신평시장","5일장","경상남도 양산시 하북면 신평강변3길 11","경상남도 양산시 하북면 순지리 575","3일+8일",35.49059837,129.0858571,"Y","N"
866,"신평전통시장","상설장","경상북도 구미시 칠성로6길 48","경상북도 구미시 신평동 150-4","매일",36.12315891,128.3611464,"Y","Y"
867,"신평종합시장","상설장","부산광역시 사하구 다대로134번길 44 신평시장상가아파트","부산광역시 사하구 신평1동 111-213","매일",35.09162211,128.9767093,"Y","Y"
868,"신평화패션타운","상설장","서울특별시 중구 청계천로 298 신당동","서울특별시 중구 신당동 217-1 신평화상가","매일",37.56945382,127.0110696,"Y","N"
869,"신포시장","상설장","인천광역시 중구 우현로49번길 11-5","인천광역시 중구 우현로 신포동 3-2","매일",37.47146219,126.627812,"Y","Y"
870,"신흥시장","상설장","경기도 부천시 평천로 719","경기도 부천시 삼정동 314-13","매일",37.51533797,126.7705826,"Y","Y"
871,"신흥시장","상설장","서울특별시 용산구 신흥로 95-9 용산동2가","서울특별시 용산구 용산동 2가 1-480","매일",37.54532379,126.9850855,"Y","N"
872,"신흥시장","상설장","인천광역시 중구 도원로 15-1","인천광역시 중구 선화동 29-10","매일",37.46606007,126.636624,"Y","Y"
873,"십교시장","5일장","충청남도 예산군 삽교읍 두리3길 50-7","충청남도 예산군 삽교읍 두리 568-37","2일+7일",36.68725727,126.7412868,"Y","Y"
874,"쌍문시장","상설장","서울특별시 도봉구 도봉로113길 20","서울특별시 도봉구 쌍문동 94-29","매일",37.6483674,127.032968,"N","N"
875,"쌍문시장","상설장","서울특별시 도봉구 도봉로113길 23","서울특별시 도봉구 쌍문동 98-35","매일",37.6482440004,127.0328194,"N","N"
876,"쌍봉시장","상설장","전라남도 여수시 학동2길 7","전라남도 여수시 학동 35-3","매일",34.76414801,127.6649944,"Y","Y"
877,"아리랑거리","상설장","부산광역시 중구 중구로30번길 12","부산광역시 중구 신창동 3가 17-1","매일",35.10045748,129.0289689,"Y","Y"
878,"아미시장","상설장","부산광역시 서구 아미초장로 132 아미동2가","부산광역시 서구 아미동 2가 96-11","매일",35.0996515,129.0174795,"N","N"
879,"아현시장","상설장","서울특별시 마포구 아현동 굴레방로 7길 8","서울특별시 마포구 아현동 327-40","매일",37.55640684,126.9550808,"Y","N"
880,"안강공설시장","5일장","경상북도 경주시 안강읍 비화중로 3길 26-3","경상북도 경주시 안강읍 양월리 1350-1","4일+9일",35.9903076,129.2217101,"Y","Y"
881,"안계","5일장","경상북도 의성군 안계면 안계시장길 14-11","경상북도 의성군 안계면 용기리 467-1","1일+6일",36.38442411,128.4383471,"Y","Y"
882,"안계공설시장","상설장+5일장","경상북도 의성군 안계면 안계시장길 14-11","경상북도 의성군 안계면 용기리 467-1","매일+6일",36.38442423,128.4383448,"Y","Y"
883,"안덕시장","5일장","경상북도 청송군 안덕면 명당2길","경상북도 청송군 안덕면 명당1리 안덕로57","4일+9일",36.28812837,128.9574965,"Y","Y"
884,"안동구시장","상설장","경상북도 안동시 번영1길 55","경상북도 안동시 서부동 181-1","매일",36.56581163,128.7278744,"Y","Y"
885,"안동북문시장","5일장","경상북도 안동시 북문옥정길 25","경상북도 안동시 율세동 410-5","2일+7일",36.56852384,128.7326141,"Y","Y"
886,"안동서부시장","5일장","경상북도 안동시 대안로 22번지","경상북도 안동시 태화동 60-12","2일+7일",36.56527091,128.7149735,"Y","Y"
887,"안락상가시장","상설장","부산광역시 동래구 충렬대로410번길 21","부산광역시 동래구 안락2동603-1","매일",35.1954983,129.1033164,"Y","Y"
888,"안면도수산시장","상설장","충청남도 태안군 안면읍 장터로 104","충청남도 태안군 안면읍 승언리 1249","매일",36.51635574,126.3460081,"Y","Y"
889,"안면도수산시장","상설장+5일장","충청남도 태안군 안면읍 장터로 104","충청남도 태안군 안면읍 승언리 1249","매일",36.5163558248,126.3460070243,"Y","Y"
890,"안산다농마트전통시장","상설장","경기도 안산시 상록구 예술광장로 1","경기도 안산시 상록구 월피동 445-1","매일",37.32836149,126.8442393,"Y","Y"
891,"안산시민시장","5일장","경기도 안산시 단원구 화랑로 149","경기도 안산시 단원구 초지동 604-4","5일+10일",37.32537215,126.8050881,"Y","Y"
892,"안산패션타운전통시장","상설장","경기도 안산시 상록구 삼리로 45","경기도 안산시 상록구 사동 1530-1","매일",37.30498141,126.8446652,"Y","Y"
893,"안성맞춤시장","상설장","경기도 안성시 시장길 37","경기도 안성시 서인동 13의1","매일",37.00663083,127.2703533,"Y","Y"
894,"안성시장(덕유산장터)","5일장","전라북도 무주군 안성면 칠연로 38","전라북도 무주군 안성면 장기리 1511-123","5일+10일",35.86633002,127.653578,"Y","Y"
895,"안성중앙시장","5일장","경기도 안성시 장기로45번길 30","경기도 안성시 서인동 81","2일+7일",37.00656174,127.2687958,"Y","Y"
896,"안양관양시장","상설장","경기도 안양시 동안구 관평로 336번길 31","경기도 안양시 동안구 관양동 1407-8","매일",37.40522465,126.9593100455,"Y","N"
897,"안양남부시장","상설장","경기도 안양시 만안구 장내로 140번길 51","경기도 안양시 만안구 안양동 622-378","매일",37.39593462,126.9249532,"Y","Y"
898,"안양박달시장","상설장","경기도 안양시 만안구 양화로 132-3","경기도 안양시 만안구 박달동 21-8","매일",37.40464622,126.9096186,"Y","Y"
899,"안양중앙인정시장","상설장","경기도 안양시 만안구 냉천로185번길 8","경기도 안양시 만안구 안양동 711-280","매일",37.39648476,126.9195692,"Y","Y"
900,"안양호계종합시장","상설장","경기도 안양시 동안구 흥안대로113번길 34","경기도 안양시 동안구 호계1동 997","매일",37.37253625,126.9592998,"Y","Y"
901,"안의시장","5일장","경상남도 함양군 안의면 약초시장길 25-10","경상남도 함양군 안의면 석천리 243","5일+10일",35.62629824,127.8140336,"Y","Y"
902,"안중시장 상인회","상설장+5일장","경기도 평택시 안중읍 안현로서3길 34","경기도 평택시 안중읍 안중리 269-3","매일+6일",36.98766163,126.927666,"Y","Y"
903,"안지랑시장","상설장","대구광역시 남구 안지랑로16길 67","대구광역시 남구 대명동 829-2","매일",35.83685644,128.5751543,"Y","Y"
904,"안평","5일장","x","경상북도 의성군 안평면 박곡리 952-3","3일+8일",36.37545455,128.5798952,"Y","N"
905,"암사종합시장","상설장","서울특별시 강동구 상암로 11길 17","서울특별시 강동구 암사동 501-18","매일",37.5505465,127.1287154,"Y","Y"
906,"야로시장","5일장","경상남도 합천군 야로면 야로시장길 7-5","경상남도 합천군 야로면 구정리 273-4","2일+7일",35.70612717,128.1685691,"Y","Y"
907,"야음상가시장","상설장","울산광역시 남구 수암로 244-6","울산광역시 남구 야음동 815-10","매일",35.52361503,129.3318642,"Y","Y"
908,"야음상가시장","상설장","울산광역시 남구 수암로 244-6","울산광역시 남구 야음동 815-10","매일",35.523617,129.3318715,"Y","N"
909,"야탑에이스코아시장","상설장","경기도 성남시 분당구 야탑로 64","경기도 성남시 분당구 야탑동 502","매일",37.40950295,127.1259785,"Y","Y"
910,"양곡시장","상설장","경기도 김포시 양촌읍 양곡1로 42-2","경기도 김포시 양촌읍 양곡리 415-6","매일",37.65446358,126.6238085,"Y","N"
911,"양곡시장","상설장","경기도 김포시 양촌읍 양곡로 537","경기도 김포시 양촌읍 양곡리 414-3","매일",37.654818,126.623703,"N","N"
912,"양곡오라니장터","상설장","경기도 김포시 양곡1로 54","경기도 김포시 양촌읍 양곡리 419-4 16호","매일",37.65537267,126.6235251,"Y","Y"
913,"양곡오라니장터시장","상설장","경기도 김포시 양촌읍 양곡1로56번길 13","경기도 김포시 양촌읍 양곡리 423","매일",37.656161148,126.6237054005,"N","N"
914,"양곡종합상가","상설장","경상남도 창원시 성산구 신촌로102","경상남도 창원시 성산구 신촌동 33-2","매일",35.20085109,128.628329,"Y","Y"
915,"양구중앙시장","5일장","강원특별자치도 양구군 중앙길 68","강원특별자치도 양구군 상리 235","5일+10일",38.10410575,127.9893293,"Y","Y"
916,"양남시장","5일장","경상북도 경주시 하서중앙길 56-28","경상북도 경주시 하서리 1502","4일+9일",35.67537996,129.4636507,"Y","Y"
917,"양덕중앙시장","상설장","경상남도 창원시 회원구 양덕북10길 23","경상남도 창원시 회원구 양덕동 15-1","매일",35.2326503,128.5842642,"Y","N"
918,"양동건어물시장","상설장","광주광역시 서구 천변좌로 254번길 6","광주광역시 서구 양동 5-160","매일",35.15316825,126.9033302,"Y","Y"
919,"양동경열로시장","상설장","광주광역시 서구 경열로 140-1","광주광역시 서구 양동 307-28","매일",35.1536684,126.9008475,"Y","Y"
920,"양동닭전길시장","상설장","광주광역시 서구 천변좌로 262번길 4","광주광역시 서구 양동 5-56","매일",35.15281861,126.9039961,"Y","Y"
921,"양동복개상가","상설장","광주광역시 서구 천변좌로 243","광주광역시 서구 양동 441","매일",35.15359895,126.9039282,"Y","Y"
922,"양동산업용품시장","상설장","광주광역시 서구 독립로 205","광주광역시 서구 양동 62의 1","매일",35.15117135,126.906622,"Y","Y"
690,"서대문구 인왕시장","상설장","서울특별시 서대문구 인왕시장길 24 홍제동","서울특별시 서대문구 홍제3동 298-7","매일",37.59121811,126.9433194,"Y","Y"
691,"서대신1동골목시장","상설장","부산광역시 서구 대영로 30번길 19-1 서대신동1가","부산광역시 서구 서대신동1가 149-4","매일",35.10865755,129.0144325,"N","N"
692,"서대신동골목시장","상설장","부산광역시 서구 구덕로295번길 4 서대신동2가","부산광역시 서구 서대신동2가 99-5","매일",35.11042114,129.0173205,"Y","N"
693,"서동 향토시장","상설장","부산광역시 금정구 서부로 21-1","부산광역시 금정구 서동 194-1","매일",35.21593693,129.1033546,"Y","N"
694,"서동시장","상설장","전라북도 익산시 중앙로3길 39","전라북도 익산시 창인동1가 115-13","매일",35.94270522,126.9505513,"Y","Y"
695,"서동시장","상설장","울산광역시 중구 동천2길 17(서동)","울산광역시 중구 서동 39-3","매일",35.58205471,129.3465532,"Y","N"
696,"서동시장","상설장","울산광역시 중구 동천5길 12 서동 월드빌라트","울산광역시 중구 서동 38-6 월드빌라트","매일",35.5813415,129.3469788,"Y","N"
697,"서동시장","상설장","부산광역시 금정구 서동로141번길 21","부산광역시 금정구서3동 302","매일",35.21641237,129.1023592,"Y","Y"
698,"서동전통골목시장","상설장","부산광역시 금정구 서동로 143","부산광역시 금정구 서3동 338-7","매일",35.21528357,129.1022459,"Y","N"
699,"서마산시장","상설장","경상남도 창원시 마산회원구 석전남16길64","경상남도 창원시 마산회원구 석전동 155-1","매일",35.22902031,128.5691291,"Y","Y"
700,"서면시장","상설장","부산광역시 부산진구 서면로 56","부산광역시 부산진구 부전동 256-6","매일",35.1556582,129.0581408,"Y","Y"
701,"서면시장","상설장+5일장","경상북도 경주시 서면 내서로 401-5","경상북도 경주시 서면 아화리 240-2","매일+6일",35.89506326,129.0480431,"Y","Y"
702,"서면종합시장","상설장","부산광역시 부산진구 부전로 162번길 28","부산광역시 부산진구 부전동 347-40","매일",35.16191514,129.0589849,"Y","Y"
703,"서면중앙시장","5일장","대구광역시 북구 호국로43길27","대구광역시 북구 서변동 1751","2일+7일",35.92100345,128.596176,"Y","N"
704,"서면중앙시장","상설장","부산광역시 부산진구 동성로 143","부산광역시 부산진구 전포2동 608-1","매일",35.16085844,129.0632892,"Y","Y"
705,"서문공설시장","상설장","제주특별자치도 제주시 서문로4길 13-2","제주특별자치도 제주시 용담1동 135-9","매일",33.51135116,126.5179062,"Y","Y"
706,"서문시장","상설장","충청북도 청주시 상당구 남사로 89번길 61","충청북도 청주시 상당구 서문동 166-43","매일",36.63511237,127.4853673,"Y","Y"
707,"서문시장 명품프라자","상설장","대구광역시 중구 큰장로 28길 27","대구광역시 중구 대신동 115-112","매일",35.86990817,128.5809042,"Y","Y"
708,"서문시장1지구상인회","상설장","대구광역시 중구 큰장로28길10 1층","대구광역시 중구 대신동 115-379 1층","매일",35.86939386,128.5798314,"Y","Y"
709,"서문시장1지구포목시장(2층)","상설장","대구광역시 중구 큰장로28길10 2층","대구광역시 중구 대신동 115-379 2층","매일",35.86939386,128.5798314,"Y","Y"
710,"서문시장2지구종합상가","상설장","대구광역시 중구 큰장로26길25","대구광역시 중구 대신동 2105","매일",35.86881467,128.5795313,"Y","Y"
711,"서문시장4지구","상설장","대구광역시 중구 달성로 18","대구광역시 중구 동산동 562","매일",35.86673048,128.5827232,"Y","Y"
712,"서문시장5지구","상설장","대구광역시 중구 큰장로26길 6","대구광역시 중구 대신동115-400","매일",35.868085,128.5784635,"Y","Y"
713,"서문시장건해산물상가","상설장","대구광역시 중구 큰장로 26안길5","대구광역시 중구 대신동 265-5","매일",35.8681429,128.5794878,"Y","Y"
714,"서문시장아진상가","상설장","대구광역시 중구 큰장로 28길39","대구광역시 중구 큰장로 대신동 115-381","매일",35.86994908,128.5815824,"Y","Y"
715,"서부공설시장","상설장","강원특별자치도 영월군 영월읍 서부시장길 8-1","강원특별자치도 영월군 영월읍 하송리 5-10","매일",37.18292424,128.4663131,"Y","Y"
716,"서부시장","상설장+5일장","충청남도 태안군 태안읍 시장2길 32-7","충청남도 태안군 태안읍 남문리 164","매일",36.752927,126.2968099,"Y","N"
717,"서부시장","상설장","전라북도 전주시 완산구 효동 2길 14-8","전라북도 전주시 완산구 효자동1가 201-63","매일",35.8052372,127.1266628,"Y","Y"
718,"서부시장","상설장","대구광역시 서구 달서로 26길 7-2","대구광역시 서구 비산동 434-13","매일",35.87330956,128.5720469,"Y","Y"
719,"서부아침시장","상설장","강원특별자치도 영월군 중앙로 30-1","강원특별자치도 영월군 영월읍 영흥리 947-57","매일",37.18331946,128.4667527,"Y","Y"
720,"서산동부전통시장","상설장","충청남도 서산시 시장5로 15","충청남도 서산시 동문동 900-3","매일",36.78182487,126.4564473,"Y","Y"
721,"서시장 주변시장","5일장","전라남도 여수시 서교2길 2-7","전라남도 여수시 서교동 534-20","4일+9일",34.74094766,127.7285604,"Y","Y"
722,"서시장주변시장","상설장","전라남도 여수시 중앙로 3-4","전라남도 여수시 서교동 534-23","매일",34.74083202,127.728382,"Y","Y"
723,"서울남대문시장","상설장","서울특별시 중구 남대문시장4길 21 일대","서울특별시 중구 남창동 49-1 일대","매일",37.55918636,126.9776537,"Y","N"
724,"서울약령시장","상설장","서울특별시 동대문구 약령중앙로26","서울특별시 동대문구 제기동 1082","매일",37.58060041,127.0375866,"Y","Y"
725,"서울중앙시장","상설장","서울특별시 중구 퇴계로 85길 36 일대","서울특별시 중구 황학동 442 일대","매일",37.56738265,127.0197632,"Y","N"
726,"서원시장","상설장","부산광역시 동래구 충렬대로359번길 55","부산광역시 동래구 안락1동425-51","매일",35.20038828,129.0990191,"Y","Y"
727,"서정리시장","5일장","경기도 평택시 서정역로 37","경기도 평택시 서정동 328-35","2일+7일",37.05742105,127.0555086,"Y","Y"
728,"서창시장","5일장","경상남도 양산시 서창서2길 5","경상남도 양산시 삼호동 524","4일+9일",35.41628296,129.1720148,"Y","Y"
729,"서천특화시장","5일장","충청남도 서천군 서천읍 충절로 42","충청남도 서천군 서천읍 군사리 686-1","2일+7일",36.07502119,126.6868202,"Y","Y"
730,"서포시장","5일장","경상남도 사천시 자구로 473","경상남도 사천시 서포면 구평리 644-3","4일+9일",35.00686674,127.9779068,"Y","Y"
731,"서호전통시장","상설장","경상남도 통영시 새터길 58-9","경상남도 통영시 서호동 163-42","매일",34.84146179,128.4201162,"Y","Y"
732,"석계시장","5일장","경상남도 양산시 상북면 삼계4길 2","경상남도 양산시 상북면 석계리 34-9","4일+9일",35.41957336,129.0639378,"Y","Y"
733,"석곡전통시장","5일장","전라남도 곡성군 석곡면 석곡로 70","전라남도 곡성군 석곡면 석곡리 80-2","5일+10일",35.13294446,127.2540939,"Y","Y"
734,"석수시장","상설장","경기도 안양시 만안구 석천로 171번길 20","경기도 안양시 만안구 석수동 287","매일",37.4128602,126.9079976,"Y","Y"
735,"석전시장","상설장","경상남도 창원시 마산회원구 석전동 6길 32","경상남도 창원시 마산회원구 석전동 257-1","매일",35.23041122,128.5749057,"Y","Y"
736,"석촌시장","상설장","서울특별시 송파구 송파대로 37길 52 지층","서울특별시 송파구 석촌동 274-8 지층","매일",37.50017287,127.1065252,"Y","Y"
737,"선비골 전통시장","상설장","경상북도 영주시 중앙로 83번길40","경상북도 영주시 영주동 373-5","매일",36.82424293,128.6231913,"Y","Y"
738,"선산봉황시장","5일장","경상북도 구미시 선산읍 단계동길 24","경상북도 구미시 선산읍 완전리 253","2일+7일",36.23951857,128.300921,"Y","Y"
739,"선우시장","상설장","울산광역시 중구 곽남14길 37(남외동)","울산광역시 중구 남외동 385-3","매일",35.57119003,129.3421097,"Y","N"
740,"선우시장","상설장","울산광역시 중구 곽남14길 37","울산광역시 중구 남외동 385-3 선우시장 선화아파트","매일",35.57119003,129.3421097,"Y","Y"
741,"설악눈메골시장","상설장","경기도 가평군 설악면 신천중앙로 104-1","경기도 가평군 설악면 신천리 413-14","매일",37.6773832,127.4921808,"Y","Y"
742,"설천시장","5일장","전라북도 무주군 설천면 삼도봉로 11","전라북도 무주군 설천면 소천리 904-29","2일+7일",36.00990457,127.788019,"Y","Y"
743,"성곡종합시장","상설장","부산광역시 부산진구 새싹로 207-6","부산광역시 부산진구 초읍동271-6","매일",35.17476161,129.0480782,"Y","N"
744,"성남남한산성시장","상설장","경기도 성남시 중원구 산성대로518번길 7","경기도 성남시 중원구 은행동 1565 1","매일",37.45695509,127.1644337,"N","N"
745,"성남중앙시장","상설장","경기도 성남시 수정구 수정로 109","경기도 성남시 수정구 태평동 3681","매일",37.44139765,127.132117,"Y","N"
746,"성남프라자","상설장","울산광역시 중구 중앙3길 6","울산광역시 중구 성남동 190-239 성남프라자","매일",35.55451635,129.3175499507,"Y","Y"
747,"성남프라자","상설장","울산광역시 중구 중앙3길6(성남동)","울산광역시 중구 성남동 190-239","매일",35.5545103,129.3175359,"Y","Y"
748,"성내전통시장","상설장","서울특별시 강동구 천호대로162길 61","서울특별시 강동구 성내동 144-12","매일",37.53416804,127.1278893,"N","Y"
749,"성당시장","상설장","대구광역시 남구 성당로 196","대구광역시 남구 대명동 3023-23","매일",35.85016855,128.5729695,"Y","Y"
750,"성대전통시장","상설장","서울특별시 동작구 국사봉1길 41","서울특별시 동작구 상도동 324-68","매일",37.49921775,126.9308567,"Y","Y"
751,"성대종합시장","상설장","서울특별시 동작구상도로102","서울특별시 동작구 상도동 324-1 성대시장","매일",37.4999427,126.9317763,"Y","Y"
752,"성북시장","상설장","부산광역시 동구 성북로 56","부산광역시 동구 범일4동 1430-53","매일",35.13873344,129.0487528,"Y","Y"
753,"성서용산시장","상설장","대구광역시 달서구 성지로 66-1","대구광역시 달서구 용산동 421-1","매일",35.85513785,128.5213741,"N","Y"
754,"성서중심시장","상설장","충청북도 충주시 성서8길 21","충청북도 충주시 성서동 178","매일",36.97133715,127.9323954,"Y","Y"
755,"성원3차종합상가","상설장","경상남도 창원시 성산구 대암로80","경상남도 창원시 성산구 대방동 355","매일",35.21499999,128.7052999,"Y","Y"
756,"성원그랜드쇼핑","상설장","경상남도 창원시 성산구 동산로 124","경상남도 창원시 성산구 상남동 45-1","매일",35.21937354,128.6915928,"Y","Y"
757,"성정시장","상설장","충청남도 천안시 서북구 양지21길 31","충청남도 천안시 서북구 성정동 736-7 양지21길 31","매일",36.81266572,127.1392116,"Y","Y"
758,"성주시장","상설장","경상북도 성주군 성주읍 시장길 43-1","경상북도 성주군 성주읍 경산리 718, 718-357, 718-358","매일",35.91502532,128.285479,"Y","Y"
759,"성주전통시장","5일장","경상북도 성주군 성주읍 시장길43","경상북도 성주군 성주읍 경산리 718-63","2일+7일",35.91446617,128.2851061,"Y","Y"
760,"성환이화시장","상설장+5일장","충청남도 천안시 서북구 성환읍 성환중앙로 50","충청남도 천안시 서북구 성환읍 성환리 449-1111","매일+6일",36.91810627,127.1309131,"Y","Y"
761,"세아프라자상가 전통시장","상설장","경기도 동두천시 큰시장로 64","경기도 동두천시 큰시장로 64","매일",37.9007191,127.0505963,"Y","Y"
762,"세종대평시장","5일장","세종특별자치시 금남면 대평시장1길 17-2","세종특별자치시 금남면 용포리 205-42","2일+7일",36.46726733,127.2820588,"Y","Y"
763,"세종전통시장","5일장","세종특별자치시 조치원읍 조치원8길 42","세종특별자치시 조치원읍 정리 19-1","4일+9일",36.59978935,127.3006116,"Y","Y"
764,"세지5일시장","5일장","x","전라남도 나주시 세지면 오봉리 246-3","2일+7일",34.92020003,126.7475101,"Y","N"
765,"세화오일시장","5일장","제주특별자치도 제주시 구좌읍 해맞이해안로 1412","제주특별자치도 제주시 구좌읍 세화리 1500-5","5일+10일",33.52618605,126.857297,"Y","Y"
766,"세흥시장","상설장","부산광역시 수영구 남천바다로 16","부산광역시 수영구 남천동 26-5","매일",35.14940673,129.1123157,"Y","N"
767,"소계시장","상설장","경상남도 창원시 의창구 소계로 83-6","경상남도 창원시 의창구 소계동83-6","매일",35.25675876,128.5989657,"Y","N"
768,"소계옛길시장","상설장","경상남도 창원시 의창구 소계로 99-4","경상남도 창원시 의창구 소계동 723-15","매일",35.25791345,128.5982669,"Y","N"
769,"소답시장","5일장","경상남도 창원시 의창구 의안로49번길 31-7","경상남도 창원시 의창구 북동 246 6","2일+7일",35.2657462,128.6207603,"Y","Y"
770,"소래포구전통어시장","상설장","인천광역시 남동구 장도로 86-17","인천광역시 남동구 논현동 111-168","매일",37.39819474,126.739394,"Y","Y"
771,"소사종합시장","상설장","경기도 부천시 호현로474번길 13-2","경기도 부천시 소사본동 78-12","매일",37.47966315,126.7939541,"Y","Y"
772,"속초종합중앙시장","상설장","강원도 속초시 중앙로147번길 16 (중앙동)","강원도 속초시 중앙동 471-4","매일",38.20452183,128.5901534,"Y","Y"
773,"속초중앙전통시장","상설장","강원도 속초시 수복로 191 (금호동)","강원도 속초시 금호동 488-408","매일",38.20475131,128.5873483,"Y","Y"
774,"속초중앙전통시장","상설장","강원특별자치도 속초시 중앙시장로 6길 4","강원특별자치도 속초시 중앙동 493-51","매일",38.20540373,128.5893551,"Y","Y"
775,"송강전통시장","상설장","대전광역시 유성구 구즉로 74-7","대전광역시 유성구 송강동 49-10","매일",36.43519975,127.3866081,"Y","Y"
776,"송경시장","상설장","대구광역시 달서구 앞산순환로49길 73","대구광역시 달서구 송현1동 1941-3","매일",35.82709695,128.5516336,"Y","N"
777,"송남시장","상설장","부산광역시 서구 충무대로 34 암남동","부산광역시 서구 암남동 346-2","매일",35.0785099973,129.0168309,"Y","Y"
778,"송라시장","상설장","대구광역시 동구 동부로5길 10","대구광역시 동구 신천동 537-13","매일",35.87448539,128.6153112,"Y","Y"
779,"송림공구상가","상설장","인천광역시 동구 봉수대로 98","인천광역시 동구 송림동 296","매일",37.4835908,126.6622109,"Y","Y"
780,"송백시장","5일장","경상남도 밀양시 산내면 산내로 346-1","경상남도 밀양시 산내면 송백리 1319-13","5일+10일",35.58629962,128.8817019,"Y","Y"
781,"송정5일시장","5일장","광주광역시 광산구 광산로30번길 65","광주광역시 광산구 송정동 884-1","3일+8일",35.13707956,126.7969059,"Y","Y"
1107,"원통시장","5일장","강원특별자치도 인제군 북면 원통로 178번길 7-1","강원특별자치도 인제군 북면 원통리 647-40","2일+7일",38.12258112,128.2046174,"Y","Y"
1108,"원평시장","5일장","전라북도 김제시 금산면 원평6길 39-10","전라북도 김제시 금산면 원평리 91번지","4일+9일",35.71406357,126.9947325,"Y","Y"
1109,"월곡시장","상설장","광주광역시 광산구 월곡 사암로 300","광주광역시 광산구 월곡동 687-3","매일",35.17129717,126.8096478,"Y","Y"
1110,"월드밸리","상설장","부산광역시 중구 대청로 60","부산광역시 중구 부평동2가 2","매일",35.10280429,129.0263584,"Y","Y"
1111,"월드프라자 전통시장","상설장","경기도 안산시 상록구 본삼로 60","경기도 안산시 상록구 본오동 872","매일",37.30055499,126.8664493,"Y","Y"
1112,"월배시장","상설장","대구광역시 달서구 월배로24길 13","대구광역시 달서구 진천동 241-3","매일",35.81407427,128.5273978,"Y","Y"
1113,"월봉시장","상설장","울산광역시 동구 화정6길 16(화정동)","울산광역시 동구 화정동 640-18","매일",35.4949852,129.4248536,"Y","Y"
1114,"월봉시장","상설장","울산광역시 동구 진성14길 94 전하동","울산광역시 동구 화정동 647-2","매일",35.49479387,129.4240557,"Y","N"
1115,"월성청구시장","상설장","대구광역시 달서구 학산로 17","x","매일",35.82753061,128.5311036,"Y","Y"
1116,"월야시장","5일장","전라남도 함평군 월야면 밀재로 1504-5","전라남도 함평군 월야면 월야리 713-43","5일+10일",35.17926967,126.6267791,"Y","Y"
1117,"월영대시장","상설장","경상남도 창원시 마산합포구 월영남1길 13","경상남도 창원시 마산합포구 해운동14-15","매일",35.17927496,128.5577604,"Y","N"
1118,"웰컴시티","상설장","x","울산광역시 중구 성남동 219-119","매일",35.55328453,129.3197923,"Y","Y"
1119,"유)문경시 중앙시장","상설장","경상북도 문경시 중앙로 87","경상북도 문경시 점촌동 197-14","매일",36.59353645,128.1973425,"Y","Y"
1120,"유구전통시장","5일장","충청남도 공주시 유구읍 시장길 28","충청남도 공주시 유구읍 석남리 276-5","3일+8일",36.55270237,126.9518559,"Y","Y"
1121,"유신종합상가","상설장","경상남도 창원시 성산구 신촌로 21","경상남도 창원시 성산구 신촌동 15-6","매일",35.20756147,128.6267807,"Y","Y"
1122,"유진상가","상설장","서울특별시 서대문구 홍은동 통일로 484","서울특별시 서대문구 홍은동 48-84","매일",37.5916068,126.9429418,"Y","Y"
1123,"유천전통시장","상설장","대전광역시 중구 문화로 105번길 113","대전광역시 중구 유천동 303-10","매일",36.31721058,127.3954896,"Y","Y"
1124,"육거리종합시장","5일장","충청북도 청주시 상당구 청남로2197번길 42","충청북도 청주시 상당구 석교동 60-4","2일+7일",36.62793779,127.4881837,"Y","Y"
1125,"은척시장","5일장","경상북도 상주시 은척면 봉중1길 16-1","경상북도 상주시 은척면 봉중리383-2","4일+9일",36.53266774,128.0729549,"Y","Y"
1126,"은행나무시장","상설장","서울특별시 금천구 금하로 25길 9 지하1층","서울특별시 금천구 시흥동 828-45","매일",37.45131824,126.9093491,"N","Y"
1127,"은행시장","상설장","경기도 성남시 중원구 산성대로 526","경기도 성남시 중원구 은행2동 1553","매일",37.45758554,127.1644853,"Y","Y"
1128,"음성무극시장","5일장","충청북도 음성군 금왕읍 무극로 308번길 12- 12","충청북도 음성군 금왕읍 무극리 77-17","5일+10일",36.99267767,127.5960038,"Y","Y"
1129,"음성시장","5일장","충청북도 음성군 음성읍 문화1길 14","충청북도 음성군 음성읍 읍내리 249-11","2일+7일",36.93816594,127.6921265,"Y","Y"
1130,"의령시장","5일장","경상남도 의령군 의령읍 의병로18길 13","경상남도 의령군 의령읍 중동리 386-7","3일+8일",35.31851733,128.2606589,"Y","Y"
1131,"의성","5일장","경상북도 의성군 의성읍 전통시장2길 11-9","경상북도 의성군 의성읍 도동리 966","2일+7일",36.346247,128.6991566,"Y","Y"
1132,"의성공설재래시장","5일장","경상북도 의성군 의성읍 전통시장 1길 12-8","경상북도 의성군 의성읍 도동리 758-4","2일+7일",36.34511297,128.6998499,"Y","Y"
1133,"의성영매시장","상설장","경상북도 의성군 의성읍 염매시장길 5","경상북도 의성군 의성읍 후죽리 688","매일",36.35023478,128.6956093,"Y","Y"
1134,"의정부 청과야채시장","상설장","경기도 의정부시 시민로 157번길","경기도 의정부시 의정부동 30-8","매일",37.73855004,127.0527082,"Y","Y"
1135,"의정부시장","상설장","경기도 의정부시 시민로143번길 40","경기도 의정부시 의정부1동 148-5","매일",37.73945051,127.0511829,"Y","Y"
1136,"의정부제일시장","상설장","경기도 의정부시 태평로 73번길 20","경기도 의정부시 의정부동 160","매일",37.74012663,127.0500679,"Y","Y"
1137,"의흥시장","5일장","대구광역시 군위군 의흥면 읍내5길 7","대구광역시 군위군 의흥면 읍내리 594-1","5일+10일",36.17425304,128.716305,"Y","Y"
1138,"이동공설시장","5일장","경상남도 남해군 이동면 무림로 63번길 9","경상남도 남해군 이동면 무림리","5일+10일",34.80114029,127.9538265,"Y","Y"
1139,"이방정기시장","5일장","경상남도 창녕군 이방면 이방대학로35-1","경상남도 창녕군 이방면 거남리 43-5","4일+9일",35.60141193,128.3828417,"Y","Y"
1140,"이서공설시장","5일장","경상북도 청도군 이서면 학산1길51","경상북도 청도군 이서면 학산리 579-2","3일+8일",35.66270714,128.666433,"Y","Y"
1141,"이촌시장","상설장","서울특별시 용산구 이촌로75길 16-9","서울특별시 용산구 이촌동 301-53 이촌종합상가","매일",37.52073939,126.9747838,"Y","Y"
1142,"이태원시장","상설장","서울특별시 용산구 이태원로14길 6","서울특별시 용산구 이태원동 56-9 이태원시장","매일",37.53381836,126.9900484,"Y","N"
1143,"이현시장","상설장","대구광역시 서구 문화로 33길24","대구광역시 서구 평리동 606-8","매일",35.87695054,128.5506362,"Y","N"
1144,"이현종합상가","상설장","경상남도 진주시 신안로 165","경상남도 진주시 이현동 21-3","매일",35.19199129,128.0661334,"Y","Y"
1145,"익산구시장","상설장","전라북도 익산시 인북로8길 22","전라북도 익산시 인화동1가 131-8","매일",35.93153044,126.9523413,"Y","Y"
1146,"익산금마시장","5일장","전라북도 익산시 금마면 고도길 58","전라북도 익산시 금마면 동고도리 701-2","2일+7일",35.99218304,127.0534253,"Y","Y"
1147,"익산남부시장","상설장","전라북도 익산시 평동로11길 12","전라북도 익산시 인화동2가 7","매일",35.93194533,126.9533793,"Y","Y"
1148,"익산장","5일장","전라북도 익산시 인북로 11길 27","전라북도 익산시 남중동 35-9","4일+9일",35.95122845,126.9566254,"Y","Y"
1149,"인동시장","상설장","대전광역시 동구 대전천동로 452","대전광역시 동구 인동 30-2","매일",36.32253186,127.4359134,"Y","Y"
1150,"인동시장","5일장","경상북도 구미시 인동중앙로5길 16-3","경상북도 구미시 황상동 307-7","2일+7일",36.10819769,128.4209296,"Y","Y"
1151,"인제시장","5일장","강원특별자치도 인제군 인제읍 인제로 178번길 14","강원특별자치도 인제군 인제읍 상동리 258-32번지","4일+9일",38.06709944,128.1710768,"Y","Y"
1152,"인천 강남시장","상설장","인천광역시 서구 강남로 14","인천광역시 서구 석남동 454-19","매일",37.51122131,126.6719954,"Y","Y"
1153,"인천 남부 종합시장","상설장","인천광역시 미추홀구 인하로 274-30","인천광역시 미추홀구 주안동 1315-19","매일",37.44737537,126.6783959,"Y","Y"
1154,"인천 석바위 시장","상설장","인천광역시 미추홀구 경인로 485번길 17-1","인천광역시 미추홀구 주안동 922-6","매일",37.46014695,126.6927355,"Y","Y"
1155,"인천 축산물 시장","상설장","인천광역시 서구 가좌로 96번길 35","인천광역시 서구 가좌동 480-19","매일",37.47899257,126.6884571,"Y","Y"
1156,"인천가좌시장","상설장","인천광역시 서구 장고개로337번길18의19","인천광역시 서구 가좌2동 30-48","매일",37.49413933,126.6833977,"Y","N"
1157,"인천모래내전통시장","상설장","인천광역시 남동구 호구포로810번길 42-8","인천광역시 남동구 구월동 1263-5","매일",37.45420055,126.7214912,"Y","Y"
1158,"인천산업용품유통센터","상설장","인천광역시 동구 방축로 83번길 23","인천광역시 동구 송림동 294","매일",37.48482772,126.654796,"Y","Y"
1159,"인천시장","상설장","서울특별시 관악구 남부순환로246나길 14","서울특별시 관악구 봉천동 1636-4","매일",37.47486164,126.9647704,"Y","Y"
1160,"인천종합어시장","상설장","인천광역시 중구 연안부두로 33번길 37","인천광역시 중구 항동7가 27-69","매일",37.45413649,126.6071645,"Y","Y"
1161,"일도전통시장","상설장+5일장","전라남도 무안군 시장길 11-22","전라남도 무안군 일로읍 월암리 111-9","매일+6일",34.84753508,126.4943346,"Y","Y"
1162,"일반성시장","5일장","경상남도 진주시 동부로1993번길 27","경상남도 진주시 일반성면 창촌리 92","3일+8일",35.17122439,128.2822068,"Y","Y"
1163,"일산전통시장","상설장","경기도 고양시 일산서구 일청로 12번길 9","경기도 고양시 일산서구 일산동 617-20","매일",37.68562256,126.7708264,"Y","Y"
1164,"일신시장","상설장","인천광역시 부평구 경인로 1118번길 14-7","인천광역시 부평구 경인로 일신동 107","매일",37.48472019,126.7432795,"Y","Y"
1165,"일죽시장상인회","상설장","경기도 안성시 일죽면 금일로 467 일원","경기도 안성시 일죽면 송천리 15-18","매일",37.09336891,127.4784223,"Y","Y"
1166,"임계사통팔달시장","5일장","강원특별자치도 정선군 송계3길 12","강원특별자치도 정선군 송계리 774-5","5일+10일",37.49511413,128.8525744,"Y","Y"
1167,"임실시장","상설장+5일장","전라북도 임실군 임실읍 운수로 26","전라북도 임실군 임실읍 이도리 233-1","매일+6일",35.61445105,127.2827109,"Y","Y"
1168,"자갈치시장","상설장","부산광역시 중구 자갈치해안로 52번길","부산광역시 중구 남포동4가 37-1","매일",35.09661378,129.0305837,"Y","Y"
1169,"자양전통시장","상설장","서울특별시 광진구 뚝섬로47길 45-2","서울특별시 광진구 자양동 613-11 일원","매일",37.53438238,127.0791889,"Y","Y"
1170,"자유도매시장","상설장","대전광역시 동구 중앙로 200번길 40","대전광역시 동구 원동 64-1","매일",36.32923674,127.4320061,"Y","Y"
1171,"자유상가","상설장","서울특별시 중구 남대문로 36 회현동1가","서울특별시 중구 회현동1가 202-1","매일",37.56095855,126.9797671,"Y","N"
1172,"자인공설시장","5일장","경상북도 경산시 자인면 자인로 206-4","경상북도 경산시 자인면 서부리 254","3일+8일",35.81647867,128.8229713,"Y","Y"
1173,"작전전통시장","상설장","인천광역시 계양구 봉오대로677번길 20","인천광역시 계양구 작전2동 862의1","매일",37.53248718,126.724325,"Y","Y"
1174,"장계시장","5일장","전라북도 장수군 장계면 시장천변길 36","전라북도 장수군 장계면 장계리 464-1","3일+8일",35.72943841,127.5822721,"Y","Y"
1175,"장량성도시장","상설장","경상북도 포항시 북구 용두산길 54","경상북도 포항시 북구 두호동 1079","매일",36.06828032,129.3813722,"Y","N"
1176,"장림골목시장","상설장","부산광역시 사하구 장림시장 5길 95","부산광역시 사하구 장림동 641-268","매일",35.08046852,128.9676774,"N","Y"
1177,"장림시장","상설장","부산광역시 사하구 장림번영로 22","부산광역시 사하구 장림동 792-7","매일",35.08093227,128.9677386,"Y","Y"
1178,"장미원 골목시장","상설장","서울특별시 강북구 삼양로 464","서울특별시 강북구 수유동 316-11","매일",37.64463283,127.0160158,"Y","N"
1179,"장미제일시장","상설장","서울특별시 중랑구 동일로143길 36","서울특별시 중랑구 중화동 309-1","매일",37.60519028,127.0765356,"Y","N"
1180,"장성시장","상설장","부산광역시 금정구 수림로61번길 53","부산광역시 금정구 장전동155-17","매일",35.23744168,129.0855567,"Y","N"
1181,"장수시장","5일장","전라북도 장수군 장수읍 시장로 11","전라북도 장수군 장수읍 장수리 460-2","5일+10일",35.64910245,127.5174723,"Y","Y"
1182,"장승백이전통시장","상설장","인천광역시 남동구 인주대로888번길 35","인천광역시 남동구 만수동 1082-1","매일",37.44656416,126.7352271,"Y","Y"
1183,"장안문거북시장","상설장","경기도 수원시 장안구 수성로382번길 24 영화동","경기도 수원시 장안구 영화동 250-1","매일",37.29314857,127.0139656,"Y","Y"
1184,"장위전통시장","상설장","서울특별시 성북구 장위로 36길 46-1","서울특별시 성북구 장위동 68-225","매일",37.61208772,127.0508053,"Y","Y"
1185,"장유전통시장","5일장","경상남도 김해시 장유로 287-22","경상남도 김해시 무계동 189-3","3일+8일",35.20056852,128.8148083,"Y","Y"
1186,"장전상가시장","상설장","부산광역시 금정구 부산대학로49번길 13","부산광역시 금정구 장전동421-7","매일",35.23084994,129.086107,"Y","N"
1187,"장평시장","상설장+5일장","전라남도 장흥군 장평면 장택길 7","전라남도 장흥군 장평면 양촌리 224","매일+6일",34.77547305,126.977761,"Y","Y"
1188,"장평종합시장","상설장","경상남도 거제시장평로37","경상남도 장평동 56-1","매일",34.89086168,128.6131049,"Y","Y"
1189,"장항전통시장","5일장","충청남도 서천군 장항읍 성화로 104","충청남도 서천군 장항읍 신창리 110","3일+8일",36.01556066,126.6945719,"Y","Y"
1190,"장호원시장번영회","5일장","경기도 이천시 장호원읍 장감로77번길 14","경기도 이천시 장호원읍 오남리 3-1","4일+9일",37.11808847,127.6312509,"Y","Y"
1191,"재송시장","상설장","부산광역시 해운대구 재송1로60번길 16 서해재송아파트","부산광역시 해운대구 재송1동 1080-5","매일",35.18658572,129.1236759,"Y","Y"
1192,"재송한마음시장","상설장","부산광역시 해운대구 재반로 81-20","부산광역시 해운대구 재송동 1089-18","매일",35.18607539,129.1246062,"Y","Y"
1193,"적성전통시장","상설장","경기도 파주시 적성면 칠중2길 19","경기도 파주시 적성면 구읍리 649-14","매일",37.9554549,126.918612,"N","N"
1194,"적성전통시장","5일장","경기도 파주시 적성면 청송로 1023","경기도 파주시 적성면 마지리 46-8","5일+10일",37.9546091,126.9186694,"Y","Y"
1195,"전곡재래시장","상설장","경기도 연천군 전곡읍 전곡로172번길 4-15","경기도 연천군 전곡읍 전곡리 479-30","매일",38.02715987,127.068161,"Y","Y"
1196,"전기재료관","상설장","대구광역시 북구 유흥단지로 38 산격동","대구광역시 북구 산격동 1665","매일",35.9050606,128.6077132,"Y","Y"
1197,"전기조명관","상설장","대구광역시 북구 유통단지로50","대구광역시 북구 산격2동 1666","매일",35.90569603,128.6082752,"Y","Y"
1198,"전남 여수시(주)서시장","상설장","전라남도 여수시 좌수영로 16-6","전라남도 여수시 서교동 280","매일",34.74179248,127.7286157,"Y","Y"
1199,"전남고흥전통시장","5일장","전라남도 고흥군 고흥읍 시장길 1","전라남도 고흥군 고흥읍 남계리 628","4일+9일",34.60835694,127.2866005,"Y","Y"
1200,"전의왕의물시장","5일장","세종특별자치시 전의면 장터길33","세종특별자치시 전의면 읍내리 236-2 전의시장고객편의시설","2일+7일",36.67774034,127.2058789,"Y","Y"
1201,"전자상가","상설장","대구광역시 북구 유통단지로25","대구광역시 북구 산격동 1626","매일",35.90545705,128.604982,"Y","Y"
1202,"전주 남부시장","상설장","전라북도 전주시 완산구 풍남문1길 19-3","전라북도 전주시 완산구 전동 295-4","매일",35.81278642,127.1475371,"Y","Y"
1203,"전주모래내시장","상설장","전라북도 전주시 덕진구 모래내4길 8-8","전라북도 전주시 덕진구 인후동2가 203-10","매일",35.83356733,127.1438722,"Y","Y"
1204,"전주신중앙시장","상설장","전라북도 전주시 완산구 태평5길 33","전라북도 전주시 완산구 태평동 43","매일",35.82412315,127.1434822,"Y","Y"
1205,"전주중앙상가","상설장","전라북도 전주시 완산구 태평3길 70","전라북도 전주시 완산구 태평동 36-1","매일",35.82522552,127.1424578,"Y","Y"
1206,"전통로타리시장","상설장","서울특별시 동대문구 전농로 15길 7","서울특별시 동대문구 전농동 295-52","매일",37.57814435,127.0570279,"Y","N"
1207,"전통중앙도매상가","상설장","대전광역시 동구 대전로 785","대전광역시 동구 원동 20-49","매일",36.32982636,127.4337041,"Y","Y"
1208,"전포놀이터시장","상설장","부산광역시 부산진구 전포대로 256번길 109","부산광역시 부산진구 전포동197-6","매일",35.15899025,129.0670092,"Y","N"
1209,"전하시장","상설장","울산광역시 동구 녹수7길 32(전하동)","울산광역시 동구 전하동 450-32","매일",35.5137806,129.430723,"Y","Y"
1210,"점촌전통시장","5일장","경상북도 문경시 신흥시장길 19","경상북도 문경시 흥덕동 794-1","3일+8일",36.60138925,128.2041632,"Y","Y"
1211,"정남진 장흥토요장터","5일장","전라남도 장흥군 장흥읍 토요시장1길 53","전라남도 장흥군 장흥읍 예양리 158-2","2일+7일",34.67727214,126.9031396,"Y","Y"
1212,"정릉시장","상설장","서울특별시 성북구 보국문로11길 18","서울특별시 성북구 정릉동 400-8","매일",37.60847133,127.0096809,"Y","Y"
1213,"정릉아리랑시장","상설장","서울특별시 성북구 정릉로26가길 36","서울특별시 성북구 정릉동 443-1","매일",37.60276767,127.0110392,"N","N"
1214,"정서진 중앙시장","상설장","인천광역시 서구 원창로239번길 11","인천광역시 서구 가정동 505","매일",37.51857192,126.675938,"Y","Y"
1215,"정선사북시장","상설장","강원특별자치도 정선군 사북읍 사북2길 6 - 1","강원특별자치도 정선군 사북읍 사북리 366-59","매일",37.22736185,128.8162173,"Y","Y"
1216,"정선아리랑시장","5일장","강원특별자치도 정선군 정선읍 봉양7길 39","강원특별자치도 정선군 정선읍 봉양리 349-20","2일+7일",37.38039035,128.6652264,"Y","Y"
1217,"정왕전통시장","상설장","경기도 시흥시 정왕시장길 51 52","경기도 시흥시 정왕동 1202 1203","매일",37.34580604,126.748569,"Y","Y"
1218,"정우새어시장","상설장","경상남도 창원시 마산합포구 어시장7길126","경상남도 창원시 마산합포구 동성동 313","매일",35.20410405,128.5787114,"Y","Y"
1219,"정원시장","상설장","대전광역시 동구 중앙로 194번길 33","대전광역시 동구 원동 64-1","매일",36.32910635,127.4316555,"Y","Y"
1220,"정읍 샘고을시장","상설장","전라북도 정읍시 태평6길 25","전라북도 정읍시 시기동 280-4","매일",35.56288819,126.8551058,"Y","Y"
1221,"정읍연지시장","상설장","전라북도 정읍시 연지시장 3길 50-9외","전라북도 정읍시 연지동 44","매일",35.57332019,126.8459561,"Y","Y"
1222,"정이있는 구포시장","5일장","부산광역시 북구 구포시장2길 8","부산광역시 북구 구포1동 599-15","3일+8일",35.20835511,129.0038538,"Y","Y"
1223,"정자시장","상설장","경기도 수원시 장안구 수성로261번길 16 정자동","경기도 수원시 장안구 정자동 73-10","매일",37.29069027,127.0008813,"Y","Y"
1224,"제일시장","상설장","전라남도 여수시 학동2길 7-4","전라남도 여수시 학동 35-2","매일",34.76419709,127.6646523,"Y","Y"
1225,"제일시장","상설장","서울특별시 은평구 통일로 731 대조동","서울특별시 은평구 대조동 14-1","매일",37.61062266,126.9294663,"Y","N"
1226,"제일시장","상설장","전라남도 여수시 학동2길 7-4","전라남도 여수시 학동 35-2","매일",34.76419709,127.6646523,"Y","Y"
1227,"제일종합시장","상설장","강원특별자치도 춘천시 약사고개길13","강원특별자치도 춘천시 죽림동 32","매일",37.87748142,127.7260807,"Y","Y"
1228,"제일평화시장","상설장","서울특별시 중구 마장로 13 신당동","서울특별시 중구 신당동 775 제일평화시장","매일",37.56851432,127.0114021,"Y","Y"
1229,"제주도남시장","상설장","제주특별자치도 제주시 신성로7길 13","x","매일",33.49681229,126.5284042,"Y","Y"
1230,"제주동문수산시장","상설장","제주특별자치도 제주시 오현길 81","제주특별자치도 제주시 이도1동 1348-1","매일",33.51206638,126.5249028,"Y","Y"
1231,"제주민속오일시장","5일장","제주특별자치도 제주시 오일장서길 26","제주특별자치도 제주시 도두1동 1212","2일+7일",33.49724701,126.4748884,"Y","Y"
1232,"제주시동문공설시장상인회","상설장","제주특별자치도 제주시 동문로 4길9","제주특별자치도 제주시 일도1동 1103","매일",33.51208743,126.5282423,"Y","Y"
1233,"제주칠성로상점가진흥사업협동조합","상설장","제주특별자치도 제주시 관덕로 13길 12","제주특별자치도 제주시 일도1동 1476-20","매일",33.51402567,126.5261153,"Y","Y"
1234,"제천고추시장","상설장","충청북도 제천시 바이오밸리로 212","충청북도 제천시 신월동 1138-1번지 일원","매일",37.15643437,128.1750459,"Y","Y"
1235,"제천약초시장","상설장","충청북도 제천시 원화산로 121","충청북도 제천시 화산동 987","매일",37.12788906,128.2195912,"Y","Y"
1236,"제천역전한마음시장","5일장","충청북도 제천시 내토로 28길 12","충청북도 제천시 화산동 207-3","3일+8일",37.12898225,128.2064464,"Y","Y"
1237,"제천중앙시장","상설장","충청북도 제천시 풍양로 108","충청북도 제천시 중앙로1가 77","매일",37.13662753,128.2112999967,"Y","Y"
1238,"조공시장","상설장","경기도 부천시 소사구 범안로8번길 11","경기도 부천시 괴안동 40","매일",37.48040752,126.8052447,"N","N"
1239,"조성5일시장","5일장","전라남도 보성군 조성면 조성로 90-6","전라남도 보성군 조성면 조성리 513-1","3일+8일",34.80647859,127.2452772,"Y","Y"
1240,"조암시장","5일장","경기도 화성시 우정읍 조암남로 8","경기도 화성시 우정읍 조암리 311-3","4일+9일",37.082198,126.8170415,"Y","Y"
1241,"조암시장","상설장","화성시 우정읍 조암남로 28 일원","화성시 우정읍 조암리 270-7 일원","상설 및 4,9일장",37.08350022,126.818451,"N","Y"
1242,"조양시장","상설장","서울특별시 광진구 아차산로 30길 39","서울특별시 광진구 자양동 6-20","매일",37.53899664,127.0674893,"Y","N"
1243,"조원동 펭귄시장","상설장","서울특별시 관악구 조원로16길 27","서울특별시 관악구 신림동 541의 6","매일",37.48314523,126.9114212,"N","N"
1244,"조원시장","상설장","경기도 수원시 장안구 조원로89번길 8 조원동","경기도 수원시 장안구 조원동 743-7","매일",37.30078361,127.0153385,"Y","N"
1245,"종로신진시장","상설장","서울특별시 종로구 종로38길 16","서울특별시 종로구 종로5가 225-21","매일",37.57022828,127.0049462,"Y","N"
1246,"종합제일시장","상설장","경상북도 구미시 구미중앙로9길 7","경상북도 구미시 원평동 118-31","매일",36.13031606,128.3296485,"Y","Y"
1247,"좌동재래시장","상설장","부산광역시 해운대구 좌동로91번길 20","부산광역시 해운대구 좌동 892","매일",35.17306907,129.1744556,"Y","Y"
1248,"좌일5일시장","5일장","전라남도 해남군 북일면 만월길 26-1","전라남도 해남군 북일면 흥촌리 161","3일+8일",34.46385474,126.6725687,"Y","Y"
1249,"주)고령대가야시장","5일장","경상북도 고령군 대가야읍 시장3길29","경상북도 고령군 대가야읍 지산리 222-2","4일+9일",35.72730911,128.2666727,"Y","Y"
1250,"주례럭키종합상가","상설장","부산광역시 사상구 가야대로 284번길 12","부산광역시 사상구 주례동 595-4","매일",35.14875176,129.0029199663,"Y","Y"
1251,"주례현대무지개상가","상설장","부산광역시 사상구 주례로 93","부산광역시 사상구 주례동 530-5","매일",35.14496383,129.0049861,"Y","Y"
1252,"주문진건어물시장","상설장","강원특별자치도 강릉시 주문진읍 해안로1748","강원특별자치도 강릉시 주문리 312-708","매일",37.89114216,128.8287525,"Y","Y"
1253,"주문진수산시장","상설장","강원특별자치도 강릉시 주문진읍 시장2길 4","강원특별자치도 강릉시 주문진읍 주문리 312-439","매일",37.89097196,128.8280066,"Y","Y"
1254,"주문진종합시장","상설장","강원특별자치도 강릉시 주문진읍 구시장길 11-3","강원특별자치도 강릉시 주문진읍 주문리 321-14","매일",37.89143538,128.8269078,"Y","Y"
1255,"주문진좌판풍물시장","상설장","강원특별자치도 강릉시 주문진읍 해안로 1758-10","강원특별자치도 강릉시 주문진읍 주문리 312-713","매일",37.89172179,128.8293126,"Y","N"
1256,"주암시장","5일장","전라남도 순천시 주암호길 9","전라남도 순천시 주암면 광천 54-1","3일+8일",35.07574055,127.2352628,"Y","Y"
1257,"죽도시장","상설장","경상북도 포항시 북구 죽도시장13길 13","경상북도 포항시 북구 죽도동 2번지일대","매일",36.03641906,129.3681415,"Y","Y"
1258,"죽변시장","5일장","경상북도 울진군 죽변면 죽변중앙로 168-14","경상북도 울진군 죽변면 죽변리 36-8","3일+8일",37.05896818,129.4222539,"Y","Y"
1259,"죽산시장","5일장","경기도 안성시 죽산면 중서길 8-9","경기도 안성시 죽산면 죽산리 439-3","5일+10일",37.07598807,127.4233891,"Y","Y"
1260,"죽전로데오상점가","상설장","경기도 용인시 수지구 용구대로 2725의1","경기도 용인시 수지구 전동 1003-53","매일",37.32876707,127.1080591,"Y","Y"
1261,"죽전로데오상점가시장","상설","경기도 용인시 수지구 용구대로 2725-3","경기도 용인시 수지구 죽전동 1003-52번지 일원","매일",37.328761,127.108104,"Y","Y"
1262,"중곡제일시장","상설장","서울특별시 광진구 긴고랑로11길 14","서울특별시 광진구 중곡동 221-6번지","매일",37.56388274,127.0817652,"Y","Y"
1263,"중곡제일시장","상설장","서울특별시 광진구 긴고랑로11길 11","서울특별시 광진구 중곡동 229-5","매일",37.56390828,127.0813014,"Y","N"
1264,"중동사랑시장","상설장","경기도 부천시 부흥로200번길 25","경기도 부천시 중동 724","매일",37.49497529,126.7645791,"Y","Y"
1265,"중랑교쇼핑","상설장","서울특별시 중랑구 망우로 32길 23","서울특별시 중랑구 상봉동 129-9 중랑교쇼핑센터","매일",37.59294806,127.0771147,"Y","Y"
1266,"중랑동부시장","상설장","서울특별시 중랑구 동일로109길 31-5","서울특별시 중랑구 면목동 183-118","매일",37.59152277,127.0784934,"Y","Y"
1267,"중마시장","상설장","전라남도 광양시 중마중앙로 88","전라남도 광양시 중동 1732-3","매일",34.93820312,127.6988496,"Y","Y"
1268,"중문오일시장","5일장","x","제주특별자치도 서귀포시 중문동 2123-1","3일+8일",33.2505829,126.4239475,"Y","Y"
1269,"중부농수산물시장","상설장","경기도 안양시 만안구 안양로248번길23","경기도 안양시 만안구 안양동 622-337","매일",37.39590755,126.9256147,"Y","Y"
1270,"중부시장","상설장","서울특별시 중구 을지로36길 35 오장동 일대","서울특별시 중구 오장동 139-11 일대","매일",37.56506341,127.0019051,"Y","N"
1271,"중앙도매시장(대전)","상설장","대전광역시 동구 대전로 783","대전광역시 동구 원동 51-1","매일",36.32956033,127.4331847,"Y","Y"
1272,"중앙로상점가","상설장","제주특별자치도 제주시 이도일동 중앙로 91","제주특별자치도 제주시 이도일동 1460","매일",33.51010018,126.5239614,"Y","Y"
1273,"중앙먹통시장","상설장","전라남도 목포시 삼일로13번길 18-2","전라남도 목포시 남교동 88-29","매일",34.79404573,126.3817906,"Y","Y"
1274,"중앙메가프라자","상설장","대전광역시 동구 중앙로 200번길 99","대전광역시 동구 원동 42-1","매일",36.3267299,127.4339584,"Y","Y"
1275,"중앙상가시장","상설장","대전광역시 동구 대전로791번길 38","대전광역시 동구 중동 28-45","매일",36.32961517,127.4311264,"Y","Y"
1276,"중앙선어시장","상설장","전라남도 여수시 이순신광장로 103","전라남도 여수시 중앙동 385-11","매일",34.73913771,127.7370114,"N","Y"
1277,"중앙시민전통시장","상설장","강원특별자치도 원주시 자유시장길 26","강원특별자치도 원주시 중앙동 42-3","매일",37.35170226,127.9496432,"Y","Y"
1278,"중앙시장","상설장","전라남도 순천시 중앙시장길 18","전라남도 순천시 남내동 119-1","매일",34.95326231,127.4846025,"Y","Y"
1279,"중앙시장","상설장","전라북도 익산시 중앙로 3길 27","전라북도 익산시 창인동1가 137-1","매일",35.94206031,126.9497333,"Y","Y"
1280,"중앙시장","상설장","x","경상북도 김천시 모암동 157번지 일원","매일",36.11902237,128.1253808,"Y","Y"
1281,"중앙시장","5일장","경상북도 안동시 대안로98-15","경상북도 안동시 옥야동 285-1","2일+7일",36.56511672,128.724162,"Y","Y"
1282,"중앙시장","상설장","인천광역시 동구 중앙로 68","인천광역시 동구 송현동 100-12","매일",37.47535282,126.6333451,"N","Y"
1283,"중앙시장","상설장","충청북도 청주시 상당구 중앙로 18","충청북도 청주시 상당구 북문로2가 92-2","매일",36.63882722,127.4892145,"Y","N"
1284,"중앙시장","상설장","경기도 안양시 만안구 냉천로 196","경기도 안양시 만안구 안양4동 676-44","매일",37.39756839,126.9196682,"Y","Y"
1285,"중앙시장(창원중앙시장)","상설장","경상남도 창원시 성산구 외동반림로 126길50","경상남도 창원시 성산구 중앙동 8-10","매일",35.23017119,128.6719386,"Y","Y"
1286,"중앙전통시장","상설장","울산광역시 중구 중앙시장길 2(옥교동)","울산광역시 중구 옥교동 275-4","매일",35.5551774,129.3222936,"Y","Y"
1287,"중앙전통시장","상설장","울산광역시 중구 중앙시장 2길 옥교동","울산광역시 중구 옥교동 275-4","매일",35.55518282,129.3222936,"Y","Y"
1288,"중앙종합시장","상설장","대전광역시 동구 중교로 119 원동","대전광역시 동구 원동 65-7","매일",36.32859197,127.4322021,"Y","Y"
1289,"중평시장","상설장","대구광역시 서구 서대구로 17길16","대구광역시 서구 평리동 1437-5","매일",35.86537086,128.5539071,"Y","N"
1290,"증산종합시장","상설장","서울특별시 은평구 증산로3길 12 증산동","서울특별시 은평구 증산동 184-9","매일",37.58146885,126.9050616,"Y","Y"
1291,"증평장뜰재래시장","상설장+5일장","충청북도 증평군 증평읍 장뜰로 58-1","충청북도 증평군 중동리 97-1","매일+6일",36.78339213,127.5829505,"Y","Y"
923,"양동수산시장","상설장","광주광역시 서구 천변좌로 246번길 16","광주광역시 서구 양동 5-254","매일",35.15323541,126.9016600227,"Y","Y"
924,"양동시장","상설장","광주광역시 서구 천변좌로 238","광주광역시 서구 양동 5-101","매일",35.15390747,126.9025577,"Y","Y"
925,"양동쌍학시장","5일장","경기도 양평군 양동면 학둔지아래길 76 일원","경기도 양평군 양동면 쌍학리 227-3 일원","4일+9일",37.42017367,127.7531969,"Y","Y"
926,"양북시장","5일장","경상북도 경주시 양북면 감은로 53-8","경상북도 경주시 양북면 어일리 1295-556","5일+10일",35.79041058,129.4412152,"Y","Y"
927,"양산남부시장","상설장+5일장","경상남도 양산시 중앙로 133번지","경상남도 양산시 중부동 423-5","매일+6일",35.3424443,129.0372371,"Y","Y"
928,"양산남부시장상가","상설장+5일장","경상남도 양산시 장터3길 7","경상남도 양산시 중부동 407-3","매일+6일",35.34338923,129.0370453,"Y","Y"
929,"양산북부시장","상설장","경상남도 양산시 중앙로 232","경상남도 양산시 북부동 148-19","매일",35.35044919,129.0411959,"Y","Y"
930,"양수리전통시장상인회","상설장+5일장","경기도 양평군 양서면 양수로 150번길 3-15 일원","경기도 양평군 양서면 양수리 1060 일원","매일+6일",37.54507333,127.3197948,"Y","Y"
931,"양양전통시장","5일장","강원특별자치도 양양군 양양읍 남문5길 9","강원특별자치도 양양군 남문리 57","4일+9일",38.07506325,128.6232929,"Y","Y"
932,"양재시장(주)","상설장","서울특별시 서초구 남부순환로356길 15 양재동","서울특별시 서초구 양재동1-7","매일",37.48431085,127.037966,"Y","N"
933,"양정시장","상설장","부산광역시 부산진구 동평로420번길 18 양정상가아파트","부산광역시 부산진구 양정동 390","매일",35.17276467,129.0697618,"Y","Y"
934,"양정전통시장","상설장","부산광역시 부신진구 동평로 410","부산광역시 부신진구 양정동370","매일",35.17359419,129.069435,"N","N"
935,"양평물맑은시장상인회","5일장","경기도 양평군 양평읍 양평장터길 15 일원","경기도 양평군 양평읍 양근리 166-14","3일+8일",37.49093212,127.492562,"Y","Y"
936,"양학시장","상설장","경상북도 포항시북구 양학로 40","경상북도 포항시 북구 학잠동 83","매일",36.02726703,129.3497408,"Y","Y"
937,"언무안심시장","5일장","충청남도 논산시 연무읍 연무로 178번길 9","충청남도 논산시 연무읍 안심리 14-2","5일+10일",36.13006471,127.0982524,"Y","Y"
938,"언양공설시장","상설장+5일장","울산광역시 울주군 언양읍 남천로 20","울산광역시 울주군 언양읍 남부리 336-15","매일+5일",35.563015176,129.125384059,"Y","Y"
939,"언양공설시장","5일장","x","울산광역시 울주군 언양읍 남부리 336-20","2일+7일",35.56287266,129.125824,"Y","Y"
940,"언양알프스시장","5일장","울산광역시 울주군 언양읍 장터1길 12-1","울산광역시 울주군 언양읍 남부리 124-2 매일시장상가","2일+7일",35.5637023,129.1252897,"Y","N"
941,"언양종합상가시장","상설장","울산광역시 울주군 언양읍 장터1길 22","울산광역시 울주군 언양읍 남부리 124-2","매일+5일",35.563498283,129.125964762,"Y","Y"
942,"언양종합상가시장","상설장","울산광역시 울주군 언양읍 장터1길22","울산광역시 울주군 언양읍 남부리 124-2","매일",35.5637001,129.1256956,"Y","Y"
943,"엄정내창시장","5일장","충청북도 충주시 엄정면 내창로 191-1","충청북도 충주시 엄정면 미내리 159-15","3일+8일",37.08639566,127.9158811,"Y","Y"
944,"에덴골목시장","상설장","부산광역시 사하구 낙동대로535번길 33","부산광역시 사하구 하단2동 500-29","매일",35.11114755,128.9627212,"N","N"
945,"에덴시장","상설장","부산광역시 사하구 낙동대로535번길 28","부산광역시 사하구 하단2동 487-6","매일",35.1114836,128.9629713,"Y","Y"
946,"여수교동시장","상설장","전라남도 여수시 교동시장1길 15-10","전라남도 여수시 교동 606-1","매일",34.73912772,127.7301293,"Y","N"
947,"여수도깨비시장","상설장","전라남도 여수시 학동서5길 18","전라남도 여수시 학동 58-7","매일",34.7633188,127.6565389,"Y","Y"
948,"여수수산시장","상설장","전라남도 여수시 여객선터미널길 24","전라남도 여수시 교동 680","매일",34.73814206,127.7317636,"Y","Y"
949,"여수쌍봉시장","상설장","전라남도 여수시 학동2길 7","전라남도 여수시 학동 35-3번지","매일",34.76414801,127.6649751,"Y","Y"
950,"여수중앙선어시장","상설장","전라남도 여수시 선어시장길 13","전라남도 여수시 중앙동 366","매일",34.73945144,127.7368753,"Y","Y"
951,"여수진남상가","상설장","전라남도 여수시 충무오거리길 21-2","전라남도 여수시 교동 64","매일",34.74151572,127.733081,"N","N"
952,"여수진남시장","상설장","전라남도 여수시 학동1길 10","전라남도 여수시 학동 35-1","매일",34.76425614,127.6641226,"Y","Y"
953,"여수해안건어물상가시장","상설장","전라남도 여수시 교동남2길 14","전라남도 여수시 교동 481","매일",34.73953206,127.7345269,"Y","Y"
954,"여주한글시장","5일장","경기도 여주시 세종로14번길 24-1","경기도 여주시 하동 268-4","5일+10일",37.29755119,127.6342892,"Y","Y"
955,"역곡남부시장","상설장","경기도 부천시 부광로16번길 33","경기도 부천시 소사구 괴안동 107-8","매일",37.48252978,126.8115377,"Y","N"
956,"역곡상상시장","상설장","경기도 부천시 원미구 부일로749번길 31","경기도 부천시 원미구 역곡동 84-7","매일",37.48757761,126.8118941,"Y","Y"
957,"역전시장","상설장","전라남도 순천시 역전장길 9","전라남도 순천시 덕암동 227-1","매일",34.94374807,127.503331,"Y","Y"
958,"역전시장","상설장","울산광역시 중구 구역전길 14(학성동)","울산광역시 중구 학성동 436-20","매일",35.5561541,129.3284797,"Y","N"
959,"역전통합시장","상설장","경상남도 창운시 회원구 석전동15길 23","경상남도 창원시 회원구 석천2동 226-2","매일",35.2361472,128.5794639,"Y","Y"
960,"연동시장","상설장","부산광역시 연제구 연동로8번길 22","부산광역시 연제구 연산동312-18","매일",35.18884338,129.0925228,"Y","Y"
961,"연무시장","상설장","경기도 수원시 장안구 월드컵로428번길 10 연무동","경기도 수원시 장안구 연무동 249","매일",37.29396045,127.0259771,"Y","Y"
962,"연미새시장","상설장","부산광역시 연제구 배산로22번길3","부산광역시 연제구 연산동 2122-26","매일",35.17412578,129.0945796,"Y","N"
963,"연산전통시장","5일장","충청남도 논산시 연산면 연산4길 10-8","충청남도 논산시 연산면 연산리 394-1","5일+10일",36.21626966,127.2164929,"Y","Y"
964,"연서시장","상설장","서울특별시 은평구 연서로 247 불광동","서울특별시 은평구 불광동 310-4","매일",37.61969094,126.922172,"Y","Y"
965,"연수 송도 역전 시장","상설장","인천광역시 연수구 한나루로196번길 14","인천광역시 연수구 옥련동 308-18","매일",37.42645754,126.6576942,"Y","N"
966,"연수구 옥련시장","상설장","인천광역시 연수구 독배로 40번길 35","인천광역시 연수구 옥련동 462-32","매일",37.42462185,126.6468300199,"N","N"
967,"연수상가 상인회","상설장","충청북도 충주시 번영대로 125","충청북도 충주시 연수동 924","매일",36.98746589,127.9315821,"N","Y"
968,"연원시장","5일장","충청북도 충주시 금곡로 31","충청북도 충주시 연수동 547-6","4일+9일",36.98929051,127.9348029,"Y","Y"
969,"연일시장","상설장","부산광역시 연제구 고분로 24","부산광역시 연제구 연산동636-28","매일",35.18557217,129.0848775,"Y","N"
970,"연일전통시장","5일장","경상북도 포항시 남구 연일읍 연일로 159번길 46","경상북도 포항시 남구 연일읍 생지리 194-1","3일+8일",35.99635584,129.3486828,"Y","Y"
971,"연지시장","상설장","부산광역시 부산진구 연지로14","부산광역시 부산진구 연지동 190-40","매일",35.17090509,129.0513996,"N","N"
972,"연천시장","상설장","부산광역시 연제구 과정로276번길28","부산광역시 연제구 연산동 364-1","매일",35.18978408,129.0980891,"Y","Y"
973,"연풍전통시장","5일장","충청북도 괴산군 연풍면 향교로홍문길 5","충청북도 괴산군 연풍면 행촌리 611-1","2일+7일",36.76472436,127.9951069,"Y","Y"
974,"열우물 전통시장","상설장","인천광역시 부평구 배곶남로 21번길 18","인천광역시 부평구 십정동 321-6","매일",37.47340163,126.6955036,"Y","Y"
975,"염매","상설장","경상북도 의성군 의성읍 염매시장길 11","경상북도 의성군 의성읍 후죽리 628-10","매일",36.35027504,128.695902,"Y","Y"
976,"염매시장","상설장","대구광역시 중구 종로 11-9","대구광역시 중구 계산동2가 252","매일",35.86686804,128.5916802,"Y","N"
977,"염포시장","상설장","울산광역시 북구 새장터6길 4","울산광역시 북구 염포동 194-1","매일",35.53552572,129.390746,"Y","N"
978,"영광고추특화시장","상설장+5일장","전라남도 영광군 영광읍 신남로 100-25","전라남도 영광군 영광읍 신하리 324-3","매일+6일",35.27472849,126.4935459,"Y","Y"
979,"영광터미널시장","상설장","전라남도 영광군 영광읍 신남로3길 5-3","전라남도 영광군 영광읍 남천리 321-1","매일",35.27553643,126.5030195,"Y","Y"
980,"영남시장","상설장","경상북도 포항시 남구 동해면 일월로152","경상북도 포항시 남구 동해면 약전리 436-3","매일",35.98794164,129.4496146,"Y","Y"
981,"영남종합시장","상설장","부산광역시 연제구 중앙대로1031-1","부산광역시 연제구 연산동 1364-2","매일",35.18077479,129.0770184,"Y","Y"
982,"영덕시장","5일장","경상북도 영덕군 영덕읍 야성길 15","경상북도 영덕군 영덕읍 남석리 34-80","4일+9일",36.40753265,129.3673996,"Y","Y"
983,"영도봉래시장","상설장","부산광역시 영도구 태종로105번길 36","부산광역시 영도구 봉래동 3가 13-2","매일",35.09272088,129.0432815,"Y","Y"
984,"영동교 골목시장","상설장","서울특별시 광진구 동일로10길 47","서울특별시 광진구 자양4동 40-38","매일",37.53752561,127.0642052,"Y","Y"
985,"영동전통시장","상설장","서울특별시 강남구 강남대로 128길 20 영동프라자 2동 204호","서울특별시 강남구 논현동 140","매일",37.50999521,127.0238232,"Y","Y"
986,"영동전통시장","5일장","충청북도 영동군 영동읍 영산로1길 13-1","충청북도 영동군 영동읍 계산리 694-13","4일+9일",36.17490545,127.7761407,"Y","Y"
987,"영동중앙시장","5일장","충청북도 영동군 영동읍 중앙로 21","충청북도 영동군 영동읍 계산리 693-27","4일+9일",36.17466742,127.7756995,"Y","Y"
988,"영등포 유통상가","상설장","서울특별시 영등포구 영등포로 109 당산동2가","서울특별시 영등포구 당산동2가 30-2 영등포유통상가","매일",37.52241744,126.8939303,"Y","Y"
989,"영산시장","5일장","경상남도 창녕군 영산면 신영산로56","경상남도 창녕군 영산면 성내리 516-4","5일+10일",35.45704192,128.5325981,"Y","Y"
990,"영산포 풍물시장","5일장","전라남도 나주시 풍물시장2길 12-14","전라남도 나주시 이창동 765","5일+10일",34.99199963,126.7072673,"Y","Y"
991,"영선신시장","상설장","대구광역시 남구 중앙대로48길 36","대구광역시 남구 대명동 2014-204","매일",35.85230523,128.5929207,"Y","Y"
992,"영신상가","상설장","서울특별시 영등포구 영등포로 225 영등포동5가","서울특별시 영등포구 영등포동5가 18-1","매일",37.51992006,126.9066547,"Y","N"
993,"영암 독천5일시장","5일장","전라남도 영암군 미암면 독천1길 19","전라남도 영암군 학산면 독천리 1237-2","4일+9일",34.72458908,126.567118,"Y","Y"
994,"영암읍 5일시장","5일장","전라남도 영암군 영암읍 오일시장길 28","전라남도 영암군 영암읍 동무리 17-3","5일+10일",34.80123919,126.7005657,"Y","Y"
995,"영양시장","5일장","경상북도 영양군 영양로 영양읍 시장5길 4","경상북도 영양군 영양로 영양읍 서부리 288-3","4일+9일",36.66434491,129.1159732,"Y","Y"
996,"영오시장","5일장","경상남도 고성군 영오면 영산리 영회로 527-9","경상남도 고성군 영오면 영산리 232-1","2일+7일",35.10895397,128.2376863,"Y","Y"
997,"영월종합상가","상설장","강원특별자치도 영월군 영월읍 하송안 길","강원특별자치도 영월군 영월읍 하송리 11-3","매일",37.18222729,128.4667099,"Y","Y"
998,"영일대북부시장","상설장","경상북도 포항시 북구 대신로26번길 10-1","경상북도 포항시 북구 대신동 63-16","매일",36.04629984,129.3691035,"Y","Y"
999,"영일시장","상설장","서울특별시 영등포구 문래로30길 27","서울특별시 영등포구 문래동3가 10","매일",37.51613516,126.9007193,"Y","Y"
1000,"영주골목시장","상설장","경상북도 영주시 구성로 360번길 15-1","경상북도 영주시 영주동 315-6","매일",36.82466754,128.6228703,"Y","Y"
1001,"영주공설시장","5일장","경상북도 영주시 구성로 330번길 30","경상북도 영주시 하망동 362-4","5일+10일",36.82255573,128.6263204,"Y","Y"
1002,"영주문화시장","상설장","경상북도 영주시 중앙로 83번길 32","경상북도 영주시 영주동 376-1","매일",36.8239126,128.6235621,"Y","N"
1003,"영주소백쇼핑몰","상설장","경상북도 영주시 중앙로 80번길 33-12","경상북도 영주시 하망동 364-30","매일",36.82348952,128.6261700357,"Y","Y"
1004,"영주시장","상설장","부산광역시 중구 대영로 242길","부산광역시 중구 영주동 595-3","매일",35.11189976,129.0369848,"Y","Y"
1005,"영주종합시장","상설장","경상북도 영주시 선비로79번길 40-12","경상북도 영주시 휴천동 305","매일",36.81360395,128.6221794,"Y","Y"
1006,"영주중앙시장","상설장","경상북도 영주시 영주로 192번길 10-1","경상북도 영주시 영주동 547","매일",36.8257389,128.6209769,"Y","Y"
1007,"영진시장","상설장","서울특별시 마포구 동교로12길 21 서교동","서울특별시 마포구 서교동 485-14","매일",37.55346487,126.9126921,"Y","Y"
1008,"영천공설시장","5일장","경상북도 영천시 시장4길 52","경상북도 영천시 완산동 982-3","2일+7일",35.96424852,128.9385815,"Y","Y"
1009,"영천금호공설시장","5일장","경상북도 영천시 금호읍 금호로 101","경상북도 영천시 금호읍 교대리167-35","3일+8일",35.93166871,128.8733581,"Y","Y"
1010,"영천시장","상설장","서울특별시 서대문구 통일로 189-1 영천시장","서울특별시 서대문구 영천동 323","매일",37.5703343,126.9618476,"Y","N"
1011,"영해만세시장","5일장","경상북도 영덕군 영해면 예주시장5길 21","경상북도 영덕군 영해면 성내리 468-1","5일+10일",36.54089457,129.407185,"Y","Y"
1012,"영해종합시장","상설장","부산광역시 사상구 학감대로 109-10","부산광역시 사상구 학장동 570-2","매일",35.1407094,128.9879641,"Y","Y"
1013,"예산광시시장","5일장","충청남도 예산군 광시면 예당로 165-22","충청남도 예산군 광시면 광시리 87-1","3일+8일",36.54911843,126.7744244,"Y","Y"
1014,"예산시장","5일장","충청남도 예산군 예산읍 형제고개로 967","충청남도 예산군 예산읍 예산리 333-1","5일+10일",36.67723471,126.8494508,"Y","Y"
1015,"예산시장(예산상설시장)","5일장","충청남도 예산군 형제고개로 967","충청남도 예산군 예산리 333-1","5일+10일",36.67723471,126.8494508,"Y","Y"
1016,"예산역전시장","5일장","충청남도 예산군 역전로 84","충청남도 예산군 산성리 356-7","3일+8일",36.68702514,126.829854,"Y","Y"
1017,"예천맛고을시장","상설장","경상북도 예천군 예천읍 맛고을길 57","경상북도 예천군 노하리 74-16","매일",36.65688812,128.454883,"N","Y"
1018,"예천상설시장","5일장","경상북도 예천군 예천읍 상설시장2길 3-1","경상북도 예천군 예천읍 동본리 553","2일+7일",36.65599016,128.4561493,"Y","Y"
1019,"예천중앙시장","5일장","경상북도 예천군 예천읍 시장로127","경상북도 예천군 예천읍 동본리 497-1","2일+7일",36.65743408,128.4578289,"Y","Y"
1020,"오류전통시장","상설장","대전광역시 중구 계룡로882번길 72","대전광역시 중구 오류동 162-16","매일",36.32195883,127.4079507,"Y","N"
1021,"오목교 중앙시장","상설장","서울특별시 양천구 신목로4길 25 신정동","서울특별시 양천구 신정2동 119-32","매일",37.52027037,126.875742,"N","N"
1022,"오산 오색시장","5일장","경기도 오산시 오산로 272번길 21","경기도 오산시 오산동 853-27","3일+8일",37.15132402,127.0709411,"Y","Y"
1023,"오수시장","5일장","전라북도 임실군 오수면 오수로 159","전라북도 임실군 오수면 오수리 351-1","5일+10일",35.5384383,127.3266517,"Y","Y"
1024,"오이도 전통수산시장","상설장","경기도 시흥시 오이도로 167 173","경기도 시흥시 정왕동 2003-8 2003-12","매일",37.34588131,126.6882099,"Y","Y"
1025,"오정시장","상설장","경기도 부천시 부천로 470번길 50","경기도 부천시 오정동 582-30","매일",37.52597405,126.7857048,"N","N"
1026,"오창전통시장","5일장","충청북도 청주시 청원구 팔결로 715","충청북도 청주시 청원구 오창읍 장대리 309-4","3일+8일",36.74174107,127.4556173,"Y","Y"
1027,"오천삼광시장","상설장","경상북도 포항시 남구 오천읍 정몽주로679번길 3","경상북도 포항시 남구 오천읍 구정리 34-5","매일",35.97830389,129.4123384,"Y","N"
1028,"오천시장","5일장","경상북도 포항시 남구 오천읍 해병로 307번길 26-3","경상북도 포항시 남구 오천읍 세계리 823-1","5일+10일",35.96647172,129.4142295,"Y","Y"
1029,"옥곡 5일시장","5일장","전라남도 광양시 옥곡면 큰골1길 2-26","전라남도 광양시 옥곡면 신금리 1337-1","4일+9일",34.98850348,127.7002397,"Y","Y"
1030,"옥골시장","상설장","울산광역시 중구 중앙시장길17-7","울산광역시 중구 옥교동 125-13","매일",35.55523793,129.3229594,"Y","N"
1031,"옥골시장","상설장","울산광역시 중구 중앙시장길 21-5(옥교동), 2층","울산광역시 중구 옥교동 124-21","매일",35.55542851,129.3236227,"Y","Y"
1032,"옥과5일시장","5일장","전라남도 곡성군 옥과면 리문8길 14","전라남도 곡성군 옥과면 리문리 254-5","4일+9일",35.27590288,127.1379527,"Y","Y"
1033,"옥산","5일장","x","경상북도 의성군 옥산면 입암리 1105-85","3일+8일",36.40119872,128.8024126,"Y","N"
1034,"옥수동새시장","상설장","경상남도 거제시 능포로134-2","경상남도 거제시 능포동 680 7","매일",34.87539656,128.7319142,"Y","Y"
1035,"옥수시장","상설장","경상남도 거제시 옥수로2길 10","경상남도 거제시 능포동 633-215","매일",34.87534443,128.7308732,"Y","Y"
1036,"옥종공설시장","5일장","경상남도 하동군 옥종면 옥종사장길 5","경상남도 하동군 옥종면 청룡리","3일+8일",35.18209956,127.8802211,"Y","Y"
1037,"옥천 공설시장","상설장","충청북도 옥천군 옥천읍 삼금로 5길 5-14","충청북도 옥천군 옥천읍 금구리 5-68","매일",36.30251296,127.5679152,"Y","Y"
1038,"옥천상가","상설장","충청북도 옥천군 옥천읍 삼금로 45","충청북도 옥천군 옥천읍 금구리 5-7","매일",36.30239214,127.568213,"Y","Y"
1039,"옥포국제시장","상설장","경상남도 거제시 옥포로19길 12-1","경상남도 거제시 옥포동 525-19","매일",34.8943651,128.6895409,"Y","Y"
1040,"옥현상가","상설장","경상남도 거제시 옥포로 250","경상남도 거제시 옥포동1293-1","매일",34.89691724,128.6899271,"Y","Y"
1041,"온양온천시장","5일장","충청남도 아산시 시장길 29","충청남도 아산시 온천동 94-6","4일+9일",36.7832919,127.0042322,"Y","Y"
1042,"온천인정시장","상설장","부산광역시 동래구 온천장로125번길 41-2","부산광역시 동래구 온천동 146-29","매일",35.22311398,129.0831495,"Y","Y"
1043,"와룡시장","상설장","대구광역시 달서구 성서대로 69길 7","대구광역시 달서구 신당동 1788-3","매일",35.85581625,128.4993262,"Y","Y"
1044,"와수전통시장","5일장","강원도 철원군 서면 와수로 184번길 6-3","강원도 철원군 서면 와수리 1171-21","1일6일",38.23946579,127.439413,"Y","Y"
1045,"와수전통시장","상설장+5일장","강원특별자치도 철원군 서면 와수로 184번길 6-3","강원특별자치도 철원군 서면 와수리 1171-92","매일+6일",38.23946579,127.4394938,"Y","Y"
1046,"완도전통시장","5일장","전라남도 완도군 완도읍 개포로 34-1","전라남도 완도군 완도읍 군내리 1249-2","5일+10일",34.31610421,126.7482463,"Y","Y"
1047,"완도중앙시장","상설장","전라남도 완도군 완도읍 장보고대로 282-1","전라남도 완도군 완도읍 군내리 1371","매일",34.31446984,126.7552368,"Y","Y"
1048,"완사시장","상설장+5일장","경상남도 사천시 완사2길 12","경상남도 사천시 정곡리 842","매일+6일",35.13121757,127.9763433,"Y","Y"
1049,"왜관시장","상설장+5일장","경상북도 칠곡군 왜관읍 시장2길 9","경상북도 칠곡군 왜관읍 왜관리 211-187","매일+6일",35.99515075,128.3982558,"Y","Y"
1050,"외동전통시장","상설장","경상남도 김해시 내외중앙로 33","경상남도 김해시 외동 1254-2","매일",35.2329368,128.8660065,"N","Y"
1051,"용궁시장","5일장","경상북도 예천군 용궁면 용궁시장길 9","경상북도 예천군 용궁면 읍부리 329-1","4일+9일",36.60701802,128.2753721,"Y","Y"
1052,"용남시장","상설장","인천광역시 미추홀구 인주대로 266번길17-1","인천광역시 미추홀구 용현동 4-2","매일",37.45189805,126.6658494,"Y","Y"
1053,"용달샘시장상인회","상설장","충청북도 충주시 지곡10길 35","충청북도 충주시 지현동 1076","매일",36.9646875,127.9325051,"Y","Y"
1054,"용담푸르미르상가시장","상설장","서울특별시 성동구 용답중앙길 59","서울특별시 성동구 용답동 57-17","매일",37.56416885,127.0525388,"Y","Y"
1055,"용두전통시장","상설장","대전광역시 중구 계룡로 881번길 53","대전광역시 중구 용두동 12-2","매일",36.32340688,127.4145668,"N","N"
1056,"용문시장","상설장","서울특별시 용산구 효창원로40길 13","x","매일",37.53662269,126.9597957,"Y","Y"
1057,"용문천년시장","5일장","경기도 양평군 용문면 용문시장2길 11 일원","경기도 양평군 용문면 다문리 307-5 일원","5일+10일",37.48396323,127.5947559,"Y","Y"
1058,"용산시장","상설장+5일장","전라남도 장흥군 용산면 용인길 4","전라남도 장흥군 용산면 인암리 800-1","매일+6일",34.61491088,126.9153133,"Y","Y"
1059,"용산종합큰시장","상설장","대구광역시 달서구 달구벌대로 301길 187-11","대구광역시 달서구 용산동 933","매일",35.8580507,128.5311724,"Y","Y"
1060,"용상공설시장","상설장","경상북도 안동시 경동로 862","경상북도 안동시 용상동 1242","매일",36.55947134,128.7501645,"Y","Y"
1061,"용운시장","상설장","대전광역시 동구 용운로 164번길 일원","대전광역시 동구 용운동 305-14","매일",36.32781621,127.4605847,"Y","Y"
1062,"용인중앙시장","5일장","경기도 용인시 처인구 금령로107번길 13","경기도 용인시 처인구 김량장동 137-1","5일+10일",37.23671447,127.2078585,"Y","Y"
1063,"용인중앙시장","상설+오일장","경기도 용인시 처인구 금령로99번길 9","경기도 용인시 처인구 김량장동 133-65번지 일원","매일, 5일+10일",37.236506,127.207071,"Y","Y"
1064,"용현시장","상설장","인천광역시 미추홀구 용삼길 13","인천광역시 미추홀구 용현동 459-92","매일",37.45756117,126.6503744,"Y","Y"
1065,"용호1동골목시장","상설장","부산광역시 남구 용호로106번길 56","부산광역시 남구 용회동 215-14번지","매일",35.12436007,129.1102038,"Y","Y"
1066,"용호골목시장","상설장","부산광역시 남구 용호로 177번길5","부산광역시 남구 용호동 494-19","매일",35.11640737,129.1114604,"Y","Y"
1067,"용호삼성시장","상설장","부산광역시 남구 용호로 106번길 40","부산광역시 남구 용호동 128-1","매일",35.12389935,129.1105376,"Y","N"
1068,"용호시장","상설장","부산광역시 남구 동명로 152번길 93","부산광역시 남구 용호동 516-10","매일",35.114912,129.1127729,"Y","Y"
1069,"용흥시장","상설장","경상북도 포항시 북구 대안길 56","경상북도 포항시 북구 용흥동366","매일",36.04163448,129.3513838,"Y","Y"
1070,"우동종합상가시장","상설장","부산광역시 해운대구 해운대로383번길 37-10","부산광역시 해운대구 우2동 1092 16","매일",35.17067972,129.1388575,"Y","Y"
1071,"우림시장","상설장","서울특별시 관악구 난곡로 26길 19","서울특별시 관악구 신림동 638-50","매일",37.4704665,126.921091,"Y","Y"
1072,"우림시장","상설장","서울특별시 중랑구 망우로62길 52-4 망우동","서울특별시 중랑구 망우동 463-44 우림시장 편의시설","매일",37.59677182,127.0982722,"Y","Y"
1073,"우산매일시장","상설장","광주광역시 광산구 우산로","광주광역시 광산구 우산동 1612- 1","매일",35.16218295,126.8035258,"Y","Y"
1074,"우성상가","상설장","서울특별시 양천구 지양로 78","서울특별시 양천구 신월동 928-1","매일",37.52265956,126.8335711,"Y","Y"
1075,"우성종합상가","상설장","경기도 성남시 분당구 중앙공원로40번길 42","경기도 성남시 분당구 서현동 94-3","매일",37.37818238,127.1323819,"Y","Y"
1076,"우수영5일시장","5일장","전라남도 목포시 고하대로 706","x","4일+9일",34.80937871,126.3742394,"Y","Y"
1077,"우신종합상가","상설장","부산광역시 사상구 백양대로 880","부산광역시 사상구 모라동 1362","매일",35.18311311,128.9912819,"Y","Y"
1078,"우암골목시장","상설장","부산광역시 남구 장고개로 9-1","부산광역시 남구 우암동 226-17","매일",35.12616578,129.0709232,"Y","N"
1079,"우이시장","상설장","서울특별시 강북구 노해로 23길 68","서울특별시 강북구 수유동 270-185","매일",37.64603739,127.020016,"Y","N"
1080,"우정시장","상설장","울산광역시 중구 당산5길 10(우정동)","울산광역시 중구 우정동 285-1","매일",35.5546219,129.3100727,"Y","N"
1081,"우정전통시장","상설장+5일장","울산광역시 중구 당산5길 9","울산광역시 중구 우정동 284-23","매일+5일, 10일",35.5548812,129.3100508,"Y","N"
1082,"우정전통시장","5일장","울산광역시 중구 당산4길 21","울산광역시 중구 우정동 214-10","5일+10일",35.55395933,129.3107217,"Y","N"
1083,"운수대통 생거진천 전통시장","5일장","충청북도 진천군 진천읍 원덕로390","충청북도 진천군 성석리 969","5일+10일",36.86070802,127.4513239,"Y","Y"
1084,"운암시장","상설장","광주광역시 북구 대자로 87","광주광역시 북구 운암동 94-7","매일",35.17337341,126.8820036,"Y","Y"
1085,"운천시장","5일장","경기도 포천시 영북면 영북로 177번길 25","경기도 포천시 영북면 운천리 531-5","4일+9일",38.08994227,127.2722253,"Y","Y"
1086,"울산번개시장","상설장","울산광역시 남구 신선로 184번길 46-1","울산광역시 남구 야음동 375-55","매일",35.520239,129.3367745,"Y","N"
1087,"울산번개시장","상설장","울산광역시 남구 신선로184번길 46-1 야음동","울산광역시 남구 야음동 375-55","매일",35.520238,129.3367705,"Y","Y"
1088,"울산산업공구월드","상설장","울산광역시 남구 갈밭로 24 삼산동","울산광역시 남구 삼산동 1591-4 울산산업공구월드","매일",35.53578533,129.3426384,"Y","Y"
1089,"울산산업공구월드","상설장","울산광역시 남구 갈밭로24","울산광역시 남구 삼산동 1591-4","매일",35.535788,129.3426382,"Y","Y"
1090,"울산시장","상설장","울산광역시 중구 구교로 35","울산광역시 중구 학산동 47-10 신중앙시장","매일",35.55546849,129.3284088,"Y","Y"
1091,"울산시장","상설장","울산광역시 중구 구교로 35(학산동)","울산광역시 중구 학산동 47-10","매일",35.5554665,129.3284088,"Y","Y"
1092,"울진바지게시장","5일장","경상북도 울진군 울진읍 읍내2길 13-6","경상북도 울진군 울진읍 읍내리 63","2일+7일",36.99162911,129.4020697,"Y","Y"
1093,"웃장","5일장","전라남도 순천시 북문길 40","전라남도 순천시 동외동 168-1","5일+10일",34.95864578,127.4850341,"Y","Y"
1094,"웅천시장","5일장","경상남도 창원시 진해구 웅천중로56번길 8","경상남도 창원시 진해구 성내동 327","4일+9일",35.11101903,128.7509026,"Y","Y"
1095,"원고개시장","상설장","대구광역시 서구 통학로46길 48","대구광역시 서구 비산동 566-2","매일",35.88028036,128.5682981,"Y","Y"
1096,"원당전통시장","상설장","경기도 고양시 덕양구 호국로 790번길 17","경기도 고양시 덕양구 성사동 697-14","매일",37.65628101,126.8372528,"N","Y"
1097,"원대 신시장","상설장","대구광역시 서구 달서로 54길 6","대구광역시 서구 원대동3가 1434-4","매일",35.88553463,128.5748006,"Y","Y"
1098,"원마루시장","상설장","충청북도 청주시 서원구 원마루로8번길 21","충청북도 청주시 서원구 분평동 1335","매일",36.60903358,127.4964114,"Y","N"
1099,"원미부흥시장","상설장","경기도 부천시 부천로96번길 80","경기도 부천시 원미동 119-4","매일",37.49203038,126.7898181,"Y","N"
1100,"원미종합시장","상설장","경기도 부천시 조종로 49번길 21-3","경기도 부천시 원미동 97-12","매일",37.49368229,126.7901781,"Y","N"
1101,"원종 종합시장","상설장","경기도 부천시 삼작로 394","경기도 부천시 원종동 372-1","매일",37.51971159,126.805569,"Y","Y"
1102,"원종중앙시장","상설장","경기도 부천시 성오로 124번길 47","경기도 부천시 원종동 209-5","매일",37.52506508,126.8023169,"Y","Y"
1103,"원주남부시장","상설장","강원특별자치도 원주시 치악로 1803","강원특별자치도 원주시 명륜동 26","매일",37.34301479,127.9544876,"Y","Y"
1104,"원주민속풍물시장","5일장","강원특별자치도 원주시 풍물시장길 30","강원특별자치도 원주시 평원동 134-1","2일+7일",37.34898697,127.9541166,"Y","Y"
1105,"원주자유시장","상설장","강원특별자치도 원주시 중앙시장길 11","강원특별자치도 원주시 중앙동 57","매일",37.35022856,127.9486248,"Y","Y"
1106,"원주중앙시장","상설장","강원특별자치도 원주시 중앙시장길 6","강원특별자치도 원주시 중앙동 60-56","매일",37.3500121,127.9491922,"Y","Y"
1292,"지귀시장","상설장+5일장","경상남도 창원시 의창구 창이대로 205번길8-3","경상남도 창원시 의창구 봉곡동 80-14","매일+6일",35.24581106,128.6598468,"Y","N"
1293,"지도시장","5일장","전라남도 신안군 지도읍 읍내길 16-20","전라남도 신안군 지도읍 읍내리 168-6","3일+8일",35.05881564,126.2069818,"Y","Y"
1294,"지동시장","상설장","경기도 수원시 팔달구 팔달문로 19 지동","경기도 수원시 팔달구 지동 402-2","매일",37.27788344,127.0196281,"Y","Y"
1295,"지리산나들이장터","상설장","전라남도 구례군 산동면 지리산온천로 126","전라남도 구례군 산동면 원촌리 38","매일",35.31147064,127.4444997,"Y","Y"
1296,"지리산함양시장","5일장","경상남도 함양군 함양읍 용평 중앙길 20","경상남도 함양군 함양읍 용평리 607-104","2일+7일",35.5186005,127.7289877,"Y","Y"
1297,"지산목련시장","상설장","대구광역시 수성구 용학로42길 9 지산동","대구광역시 수성구 지산동 1199-10","매일",35.82079684,128.631863,"Y","Y"
1298,"진교공설시장","5일장","경상남도 하동군 진교면 선창길 24","경상남도 하동군 진교면 진교리302-4","3일+8일",35.02717371,127.9038157,"Y","Y"
1299,"진남시장","상설장","전라남도 여수시 학동1길 10","전라남도 여수시 학동 35-1","매일",34.76425614,127.6641226,"Y","Y"
1300,"진도상설전통시장","상설장","전라남도 진도군 진도읍 남동1길 57-8","전라남도 진도군 진도읍 남동리 487-5","매일",34.48135444,126.2649053,"Y","Y"
1301,"진도읍조금시장","5일장","전라남도 진도군 진도읍 조금시장길 25","전라남도 진도군 진도읍 남동리 731","2일+7일",34.48147858,126.2569326,"Y","Y"
1302,"진동시장","5일장","경상남도 창원시 마산합포구 진동시장길 43-7","경상남도 창원시 마산합포구 진동면 진동리237-11","4일+9일",35.1135948,128.4879255,"Y","Y"
1303,"진동전통시장","5일장","경상남도 창원시 마산합포구 진동면 진동시장길 62","경상남도 창원시 마산합포구 진동면 진동리264-3","5일+10일",35.11330584,128.4873242,"Y","Y"
1304,"진례전통시장","5일장","경상남도 김해시 진례면 송현로 6-1","경상남도 김해시 진례면 송정리 239-3","5일+10일",35.24885406,128.7489257,"Y","Y"
1305,"진보시장","5일장","경상북도 청송군 진보면 진안남2길 9-1","경상북도 청송군 진보면 진안리 121-3","3일+8일",36.52833684,129.0464058,"Y","Y"
1306,"진부전통시장","5일장","강원특별자치도 평창군 진부면 진부새싹길 28-7","강원특별자치도 평창군 진부면 하진부리 206-95","3일+8일",37.63821679,128.5579259,"Y","Y"
1307,"진안고원시장","5일장","전라북도 진안군 진안읍시장1길16","전라북도 진안군 군상리 406-7","4일+9일",35.79263321,127.4294238,"Y","Y"
1308,"진영전통시장","5일장","경상남도 김해시 진영읍 진영로160번길 13-8","경상남도 김해시 진영읍 진영리 235-16","4일+9일",35.30231431,128.7306267,"Y","Y"
1309,"진주논개시장","상설장","경상남도 진주시 진양호로569번길 12","경상남도 진주시 장대동 58-8","매일",35.19506585,128.0872233,"Y","Y"
1310,"진주동성상가","상설장","경상남도 진주시 진주대로 901","경상남도 진주시 강남동 219","매일",35.18092171,128.0893331,"Y","Y"
1311,"진주자유시장","상설장","경상남도 진주시 도동천로 95","경상남도 진주시 상대동 276-9","매일",35.18016822,128.1103048,"Y","Y"
1312,"진주중앙시장","상설장","경상남도 진주시 진양호로547번길 8-1 일원","경상남도 진주시 대안동 8-600","매일",35.19392285,128.0848889,"Y","Y"
1313,"진주청과시장","상설장","경상남도 진주시 촉석로 226번길 3","경상남도 진주시 수정동 25-28","매일",35.1962457,128.0866851,"N","N"
1314,"진천중앙시장","5일장","충청북도 진천군 진천읍 중앙동6길 23","충청북도 진천군 진천읍 읍내리 305-12","5일+10일",36.85685785,127.4423741,"Y","Y"
1315,"진해중부시장","상설장","경상남도 창원시 진해구 중초로 20","경상남도 창원시 진해구 경화동 1164-1","매일",35.15507185,128.681561,"Y","Y"
1316,"진해중앙시장","상설장","경상남도 창원시 진해구 벚꽃로 60번길 19-4","경상남도 창원시 진해구 벚꽃로 화천동 60-14","매일",35.15108231,128.6652503,"Y","Y"
1317,"진흥종합시장","상설장","인천광역시 부평구 부흥로3204번길 27","인천광역시 부평구 부평동 252-52","매일",37.49694725,126.725706,"Y","Y"
1318,"창녕상설시장","5일장","경상남도 창녕군 창녕읍 시장길 66","경상남도 창녕군 창녕읍 164-38","3일+8일",35.54007277,128.4973587,"Y","Y"
1319,"창동골목시장","상설장","서울특별시 도봉구 덕릉로58길 16","서울특별시 도봉구 창동 557-45","매일",37.638352,127.0391199,"N","N"
1320,"창동골목시장","상설장","서울특별시 도봉구 덕릉로58길 16","서울특별시 도봉구 창동 557-45 일대","매일",37.63840117,127.0391454,"Y","N"
1321,"창동신창시장","상설장","서울특별시 도봉구 덕릉로 57길 17","서울특별시 도봉구 창동 578-47","매일",37.63943514,127.0374555,"Y","Y"
1322,"창동신창시장","상설장","서울특별시 도봉구 덕릉로57길 17","서울특별시 도봉구 창동 578-47","매일",37.6394346028,127.0374397,"N","N"
1323,"창선상가","상설장","부산광역시 중구 중구로 44 331호","부산광역시 중구 부평동1가 13-6","매일",35.10194037,129.0277411,"Y","Y"
1324,"창원기계공구상가","상설장","경상남도 창원시 의창구 창원대로 400","경상남도 창원시 팔용동 16-1","매일",35.23376746,128.6410782,"Y","Y"
1325,"창원도계부부시장","상설장","경상남도 창원시 의창구 원이대로 69번길 20","경상남도 창원시 의창구 도계동 400-1","매일",35.25721476,128.6371392,"Y","N"
1326,"창원캔버라상가","상설장","경상남도 창원시 성산구 중앙대로61번길 4","경상남도 창원시 성산구 중앙동97-6","매일",35.22123302,128.6768275,"Y","Y"
1327,"창원코아상사","상설장","경상남도 창원시 성산구 상남로 71","경상남도 창원시 성산구 상남동 73-4","매일",35.22044242,128.6795415,"Y","Y"
1328,"창평전통시장","5일장","전라남도 담양군 창평면 사동길 14-25","전라남도 담양군 창평면 창평리 209-1","5일+10일",35.23810681,127.0149068,"Y","Y"
1329,"천안역전시장","상설장","충청남도 천안시 동남구 공설시장1길 9","충청남도 천안시 동남구 대흥동 63-3","매일",36.80990757,127.1489083,"Y","Y"
1330,"천안중앙상사","상설장","충청남도 천안시 동남구 사직로 7","충청남도 천안시 동남구 사직동263 사직2길 19","매일",36.80072079,127.1493019,"Y","Y"
1331,"천왕산관광시장","5일장","전라남도 장흥군 관산읍 칠관로 1559-4","전라남도 장흥군 관산읍 옥당리 489-1","3일+8일",34.56276999,126.9370792,"Y","Y"
1332,"천전시장","상설장","경상남도 진주시 진주대로 954번길 4","경상남도 진주시 칠암동 306-1","매일",35.18505598,128.0885806,"Y","N"
1333,"철뚝시장","상설장","부산광역시 부산진구 자유평화로3번길 14-15","부산광역시 부산진구 범천동 839-36","매일",35.14222041,129.0615694,"N","N"
1334,"청계 상가","상설장","서울특별시 중구 청계천로 160","서울특별시 중구 산림동 207-1","매일",37.56797977,126.995365,"Y","Y"
1335,"청과물시장","상설장","경기도 부천시 경인로206번길 43","경기도 부천시 심곡본동 659","매일",37.4815768,126.7779879,"N","N"
1336,"청구문화시장","상설장","경기도 성남시 분당구 내정로165번길 38","경기도 성남시 분당구수내동 32","매일",37.37666085,127.1162393,"Y","Y"
1337,"청구시장","상설장","대구광역시 수성구 만촌로 66 만촌동","대구광역시 수성구 만촌동 984-1","매일",35.86485353,128.6440771,"Y","Y"
1338,"청담삼익상가","상설장","서울특별시 강남구 학동로 101길 26","서울특별시 강남구 청담동 134-20","매일",37.5224448,127.0576204,"Y","Y"
1339,"청도공설시장","5일장","경상북도 청도군 청도읍 청도시장1길 21","경상북도 청도군 청도읍 고수리 778 외","4일+9일",35.64394305,128.746038,"Y","Y"
1340,"청량리 종합시장","상설장","서울특별시 동대문구 홍릉로 1길 68-3","서울특별시 동대문구 제기동 647-11","매일",37.58015661,127.0410378,"Y","Y"
1341,"청량리 청과물시장","상설장","서울특별시 동대문구 왕산로33길 16","서울특별시 동대문구 제기동 635-35","매일",37.57986447,127.0424198,"Y","Y"
1342,"청량리농수산물시장","상설장","서울특별시 동대문구 경동시장로 22","서울특별시 동대문구 제기동 629-2","매일",37.58091917,127.0408796,"Y","Y"
1343,"청량리수산시장","상설장","서울특별시 동대문구 고산자로 34길 48의1","서울특별시 동대문구 용두동 20-1","매일",37.57807282,127.0409508,"Y","N"
1344,"청량리전통시장","상설장","서울특별시 동대문구 경동시장로2길 49-3","서울특별시 동대문구 청량리동 773","매일",37.58061952,127.043606,"N","N"
1345,"청량종합도매시장","상설장","서울특별시 동대문구 경동시장로30-7","서울특별시 동대문구 제기동 620-44","매일",37.58194298,127.0408559,"Y","Y"
1346,"청림시장","상설장","경상북도 포항시 남구 청림서길 29","경상북도 포항시 남구 청림동 588-2","매일",35.99657739,129.4103555,"Y","Y"
1347,"청송시장","5일장","경상북도 청송군 청송읍 현충로 106","경상북도 청송군 청송읍 월막리 423-1","4일+9일",36.43514723,129.0521199,"Y","Y"
1348,"청양시장","5일장","충청남도 청양군 정산면 정현길 54","충청남도 청양군 정산면 서정리 163","5일+10일",36.41059417,126.9480176,"Y","Y"
1349,"청양전통시장","5일장","충청남도 청양군 칠갑산로6길 6","충청남도 청양군 읍내리 178-4","2일+7일",36.45048661,126.8018456,"Y","Y"
1350,"청주 두꺼비시장","상설장","충청북도 청주시 서원구 수곡로 58번길 7-2","충청북도 청주시 서원구 수곡동 862","매일",36.61743646,127.4729924,"Y","N"
1351,"청주 하복대시장","상설장","충청북도 청주시 흥덕구 증안로34번길 20-1 복대동","충청북도 청주시 흥덕구 복대동 2541번지","매일",36.63563824,127.4274666,"N","N"
1352,"청주직지시장","상설장","충청북도 청주시 흥덕구 직지대로 639번길 88","충청북도 청주시 흥덕구 봉명동 472-6","매일",36.64657922,127.4663281,"Y","Y"
1353,"청천전통시장","5일장","충청북도 괴산군 청천면 청천2길 10","충청북도 괴산군 청천면 청천리 62-11","5일+10일",36.65914238,127.7378486,"Y","Y"
1354,"청평여울시장","5일장","경기도 가평군 청평면 시장중앙로19","경기도 가평군 청평면 청평리 81-2","2일+7일",37.73476579,127.4158609,"Y","Y"
1355,"청평화시장","상설장","서울특별시 중구 청계천로 334 신당동","서울특별시 중구 신당동 217-91 청평화시장","매일",37.56946664,127.0149365,"Y","Y"
1356,"청하시장","상설장+5일장","경상북도 포항시 북구 청하면 청하로 200번길 4","경상북도 포항시 북구 청하면 미남리 382-3","매일+6일",36.19707466,129.3396614,"Y","Y"
1357,"청학시장","상설장","부산광역시 영도구 태종로 316번길 1","부산광역시 영도구 청학동 297-1","매일",35.09660365,129.0603435,"Y","Y"
1358,"청호시장","상설장","전라남도 목포시 석현로 28","전라남도 목포시 석현동 1171","매일",34.81538137,126.424593,"Y","Y"
1359,"초계시장","5일장","경상남도 합천군 초계중앙로 61","경상남도 합천군 초계리 50-1","5일+10일",35.55931487,128.2668345,"Y","Y"
1360,"초량상가 시장","상설장","부산광역시 동구 초량로 15","부산광역시 동구 초량동 200","매일",35.11890679,129.0399808,"Y","N"
1361,"초량전통시장","상설장","부산광역시 동구 초량로13번길 24","부산광역시 동구 초량동 308- 1","매일",35.11803874,129.0396675,"Y","N"
1362,"초읍시장","상설장","부산광역시 부산진구 성지로51번길 60","부산광역시 부산진구 초읍동225","매일",35.17731689,129.0528914,"Y","N"
1363,"춘천남부시장","상설장","강원특별자치도 춘천시 공지로 367","강원특별자치도 춘천시 효자동 684-11","매일",37.87056273,127.7260495,"Y","Y"
1364,"춘천동부시장","상설장","강원특별자치도 춘천시 동부시장길8","강원특별자치도 춘천시 운교동 183","매일",37.87723546,127.734114,"Y","Y"
1365,"춘천번개시장","상설장","강원특별자치도 춘천시 소양로212 새마을금고2층","강원특별자치도 춘천시 소양로1가 93-10","매일",37.89183308,127.7263073,"Y","Y"
1366,"춘천서부시장","상설장","강원특별자치도 춘천시 서부대성로12","강원특별자치도 춘천시 소양로2가 172-1","매일",37.88481452,127.7246493,"Y","Y"
1367,"춘천중앙시장","상설장","강원특별자치도 춘천시 중앙로77번길 4-4","강원특별자치도 춘천시 중앙로2가 42-18","매일",37.87849419,127.7257538,"Y","Y"
1368,"춘천풍물시장","5일장","강원특별자치도 춘천시 영서로 2352-54","강원특별자치도 춘천시 온의동 148-1","2일+7일",37.86623705,127.7195843,"Y","Y"
1369,"춘천후평시장","상설장","강원특별자치도 춘천시 효평길 104","강원특별자치도 춘천시 후평동 691-22","매일",37.88079022,127.746783,"Y","Y"
1370,"충렬상가시장","상설장","부산광역시 동래구 충렬대로459번길 73-10","부산광역시 동래구 안락동464-21","매일",35.19809586,129.1099543,"Y","Y"
1371,"충무동 새벽시장","상설장","부산광역시 서구 해안새벽시장길 68 남부민동","부산광역시 서구 남부민동 685-1","매일",35.09276992,129.0249266,"Y","Y"
1372,"충무동 해안시장","상설장","부산광역시 서구 자갈치로 14-12 충무동1가","부산광역시 서구 충무동 1가 43-1","매일",35.09594124,129.0261031,"Y","N"
1373,"충무동골목시장","상설장","부산광역시 서구 충무대로267번길 5 충무동1가","부산광역시 서구 충무동1가 38-32","매일",35.09428203,129.0236516,"Y","Y"
1374,"충주 자유시장 상인회","5일장","충청북도 충주시 충인6길 16","충청북도 충주시 충의동 192","5일+10일",36.9739313,127.9306713,"Y","Y"
1375,"충주 중앙어울림 시장","상설장","충청북도 충주시 예성로 168","충청북도 충주시 성서동 306","매일",36.97189318,127.9336123,"Y","Y"
1376,"충주농산물종합시장","상설장","충청북도 충주시 목행산단7로 24","충청북도 충주시 목행동 526-29","매일",37.00399645,127.9230838,"Y","Y"
1377,"칠곡시장","상설장+5일장","대구광역시 북구 칠곡중앙대로526","대구광역시 북구 읍내동 1201-1","매일+6일",35.94252496,128.551221,"Y","Y"
1378,"칠성본시장","상설장","대구광역시 북구 칠성시장로 15-1","대구광역시 북구 칠성동1가 97-1","매일",35.87551494,128.6043799834,"N","Y"
1379,"칠성상가시장","상설장","대구광역시 북구 칠성남로 230","대구광역시 북구 칠성동1가 150-1","매일",35.87561087,128.6053141,"Y","Y"
1380,"칠성시장","상설장","대구광역시 북구 칠성남로 229","대구광역시 북구 칠성동1가 276-163","매일",35.87631033,128.605429,"Y","Y"
1381,"칠성전자주방시장","상설장","대구광역시 북구 칠성시장로 73-1","대구광역시 북구 칠성동2가 409-71","매일",35.88023367,128.6015513,"Y","Y"
1473,"현대유통 쇼핑센타","상설장","경상북도 구미시 구미중앙로 61-6","경상북도 구미시 원평동 119-2","매일",36.13002413,128.3300422,"Y","Y"
1474,"현대종합상가시장","상설장","부산광역시 수영구 수영로741번길 12","부산광역시 수영구 수영동541","매일",35.16840801,129.1207324,"Y","Y"
1475,"현대프라자시장","상설장","경기도 성남시 분당구 돌마로 364","경기도 성남시 분당구 수내동 79-2","매일",37.36998628,127.1236631,"Y","Y"
1476,"현풍백년도깨비시장","상설장","대구광역시 달성군 현풍읍 현풍로6길 5","대구광역시 달성군 현풍읍 원교리 12-5","매일",35.694751,128.442243,"Y","Y"
1477,"현풍백년도깨비시장","5일장","대구광역시 달성군 현풍읍 현풍로 6길 5","대구광역시 달성군 현풍읍 원교리 12-5","5일+10일",35.69476056,128.4422285,"Y","Y"
1478,"형곡시장프라자","상설장","경상북도 구미시 형곡서로 121","경상북도 구미시 형곡동 147-1","매일",36.11288249,128.3343334,"Y","Y"
1479,"형곡중앙시장","상설장","경상북도 구미시 형곡로 186","경상북도 구미시 형곡동 321","매일",36.10631794,128.3365164,"Y","Y"
1480,"형산시장","상설장","경상북도 포항시 남구 문예로 70번길23","경상북도 포항시 남구 대도동 143-1","매일",36.01270248,129.3664934,"Y","Y"
1481,"호계공설시장","상설장+5일장","울산광역시 북구 호계3길 17-11","울산광역시 북구 호계동 869-1 호계공설시장","매일+6일",35.62361611,129.355738,"Y","Y"
1482,"호계공설시장","상설장+5일장","울산광역시 북구 호계3길 17-11","울산광역시 북구 호계동 869-1","매일+1일, 6일",35.623596545,129.355729555,"Y","Y"
1483,"홍산시장","5일장","충청남도 부여군 홍산면 홍산시장로 45-10","충청남도 부여군 홍산면 남촌리 134-2","2일+7일",36.21394221,126.7576014,"Y","Y"
1484,"홍성전통시장","상설장+5일장","충청남도 홍성군 홍성읍 홍성천길 242","충청남도 홍성군 홍성읍 대교리 400-1","매일+6일",36.60215126,126.6680232,"Y","Y"
1485,"홍천시장","상설장","강원특별자치도 홍천군 홍천읍 번영로 53번지 일원","강원특별자치도 홍천군 홍천읍 신장대리 8-128번지 일원","매일",37.69055257,127.8862031,"Y","Y"
1486,"홍천중앙시장","상설장","강원특별자치도 홍천군 홍천읍 홍천로 8길 17","강원특별자치도 홍천군 홍천읍 신장대리 5-3","매일",37.69108298,127.886165,"Y","N"
1487,"화개장터","상설장","경상남도 하동군 화개면 쌍계로 21","경상남도 하동군 화개면 탑리 726-10","매일",35.18862364,127.6242242,"Y","Y"
1488,"화곡남부시장","상설장","서울특별시 강서구 등촌로5길 80번지","서울특별시 강서구 화곡동 830-1","매일",37.53307069,126.8589518,"Y","Y"
1489,"화곡본동시장","상설장","서울특별시 강서구 까치산로 35","서울특별시 강서구 화곡본동 98-45","매일",37.54288484,126.8441295,"Y","N"
1490,"화곡중앙시장","상설장","서울특별시 강서구 월정로 30길 66","서울특별시 강서구 화곡동 362-144","매일",37.53488408,126.8395063,"Y","Y"
1491,"화령시장","5일장","경상북도 상주시 화서면 화령남6길 7","경상북도 상주시 화서면 신봉3리 128-7","3일+8일",36.44479088,127.9506951,"Y","Y"
1492,"화목시장","상설장+5일장","경상북도 청송군 현서면 구산북로57-1","경상북도 청송군 현서면 구산리 100-14","매일+6일",36.27540013,128.8973097,"Y","Y"
1493,"화봉시장","상설장","울산광역시 북구 상방로 94","울산광역시 북구 화봉동 448-2","매일",35.58882126,129.365815231,"Y","N"
1494,"화봉종합시장","상설장","울산광역시 북구 상방로 94","울산광역시 북구 화봉동 448-2","매일",35.58881997,129.3658257,"Y","Y"
1495,"화북종합시장","상설장","제주특별자치도 제주시 청풍길 14","제주특별자치도 제주시 화북1동 1947","매일",33.5226529,126.5658683,"Y","N"
1496,"화서시장","상설장","경기도 수원시 팔달구 동말로 72 화서동","경기도 수원시 팔달구 화서동 97-1","매일",37.27857804,127.0020898,"Y","Y"
1497,"화순고인돌전통시장","5일장","전라남도 화순군 화순읍 시장길 42","전라남도 화순군 화순읍 삼천리 621","3일+8일",35.05909677,126.9833988,"Y","Y"
1498,"화순능주시장","5일장","전라남도 화순군 능주면 학포로 1955","전라남도 화순군 능주면 관영리 94-8","5일+10일",34.99091444,126.9593707,"Y","Y"
1499,"화순이양전통시장","5일장","전라남도 화순군 이양면 이양로 29-19","전라남도 화순군 이양면 이양리 303-3","4일+9일",34.88259825,126.9868713,"Y","Y"
1500,"화양제일골목시장","상설장","서울특별시 광진구 아차산로29길 59","서울특별시 광진구 화양동 34-72호","매일",37.54349132,127.0692921,"N","Y"
1501,"화원5일시장","5일장","전라남도 해남군 화원면 금평길 14","x","5일+10일",34.66949615,126.328231,"Y","Y"
1502,"화원시장","상설장","대구광역시 달성군 화원읍 비슬로512길 66","대구광역시 달성군 화원읍 천내리 892-1","매일",35.80125417,128.4997367,"Y","Y"
1503,"화원시장","상설장+5일장","대구광역시 달성군 화원읍 화원읍 비슬로512길 66","대구광역시 달성군 화원읍 천내리 892-1","매일+6일",35.8012922,128.4990942,"Y","Y"
1504,"화정서부시장","상설장","광주광역시 서구 화운로156번길 24-1","광주광역시 서구 화정동783의5","매일",35.15304086,126.8792821,"N","Y"
1505,"화천재래시장","상설장","강원도 화천군  화천읍 중앙로 4길 21-7외","강원도 화천군 화천읍 하리 52-9","매일",38.103715,127.705625,"Y","Y"
1506,"화천전통시장","5일장","강원특별자치도 화천군 화천읍 중앙로 24길12","강원특별자치도 화천군 화천읍 하리 50-7","3일+8일",38.10390468,127.7064262,"Y","Y"
1507,"환호그린빌","상설장","경상북도 포항시 북구 환호공원길 15","경상북도 포항시 북구 환호동 377-5","매일",36.06812939,129.3911479,"Y","Y"
1508,"황금시장","5일장","경상북도 김천시 황금시장4길20","경상북도 김천시 황금동 31-1","5일+10일",36.11665981,128.1252833,"Y","Y"
1509,"황금시장","상설장","대구광역시 수성구 청솔로 19 황금동","대구광역시 수성구 황금동 746","매일",35.84839977,128.6199562,"Y","Y"
1510,"황남상가시장","상설장","경상북도 경주시 포석로1058-7","경상북도 경주시 황남동 307-1","매일",35.83566157,129.2103141,"N","N"
1511,"황등시장","5일장","전라북도 익산시 석재길 22","전라북도 익산시 황등면 황등리58","4일+9일",35.99888044,126.9524759,"Y","Y"
1512,"황룡시장","5일장","전라남도 장성군 황룡면 삼월길 5","전라남도 장성군 황룡면 월평리 151-1","4일+9일",35.29168517,126.7738898,"Y","Y"
1513,"황지자유시장","상설장","강원특별자치도 태백시 시장안길 18 - 1","강원특별자치도 태백시 통동 75-32","매일",37.17303883,129.0412268,"Y","Y"
1514,"황학시장","상설장","서울특별시 중구 퇴계로85길 36","서울특별시 중구 황학동 442","매일",37.56738265,127.0197632,"N","N"
1515,"회기시장","상설장","서울특별시 동대문구 회기로25길 11","서울특별시 동대문구 회기동 57-220","매일",37.59097015,127.0549791,"Y","Y"
1516,"회성종합시장","상설장","경상남도 창원시 마산 회원구 회성동 시장1길 16","경상남도 창원시 마산회원구 회성동 450-2","매일",35.2329295,128.5594101,"Y","Y"
1517,"회원프라자","상설장","경상남도 거제시 고현로11길 18","경상남도 거제시 고현동961-59","매일",34.88902769,128.6248292,"Y","Y"
1518,"회인재래시장","5일장","충청북도 보은근 회인면 회인로 34","충청북도 보은군 회인면 중앙리 59-15","4일+9일",36.49066713,127.5977792,"Y","N"
1519,"횡성시장","상설장+5일장","강원특별자치도 횡성군 횡성읍 삼일로 4-2","x","매일+6일",37.4898938,127.9866151,"Y","Y"
1520,"횡천공설시장","5일장","경상남도 하동군 횡천면 문화2길 24","경상남도 하동군 횡천면 횡천리 507-2","5일+10일",35.10921229,127.8107002,"Y","Y"
1521,"효자시장","상설장","경상북도 포항시 남구 효자동길10번길 13","경상북도 포항시 남구 효자동 301-1","매일",36.00799585,129.3315924,"Y","Y"
1522,"후암시장","상설장","서울특별시 용산구 한강대로104길 77","서울특별시 용산구 후암동 103","매일",37.55038071,126.9766339,"Y","Y"
1523,"후포시장","5일장","경상북도 울진군 후포면 울진대게로21","경상북도 울진군 후포면 삼율리 126","3일+8일",36.67787585,129.4442274,"Y","Y"
1524,"흥국상가","상설장","전라남도 여수시 흥국로 64","전라남도 여수시 신기동 59-1","매일",34.76200819,127.6693332,"N","N"
1525,"흥덕전통시장","5일장","전라북도 고창군 흥덕면 흥덕시장길 3","전라북도 고창군 흥덕면 흥덕리239-1","4일,+9일",35.52058954,126.7002283,"Y","Y"
1526,"흥덕전통시장","5일장","전라북도 고창군 흥덕면 흥덕시장길 3","전라북도 고창군 흥덕면 흥덕리 239-1","4일+9일",35.52059009,126.7002295,"Y","Y"
1527,"흥부시장","상설장+5일장","경상북도 울진군 북면 장터길 104","경상북도 울진군 북면 부구리 135","매일+6일",37.10360525,129.3753799909,"Y","N"
1528,"흥해시장","5일장","경상북도 포항시 북구 흥해읍 한동로 61-13","경상북도 포항시 북구 흥해읍 성내리 61-2","매일",36.110619,129.3482876,"Y","Y"
1382,"칠성진 경명시장","상설장","대구광역시 북구 칠성시장로 19","대구광역시 북구 칠성동1가 89","매일",35.87571938,128.6040649,"Y","Y"
1383,"칠원공설시장","5일장","경상남도 함안군 칠원면 서남3길14","경상남도 함안군 칠원면 구성리 734-7","3일+8일",35.30565226,128.5195185,"Y","Y"
1384,"코끼리시장","상설장","경기도 성남시 분당구 내정로 166번길 7-6","경기도 성남시 분당구 수내동 56","매일",37.37311168,127.1204218,"Y","Y"
1385,"코오롱타운상가","상설장","경상남도 창원시 회원구 내서읍 호원로361-2","경상남도 창원시 회원구 내서읍 호계리 10","매일",35.26570599,128.5256081,"Y","Y"
1386,"코코프라자","상설장","경기도 성남시 서현로210번길 20","경기도 성남시 서현동 248-5번지 1층","매일",37.38585743,127.124037,"Y","Y"
1387,"태능엔터피아","상설장","서울특별시 중랑구 동일로129길 35","서울특별시 중랑구 중화동 314-1 태능에셈빌","매일",37.59922257,127.0775053,"Y","Y"
1388,"태백시 장성중앙시장","상설장","강원특별자치도 태백시 장성1길 190","강원특별자치도 태백시 장성동 159-2","매일",37.10068429,129.009713,"Y","Y"
1389,"태백시장","상설장","x","대구광역시 수성구 수성2가 39-4","매일",35.8551903,128.6167783,"Y","Y"
1390,"태안동부시장","5일장","충청남도 태안군 시장4길 32","충청남도 태안군 동문리 284","3일+8일",36.75224265,126.2990268,"Y","Y"
1391,"태안서부시장","상설장","충청남도 태안군 남문리 시장2길 38-4","충청남도 태안군 태안읍 남문리 169-7","매일",36.75319258,126.296659,"Y","Y"
1392,"태전중앙시장","상설장","대구광역시 북구 태전로 15","대구광역시 북구 태전동 156-1","매일",35.92166388,128.5449078,"Y","Y"
1393,"태평전통시장","상설장","대전광역시 중구 수침로 55번길 56","대전광역시 중구 태평동 333-8","매일",36.32594524,127.397694,"Y","Y"
1394,"태화종합시장","5일장","울산광역시 중구 화진길 20-4","울산광역시 중구 태화동 36-13","5일+10일",35.55419983,129.307415,"Y","Y"
1395,"태화종합시장","상설장+5일장","울산광역시 중구 화진길 20-4(태화동)","울산광역시 중구 태화동 36-13","매일+5일, 10일",35.55419983,129.3074139,"Y","Y"
1396,"테크노상가","상설장","서울특별시 중구 마장로1가길 17 테크노상가","서울특별시 중구 신당동 213-51 엠씨프라자","매일",37.56884578,127.0132375,"Y","Y"
1397,"토월복합상가시장","상설장","경상남도 창원시 의창구 신월로 42","경상남도 창원시 의창구 실월동68-1","매일",35.22803688,128.6919388,"Y","Y"
1398,"토지금고시장","상설장","인천광역시 미추홀구 낙성중로 38번길 5","인천광역시 미추홀구 용현동 617-55","매일",37.45154989,126.6378022,"Y","Y"
1399,"통복시장 상인회","5일장","경기도 평택시 통복시장로25번길 10","경기도 평택시 통복동 70-29","5일+10일",36.99782047,127.0850782,"Y","Y"
1400,"통영중앙전통시장","5일장","경상남도 통영시 중앙시장1길14-16","경상남도 통영시 중앙동 38-4","2일+7일",34.84529265,128.4246138,"Y","Y"
1401,"통인시장","상설장","서울특별시 종로구 자하문로 15길 18","서울특별시 종로구 통인동 10-3","매일",37.580767,126.9699476,"Y","N"
1402,"통일상가","상설장","서울특별시 중구 청계천로 260-6","서울특별시 중구 을지로6가 17-11","매일",37.56916306,127.0062102,"Y","N"
1403,"통진시장","상설장","경기도 김포시 서암로84번길 29","경기도 김포시 서암리 721-8","매일",37.69129472,126.5997011,"N","N"
1404,"통진시장","상설장","경기도 김포시 통진읍 서암로84번길 1","경기도 김포시 통진읍 서암리 730-3","매일",37.6924031388,126.5993151,"N","N"
1405,"특산물전통시장","상설장+5일장","충청남도 태안군 태안읍 시장4길 18","충청남도 태안군 태안읍 동문리 286 일원","매일",36.751301,126.2984693858,"Y","Y"
1406,"팔달문시장","상설장","경기도 수원시 팔달구 정조로770번길 17 영동","경기도 수원시 팔달구 영동 6-14","매일",37.27685617,127.0178859,"Y","Y"
1407,"팔달신시장","상설장","대구광역시 북구 팔달로33길5-9","대구광역시 북구 노원동3가","매일",35.8892023,128.5679272,"Y","Y"
1408,"평거한보하이타운","상설장","경상남도 진주시 순환로 553번길 7","경상남도 진주시 평거동 301-1","매일",35.17265107,128.0592567,"Y","Y"
1409,"평창대화시장","5일장","강원특별자치도 평창군 대화면 대화시장 2길 41","강원특별자치도 평창군 대화면 대화리 1001-163","4일+9일",37.50110318,128.4539931,"Y","Y"
1410,"평창전통시장","5일장","강원특별자치도 평창군 평창읍 평창중앙로 27-26","강원특별자치도 평창군 평창읍 하리 139-1","5일+10일",37.36723552,128.3947832,"Y","Y"
1411,"평택국제 중앙시장","상설장","경기도 평택시 중앙시장로 16","경기도 평택시 신장동 317-70","매일",37.07987951,127.0521948,"Y","Y"
1412,"평해시장","5일장","경상북도 울진군 평해읍 평해6길12","경상북도 울진군 평해읍 평해리 879-3","2일+7일",36.72694528,129.4424364,"Y","Y"
1413,"평화시장","상설장","대구광역시 동구 아양로 9길 6-6","대구광역시 동구 신암동 597-14","매일",35.88259978,128.6193995,"Y","Y"
1414,"평화시장","상설장","서울특별시 중구 청계천로 274 일대","서울특별시 중구 을지로6가 17-48 일대","매일",37.56942586,127.0080476,"Y","Y"
1415,"평화시장","5일장","경상북도 김천시 김천로100","경상북도 김천시 평화동 259-1","5일+10일",36.12364051,128.1130801,"Y","Y"
1416,"포방터시장","상설장","서울특별시 서대문구 포방터길 43","서울특별시 서대문구 홍은동 9-123","매일",37.59867095,126.9488969,"Y","Y"
1417,"포천일동전통시장","상설장","경기도 포천시 일동면 화동로 1090-14","경기도 포천시 일동면 1033번지 13-9","매일",37.95977517,127.3194839,"Y","Y"
1418,"포항 죽도 농산물시장","상설장","경상북도 포항시 죽도시장2길 18","경상북도 포항시 죽도동 5-22","매일",36.03457772,129.3679676,"Y","Y"
1419,"포항 큰 동해시장","상설장","경상북도 포항시 남구 중앙로146번길 30","경상북도 포항시 남구 해도동 435-31","매일",36.02655267,129.3709812,"Y","Y"
1420,"포항운하송림시장","상설장","경상북도 포항시 남구 운하로36번길 7","경상북도 포항시 남구 송도동 493-11","매일",36.02820448,129.3763118,"Y","N"
1421,"포항죽도어시장","상설장","경상북도 포항시 북구 죽도시장길32","경상북도 포항시 북구 죽도동 574-4","매일",36.03513373,129.3690792,"Y","Y"
1422,"포항중앙상가","상설장","경상북도 포항시 북구 중앙상가길64","경상북도 포항시 북구 상원동 468-23","매일",36.04015775,129.3661508,"Y","Y"
1423,"표선오일시장","5일장","제주특별자치도 서귀포시 표선면 표선동서로 203-1","제주특별자치도 서귀포시 표선면 표선리 1001-1","2일+7일",33.3227172,126.8303826,"Y","Y"
1424,"풍각공설시장","상설장+5일장","경상북도 청도군 청도군 풍각면 송서7길 5","경상북도 청도군 청도군 풍각면 송서리 572-2","매일+6일",35.6409322,128.6186232,"Y","Y"
1425,"풍기선비골인삼시장","상설장","경상북도 영주시 풍기읍 소백로 2156","경상북도 영주시 풍기읍 산법리 446-4 8","매일",36.88850301,128.5406894,"Y","Y"
1426,"풍기인삼시장","상설장","경상북도 영주시 풍기읍인삼로8","경상북도 영주시 서부리 145-3","매일",36.87302722,128.5236169,"Y","Y"
1427,"풍기중앙시장","상설장","경상북도 영주시 풍기읍 동성로 73","경상북도 영주시 풍기읍 성내리 1-4","매일",36.8706025,128.528199,"Y","Y"
1428,"풍기토종인삼시장","상설장","경상북도 영주시 풍기읍 인삼로 40","경상북도 영주시 풍기읍 성내리 148","매일",36.87028809,128.5224189,"Y","Y"
1429,"풍납시장","상설장","서울특별시 송파구 바람드리길 15-1 풍납동","서울특별시 송파구 풍납동 88-61","매일",37.53802809,127.1176834,"Y","Y"
1430,"풍물시장","5일장","경상북도 상주시 풍물시장길16","경상북도 상주시 남성동 113-28","2일+7일",36.41284998,128.1606296,"Y","Y"
1431,"풍산공설시장","5일장","경상북도 안동시 풍산읍 하리들길 7-1","경상북도 안동시 풍산읍 하리리 234-6","3일+8일",36.57720866,128.5765748,"Y","Y"
1432,"풍양시장","5일장","경상북도 예천군 풍양면 낙상2길 37-13","경상북도 예천군 풍양면 낙상리 157-7","3일+8일",36.50927274,128.2998052,"Y","Y"
1433,"하단시장","상설장","부산광역시 사하구 승학로2번길 1","부산광역시 사하구 당리동 302-7","매일",35.10627751,128.9694939,"Y","N"
1434,"하단오일시장","5일장","부산광역시 사하구 제석로17번길 1","부산광역시 사하구 하단 1동 620-8","2일+7일",35.10372011,128.9708028,"Y","Y"
1435,"하대원공설시장","상설장","경기도 성남시 마지로 118","경기도 성남시 중원구 하대원동 266의1","매일",37.42746648,127.1422367,"Y","Y"
1436,"하동공설시장","5일장","경상남도 하동군 하동읍 시장 1길 12-2","경상남도 하동군 하동읍 읍내리 258-1","2일+7일",35.06980844,127.7483806,"Y","Y"
1437,"하양 꿈바우","5일장","경상북도 경산시 하양읍 대학로 1543","경상북도 경산시 하양읍 금락리 35-6","4일+9일",35.9156322,128.8192527,"Y","Y"
1438,"학성새벽시장","상설장","울산광역시 중구 새벽시장3길 23","울산광역시 중구 학성동 359-2","매일",35.55664606,129.3326873,"Y","Y"
1439,"학성새벽시장","상설장","울산광역시 중구 새벽시장3길 21(학성동)","울산광역시 중구 학성동 359-2","매일",35.55655467,129.3326793,"Y","Y"
1440,"학성종합시장","상설장","울산광역시 중구 새치로 28(학성동)","울산광역시 중구 학성동 467-1","매일",35.5544211,129.3320577,"Y","N"
1441,"학익시장","상설장","인천광역시 미추홀구 학익동 한나루로 400","인천광역시 미추홀구 학익동 270-3","매일",37.44351498,126.6649652,"Y","Y"
1442,"학장반도프라자 상가","상설장","부산광역시 사상구 수산시 사상구 대동로 98","부산광역시 사상구 수산시 사상구 학장동 573-1","매일",35.13729145,128.9791721,"Y","Y"
1443,"한라종합시장","상설장","경상북도 포항시 북구 대안길 57","경상북도 포항시 북구 용흥동 357-1","매일",36.04122646,129.3512715,"Y","Y"
1444,"한라프라자","상설장","경상남도 거제시 거제중앙로 1906 고현동","경상남도 거제시 고현동 961-153","매일",34.88820439,128.6235602,"Y","Y"
1445,"한림매일시장","상설장","제주특별자치도 제주시 한림읍 한림로 681","제주특별자치시도 제주시 한림읍 한림리 1315-4","매일",33.41564699,126.2647729,"Y","Y"
1446,"한림민속오일시장","5일장","제주특별자치도 제주시 한림읍 한수풀로4길 10","제주특별자치도 제주시 한림읍 대림리 1698-4","4일+9일",33.41983247,126.2745037,"Y","Y"
1447,"한민시장","상설장","대전광역시 서구 도솔로 308번길 27","대전광역시 서구 괴정동 88-34","매일",36.33462149,127.3840015,"Y","Y"
1448,"한신시장","상설장","경기도 부천시 은성로68번길 46","경기도 부천시 소사본동 200-1","매일",37.47312398,126.7980162,"Y","Y"
1449,"한아름시장","상설장","서울특별시 광진구 능동로13길 39","서울특별시 광진구 화양동 10-1","매일",37.54395902,127.0697577,"Y","Y"
1450,"한일상가","상설장","서울특별시 종로구 청계천로 229 종로5가","서울특별시 종로구 종로5가 314-7 청오가방도매상가","매일",37.5701341,127.003025,"Y","Y"
1451,"함덕오일시장","상설장+5일장","제주특별자치도 제주시 조천읍 함덕16길 15-13","제주특별자치도 제주시 조천읍 함덕리 972-7","매일+6일",33.54025266,126.6679607,"Y","Y"
1452,"함양토종약초시장","상설장","경상남도 함양군 안의면 약초시장길 27","경상남도 함양군 안의면 이전리 15","매일",35.62596602,127.813715,"Y","Y"
1453,"함열시장","5일장","전라북도 익산시 함열읍 2길 8","전라북도 익산시 와리 565-26","2일+7일",36.07961971,126.9595645,"Y","Y"
1454,"함창전통시장","상설장+5일장","경상북도 상주시 함창읍 함창시장길4514","경상북도 상주시 함창읍 구향리 122","매일+6일",36.56755749,128.1795035,"Y","Y"
1455,"함평천지전통시장","5일장","전라남도 함평군 함평읍 시장길 49","전라남도 함평군 함평읍 기각리 980-2","2일+7일",35.06458237,126.5227236,"Y","Y"
1456,"합덕전통시장","상설장+5일장","충청남도 당진시 합덕읍 버그내2길 128-42","충청남도 당진시 합덕읍 운산리 253-47","매일+6일",36.80616603,126.7719699,"Y","Y"
1457,"합성대로상가","상설장","경상남도 창원시 회원구 3 15대로 747의1","경상남도 창원시 회원구 합성동 85-8","매일",35.23893191,128.5824166,"N","N"
1458,"합성동상가","상설장","경상남도 창원시 회원구 합성옛길136","경상남도 창원시 회원구 합성동 125-3","매일",35.23772502,128.583461,"Y","Y"
1459,"합성옛길시장","상설장","경상남도 창원시 마산 회원구 합성옛길 77","경상남도 창원시 마산 회원구 합성동 732-7","매일",35.23534201,128.5820118,"N","N"
1460,"합천시장","5일장","경상남도 합첩군 합천읍 옥산로 53","경상남도 합첩군 합천읍 합천리473-1","3일+8일",35.56850747,128.161164,"Y","Y"
1461,"해남읍5일시장","상설장+5일장","전라남도 해남군 해남읍 중앙2로 76","전라남도 해남군 해남읍 고도리 102-4","매일+6일",34.56878501,126.5971566,"Y","Y"
1462,"해리전통시장","5일장","전라북도 고창군 해리면 해리중앙로 64-12","전라북도 고창군 해리면 하련리 685-55","4일+9일",35.45865577,126.5422036,"Y","Y"
1463,"해리전통시장","5일장","전라북도 고창군 해리면 남시길 5","전라북도 고창군 해리면 하련리 170","4일,+9일",35.45933217,126.5415058,"Y","N"
1464,"해미 종합시장","상설장","충청남도 서산시 해미면 남문1로 47 48 2동","충청남도 서산시 읍내리 184-1","매일",36.71129701,126.5464938,"Y","Y"
1465,"해미시장","상설장","충청남도 서산시 읍성마을2길 16","충청남도 서산시 읍내리 202","매일",36.71113407,126.5455675,"Y","Y"
1466,"해보시장","5일장","전라남도 함평군 해보면 밀재로 1274-12","전라남도 함평군 해보면 문장리 822-116","3일+8일",35.18105262,126.6025523,"Y","Y"
1467,"해안로건어물상가시장","상설장","전라남도 여수시 교동남2길 14","전라남도 여수시 교동 481","매일",34.73953206,127.734506,"N","Y"
1468,"해운대시장","상설장","부산광역시 해운대구 구남로41번길 22-1","부산광역시 해운대구 중1동 1394-193","매일",35.16140387,129.1623153,"Y","Y"
1469,"해평공설시장","5일장","경상북도 구미시 해평면 해평시장3길","경상북도 구미시 해평면 낙성리 138","4일+9일",36.19585459,128.3919328,"Y","Y"
1470,"현대상가시장","상설장","충청남도 보령시 대흥로 16","충청남도 보령시 대천동 618-69","매일",36.34890744,126.5969396,"Y","N"
1471,"현대시장","상설장","경기도 성남시 수정구 수정북로18","경기도 성남시 수정구 태평동 3683","매일",37.44170136,127.1319785,"Y","Y"
1472,"현대시장","상설장","인천광역시 동구 송림로109번길 21","인천광역시 동구 송림동 50-1","매일",37.47748725,126.6461237,"Y","Y"
